{
"type": "FeatureCollection",
"name": "bucharest_obstacles",
"crs": { "type": "name", "properties": { "name": "urn:ogc:def:crs:OGC:1.3:CRS84" } },
"features": [
{ "type": "Feature", "properties": { "element_type": "way", "osmid": 989154772, "building": "yes", "height": "10", "man_made": "tower", "tower:type": "observation", "addr:city": null, "addr:housenumber": null, "addr:postcode": null, "addr:street": null }, "geometry": { "type": "Polygon", "coordinates": [ [ [ 25.9003976, 44.635238 ], [ 25.900376, 44.6352487 ], [ 25.9003507, 44.6352538 ], [ 25.9003244, 44.6352528 ], [ 25.9003, 44.6352458 ], [ 25.9002801, 44.6352335 ], [ 25.9002669, 44.6352173 ], [ 25.9002619, 44.6351989 ], [ 25.9002655, 44.6351804 ], [ 25.9002773, 44.6351637 ], [ 25.9002961, 44.6351506 ], [ 25.9003199, 44.6351426 ], [ 25.900346, 44.6351405 ], [ 25.9003716, 44.6351446 ], [ 25.9003941, 44.6351543 ], [ 25.9004108, 44.6351687 ], [ 25.9004201, 44.6351862 ], [ 25.9004209, 44.6352049 ], [ 25.9004132, 44.6352228 ], [ 25.9003976, 44.635238 ] ] ] } },
{ "type": "Feature", "properties": { "element_type": "way", "osmid": 989154773, "building": "yes", "height": "10", "man_made": "tower", "tower:type": "observation", "addr:city": null, "addr:housenumber": null, "addr:postcode": null, "addr:street": null }, "geometry": { "type": "Polygon", "coordinates": [ [ [ 25.8979184, 44.6349625 ], [ 25.8978962, 44.6349746 ], [ 25.8978697, 44.6349809 ], [ 25.8978417, 44.6349806 ], [ 25.8978154, 44.6349738 ], [ 25.8977938, 44.6349612 ], [ 25.8977791, 44.6349443 ], [ 25.897773, 44.6349249 ], [ 25.8977761, 44.6349055 ], [ 25.8977877, 44.6348879 ], [ 25.8978067, 44.6348739 ], [ 25.897831, 44.6348649 ], [ 25.8978581, 44.634862 ], [ 25.897885, 44.6348655 ], [ 25.897909, 44.6348749 ], [ 25.8979274, 44.6348893 ], [ 25.8979384, 44.6349072 ], [ 25.8979406, 44.6349266 ], [ 25.8979338, 44.6349459 ], [ 25.8979184, 44.6349625 ] ] ] } },
{ "type": "Feature", "properties": { "element_type": "way", "osmid": 989154775, "building": "commercial", "height": "14", "man_made": null, "tower:type": null, "addr:city": "Cocani", "addr:housenumber": "205", "addr:postcode": "137181", "addr:street": "Șoseaua București-Târgoviște" }, "geometry": { "type": "Polygon", "coordinates": [ [ [ 25.9018857, 44.6365633 ], [ 25.9020987, 44.6361486 ], [ 25.9022013, 44.6361753 ], [ 25.9022312, 44.6361171 ], [ 25.9023942, 44.6361594 ], [ 25.9024993, 44.6361222 ], [ 25.9025268, 44.6361293 ], [ 25.9024662, 44.6362474 ], [ 25.9025019, 44.6362567 ], [ 25.9024351, 44.6363869 ], [ 25.9024159, 44.6363819 ], [ 25.9021528, 44.6368944 ], [ 25.901943, 44.6368398 ], [ 25.9020615, 44.636609 ], [ 25.9018857, 44.6365633 ] ] ] } }
]
}
