{
  "type": "FeatureCollection",
  "features": [
    {
      "type": "Feature",
      "properties": {},
      "geometry": {
        "type": "LineString",
        "coordinates": [
          [
            25.8981031,
            44.6344825
          ],
          [
            25.8980175,
            44.6345636
          ],
          [
            25.8979961,
            44.6346753
          ],
          [
            25.898046,
            44.6347972
          ],
          [
            25.8981387,
            44.6348784
          ],
          [
            25.8982315,
            44.6349054
          ],
          [
            25.8983599,
            44.6348952
          ],
          [
            25.8986238,
            44.6348444
          ],
          [
            25.8987807,
            44.6348546
          ],
          [
            25.8989565,
            44.6349529
          ],
          [
            25.8989993,
            44.6350645
          ],
          [
            25.8989137,
            44.6351305
          ],
          [
            25.8978794,
            44.6351052
          ],
          [
            25.8977581,
            44.6350899
          ],
          [
            25.8977082,
            44.6350442
          ],
          [
            25.8976725,
            44.6349681
          ],
          [
            25.8976582,
            44.6345366
          ],
          [
            25.8975726,
            44.6344605
          ],
          [
            25.8980078,
            44.6344402
          ],
          [
            25.8981273,
            44.6344512
          ],
          [
            25.8985471,
            44.6345329
          ],
          [
            25.9002092,
            44.6349949
          ],
          [
            25.8994887,
            44.6350609
          ],
          [
            25.8993532,
            44.6350558
          ],
          [
            25.8992961,
            44.6349898
          ],
          [
            25.8992105,
            44.6347208
          ],
          [
            25.9010482,
            44.6352051
          ],
          [
            25.9012122,
            44.6352965
          ],
          [
            25.9012335,
            44.6354284
          ],
          [
            25.901048,
            44.6355502
          ],
          [
            25.8970106,
            44.6354436
          ],
          [
            25.8968831,
            44.6354322
          ],
          [
            25.8966691,
            44.6353053
          ],
          [
            25.8965336,
            44.6351683
          ],
          [
            25.8964765,
            44.6349855
          ],
          [
            25.8965479,
            44.634818
          ],
          [
            25.8967547,
            44.634615
          ],
          [
            25.8970472,
            44.6344627
          ],
          [
            25.8975679,
            44.6344576
          ],
          [
            25.8981031,
            44.6344825
           ]
        ]
      }
    }
  ]
}