{
  "type": "FeatureCollection",
  "features": [
    {
      "type": "Feature",
      "properties": {},
      "geometry": {
        "type": "LineString",
        "coordinates": [
          [
            24.4278945,
            46.4383354
          ],
          [
            24.428237,
            46.4381188
          ],
          [
            24.4286594,
            46.4378242
          ],
          [
            24.4289375,
            46.4376166
          ],
          [
            24.428989,
            46.4375669
          ],
          [
            24.4290096,
            46.4375367
          ],
          [
            24.4290354,
            46.4374853
          ],
          [
            24.4290436,
            46.4374425
          ],
          [
            24.4290552,
            46.4373304
          ],
          [
            24.4290599,
            46.4372653
          ],
          [
            24.4290481,
            46.4371887
          ],
          [
            24.4290268,
            46.4371414
          ],
          [
            24.428788,
            46.4368889
          ],
          [
            24.4286273,
            46.4367276
          ],
          [
            24.4281096,
            46.4362015
          ],
          [
            24.4274406,
            46.435522
          ],
          [
            24.4267033,
            46.4347824
          ],
          [
            24.4261005,
            46.4341715
          ],
          [
            24.4255473,
            46.4336094
          ],
          [
            24.4245332,
            46.4325731
          ],
          [
            24.4241126,
            46.4321436
          ],
          [
            24.4240369,
            46.4320931
          ],
          [
            24.4239613,
            46.4320622
          ],
          [
            24.4239069,
            46.4320426
          ],
          [
            24.4238076,
            46.4320361
          ],
          [
            24.4237107,
            46.4320426
          ],
          [
            24.4235519,
            46.432109
          ],
          [
            24.4234158,
            46.4321685
          ],
          [
            24.423283,
            46.4322326
          ],
          [
            24.423137,
            46.4322669
          ],
          [
            24.4230009,
            46.4322714
          ],
          [
            24.4228939,
            46.4322524
          ],
          [
            24.4227877,
            46.4322021
          ],
          [
            24.4226981,
            46.4321106
          ],
          [
            24.4226815,
            46.4319253
          ],
          [
            24.4227313,
            46.4314426
          ],
          [
            24.4227313,
            46.4314403
          ],
          [
            24.4227712,
            46.4309851
          ],
          [
            24.4227745,
            46.4307861
          ],
          [
            24.4227479,
            46.4305734
          ],
          [
            24.4226948,
            46.4304041
          ],
          [
            24.4226351,
            46.4302577
          ],
          [
            24.4220509,
            46.4293655
          ],
          [
            24.4213308,
            46.4282631
          ],
          [
            24.421208,
            46.4280778
          ],
          [
            24.421135,
            46.4279177
          ],
          [
            24.4211283,
            46.4277003
          ],
          [
            24.4211648,
            46.4275219
          ],
          [
            24.4212412,
            46.4274029
          ],
          [
            24.4217457,
            46.4264897
          ],
          [
            24.4219158,
            46.4261677
          ],
          [
            24.4219689,
            46.4260258
          ],
          [
            24.4219955,
            46.4258678
          ],
          [
            24.4219988,
            46.4256298
          ],
          [
            24.4219723,
            46.42544
          ],
          [
            24.4219192,
            46.4252592
          ],
          [
            24.42175,
            46.4247471
          ],
          [
            24.4217168,
            46.4246991
          ],
          [
            24.4216338,
            46.4246419
          ],
          [
            24.421521,
            46.4245961
          ],
          [
            24.4213948,
            46.4245893
          ],
          [
            24.4212718,
            46.4246075
          ],
          [
            24.4212153,
            46.4246258
          ],
          [
            24.4211556,
            46.4246556
          ],
          [
            24.4211125,
            46.4246853
          ],
          [
            24.4210627,
            46.4247562
          ],
          [
            24.420993,
            46.4249324
          ],
          [
            24.4208702,
            46.4253328
          ],
          [
            24.4206357,
            46.4260272
          ],
          [
            24.4203362,
            46.4266735
          ],
          [
            24.4199346,
            46.4275268
          ],
          [
            24.419908,
            46.4276343
          ],
          [
            24.4199215,
            46.4279171
          ],
          [
            24.4199846,
            46.4281024
          ],
          [
            24.4201135,
            46.4282957
          ],
          [
            24.420379,
            46.4285313
          ],
          [
            24.4213548,
            46.4292176
          ],
          [
            24.4214079,
            46.4292867
          ],
          [
            24.4214118,
            46.4293443
          ],
          [
            24.4213737,
            46.4294247
          ],
          [
            24.4211535,
            46.4296018
          ],
          [
            24.4211336,
            46.4296613
          ],
          [
            24.4211582,
            46.4297464
          ],
          [
            24.4217584,
            46.4305848
          ],
          [
            24.4219577,
            46.4308774
          ],
          [
            24.4219776,
            46.4310947
          ],
          [
            24.4219377,
            46.4316026
          ],
          [
            24.4218946,
            46.4319914
          ],
          [
            24.4219012,
            46.4321332
          ],
          [
            24.4219278,
            46.4322979
          ],
          [
            24.4220074,
            46.4324443
          ],
          [
            24.4221468,
            46.4326045
          ],
          [
            24.4223792,
            46.4327692
          ],
          [
            24.4235243,
            46.4334715
          ],
          [
            24.4240449,
            46.4338169
          ],
          [
            24.4245342,
            46.4342196
          ],
          [
            24.4248371,
            46.4345519
          ],
          [
            24.4252881,
            46.4351496
          ],
          [
            24.4253788,
            46.4352618
          ],
          [
            24.4256717,
            46.4356751
          ],
          [
            24.4258623,
            46.4359523
          ],
          [
            24.4260832,
            46.4362775
          ],
          [
            24.4261785,
            46.4363768
          ],
          [
            24.4262808,
            46.4364585
          ],
          [
            24.4263738,
            46.4364858
          ],
          [
            24.4266063,
            46.4364858
          ],
          [
            24.4267063,
            46.4364922
          ],
          [
            24.4267993,
            46.4365178
          ],
          [
            24.4268853,
            46.4365771
          ],
          [
            24.4275407,
            46.4372465
          ],
          [
            24.4275802,
            46.4373426
          ],
          [
            24.4275848,
            46.4374724
          ],
          [
            24.4275267,
            46.437615
          ],
          [
            24.4272563,
            46.4380779
          ],
          [
            24.42724,
            46.4381757
          ],
          [
            24.4272679,
            46.4382654
          ],
          [
            24.4273144,
            46.4383151
          ],
          [
            24.4273934,
            46.4383631
          ],
          [
            24.4275167,
            46.4383952
          ],
          [
            24.4276724,
            46.4384
          ],
          [
            24.4277887,
            46.4383808
          ],
          [
            24.4278956,
            46.4383335
          ]
        ]
      }
    },
    {
      "type": "Feature",
      "properties": {},
      "geometry": {
        "type": "LineString",
        "coordinates": [
          [
            24.4279259,
            46.4383479
          ],
          [
            24.4283982,
            46.4380329
          ],
          [
            24.4288597,
            46.4377115
          ],
          [
            24.4289539,
            46.4376321
          ],
          [
            24.4290285,
            46.4375518
          ],
          [
            24.4290785,
            46.4374436
          ],
          [
            24.429089,
            46.4372616
          ],
          [
            24.429075,
            46.4371694
          ],
          [
            24.4289878,
            46.4370532
          ],
          [
            24.4285705,
            46.43663
          ],
          [
            24.4279796,
            46.4360328
          ],
          [
            24.4275085,
            46.4355489
          ],
          [
            24.426689,
            46.4347205
          ],
          [
            24.4261116,
            46.4341395
          ],
          [
            24.4253373,
            46.4333564
          ],
          [
            24.4246616,
            46.4326554
          ],
          [
            24.4240751,
            46.432079
          ],
          [
            24.4239307,
            46.4320253
          ],
          [
            24.4237681,
            46.432019
          ],
          [
            24.4236741,
            46.4320285
          ],
          [
            24.4232588,
            46.4322149
          ],
          [
            24.4231419,
            46.4322433
          ],
          [
            24.4230503,
            46.4322528
          ],
          [
            24.4229953,
            46.4322496
          ],
          [
            24.4229312,
            46.4322417
          ],
          [
            24.4228762,
            46.4322164
          ],
          [
            24.4228166,
            46.4321912
          ],
          [
            24.4227639,
            46.4321407
          ],
          [
            24.4227364,
            46.4321106
          ],
          [
            24.4227181,
            46.432038
          ],
          [
            24.4227341,
            46.4317949
          ],
          [
            24.4228074,
            46.4309533
          ],
          [
            24.4227982,
            46.4306217
          ],
          [
            24.4226906,
            46.4303122
          ],
          [
            24.4226264,
            46.4301812
          ],
          [
            24.4222255,
            46.4295796
          ],
          [
            24.4217054,
            46.4287695
          ],
          [
            24.4212885,
            46.4281463
          ],
          [
            24.4211963,
            46.4279786
          ],
          [
            24.4211665,
            46.4279072
          ],
          [
            24.4211573,
            46.4277319
          ],
          [
            24.4211825,
            46.427604
          ],
          [
            24.421226,
            46.4274871
          ],
          [
            24.4216022,
            46.4268141
          ],
          [
            24.4219479,
            46.4261747
          ],
          [
            24.4219479,
            46.4261747
          ],
          [
            24.4220189,
            46.4260076
          ],
          [
            24.4220235,
            46.4259255
          ],
          [
            24.4220303,
            46.4257013
          ],
          [
            24.4220235,
            46.4254786
          ],
          [
            24.4217806,
            46.4247493
          ],
          [
            24.4217579,
            46.4246989
          ],
          [
            24.4216983,
            46.4246515
          ],
          [
            24.4215746,
            46.4245883
          ],
          [
            24.4214601,
            46.4245678
          ],
          [
            24.4213341,
            46.4245678
          ],
          [
            24.4212401,
            46.4245915
          ],
          [
            24.4211415,
            46.4246374
          ],
          [
            24.4210865,
            46.42468
          ],
          [
            24.4210407,
            46.4247432
          ],
          [
            24.4209858,
            46.4248523
          ],
          [
            24.4208127,
            46.4253938
          ],
          [
            24.4207087,
            46.4257079
          ],
          [
            24.4206127,
            46.4259726
          ],
          [
            24.4204927,
            46.4262484
          ],
          [
            24.4201446,
            46.426982
          ],
          [
            24.4198845,
            46.427544
          ],
          [
            24.4198726,
            46.4277229
          ],
          [
            24.4198846,
            46.4279132
          ],
          [
            24.4199767,
            46.4281697
          ],
          [
            24.4201087,
            46.4283351
          ],
          [
            24.4202927,
            46.4285089
          ],
          [
            24.4208288,
            46.4288867
          ],
          [
            24.4212368,
            46.4291761
          ],
          [
            24.4213569,
            46.4292947
          ],
          [
            24.4213569,
            46.4293609
          ],
          [
            24.4213249,
            46.4294271
          ],
          [
            24.4212368,
            46.4294822
          ],
          [
            24.4211528,
            46.4295567
          ],
          [
            24.4211008,
            46.4296256
          ],
          [
            24.4210968,
            46.4297083
          ],
          [
            24.4211808,
            46.42986
          ],
          [
            24.4217009,
            46.4305604
          ],
          [
            24.4219128,
            46.4308802
          ],
          [
            24.4218848,
            46.4316495
          ],
          [
            24.4218487,
            46.4321235
          ],
          [
            24.4218687,
            46.4322834
          ],
          [
            24.4219647,
            46.4324488
          ],
          [
            24.4221167,
            46.432617
          ],
          [
            24.4222895,
            46.4327436
          ],
          [
            24.4233338,
            46.4333916
          ],
          [
            24.4240459,
            46.4338769
          ],
          [
            24.424462,
            46.4342078
          ],
          [
            24.4248101,
            46.4345822
          ],
          [
            24.4252142,
            46.4351033
          ],
          [
            24.4257023,
            46.4357816
          ],
          [
            24.4260862,
            46.4363302
          ],
          [
            24.4262102,
            46.4364378
          ],
          [
            24.4263222,
            46.4365012
          ],
          [
            24.4264383,
            46.4365122
          ],
          [
            24.4265743,
            46.4365067
          ],
          [
            24.426719,
            46.4365288
          ],
          [
            24.426831,
            46.4365591
          ],
          [
            24.426955,
            46.4366832
          ],
          [
            24.4275111,
            46.4372677
          ],
          [
            24.4275351,
            46.4374607
          ],
          [
            24.4274871,
            46.4376179
          ],
          [
            24.4272151,
            46.4380893
          ],
          [
            24.4271991,
            46.4381941
          ],
          [
            24.4272431,
            46.4383016
          ],
          [
            24.4273471,
            46.4383788
          ],
          [
            24.4275391,
            46.4384312
          ],
          [
            24.4277272,
            46.4384202
          ],
          [
            24.4279441,
            46.4383347
          ]
        ]
      }
    }
  ]
}
