{
"type": "FeatureCollection",
"name": "targu_mures_obstacles",
"crs": { "type": "name", "properties": { "name": "urn:ogc:def:crs:OGC:1.3:CRS84" } },
"features": [
{ "type": "Feature", "properties": { "element_type": "way", "osmid": 87934249, "CLC:code": "324", "CLC:explanation": "See http://wiki.openstreetmap.org/wiki/Romania_CLC_Import.", "CLC:shapeId": "186191", "CLC:year": "2006", "leaf_cycle": "mixed", "leaf_type": "mixed", "name": "Pădurea Ghindei", "natural": "wood", "source": "European Environment Agency (EEA), CORINE Land Cover, 2006", "source:ro": "Agenţia Europeană de Mediu, CORINE Land Cover, 2006", "wood": null, "building": null, "building:levels": null }, "geometry": { "type": "Polygon", "coordinates": [ [ [ 24.391557, 46.444941 ], [ 24.392496, 46.444891 ], [ 24.392645, 46.443959 ], [ 24.393303, 46.443253 ], [ 24.393733, 46.442976 ], [ 24.393774, 46.442109 ], [ 24.39297, 46.441514 ], [ 24.392138, 46.441495 ], [ 24.391299, 46.441476 ], [ 24.390911, 46.440892 ], [ 24.391977, 46.440502 ], [ 24.392078, 46.440558 ], [ 24.392568, 46.440655 ], [ 24.393253, 46.439937 ], [ 24.394532, 46.439319 ], [ 24.395884, 46.439349 ], [ 24.39674, 46.438865 ], [ 24.39769, 46.438599 ], [ 24.398736, 46.438623 ], [ 24.399294, 46.437839 ], [ 24.400347, 46.437575 ], [ 24.4012, 46.437163 ], [ 24.401861, 46.436387 ], [ 24.402737, 46.43547 ], [ 24.403587, 46.43513 ], [ 24.40405, 46.434277 ], [ 24.404909, 46.433716 ], [ 24.406181, 46.433241 ], [ 24.407889, 46.432344 ], [ 24.409282, 46.431512 ], [ 24.410151, 46.430884 ], [ 24.410937, 46.429674 ], [ 24.410964, 46.429099 ], [ 24.411315, 46.428275 ], [ 24.411039, 46.427517 ], [ 24.41152, 46.426156 ], [ 24.411484, 46.424716 ], [ 24.411206, 46.42399 ], [ 24.413101, 46.423529 ], [ 24.412472, 46.421981 ], [ 24.411509, 46.421977 ], [ 24.410546, 46.422535 ], [ 24.409459, 46.423374 ], [ 24.408912, 46.423938 ], [ 24.408861, 46.425016 ], [ 24.409552, 46.425824 ], [ 24.409195, 46.426756 ], [ 24.408353, 46.426952 ], [ 24.407552, 46.426287 ], [ 24.406814, 46.426485 ], [ 24.40678, 46.427205 ], [ 24.406094, 46.428484 ], [ 24.407128, 46.428652 ], [ 24.407758, 46.428522 ], [ 24.409117, 46.428409 ], [ 24.408878, 46.429052 ], [ 24.407697, 46.429817 ], [ 24.406737, 46.430303 ], [ 24.406599, 46.431019 ], [ 24.405951, 46.431509 ], [ 24.404375, 46.431833 ], [ 24.403821, 46.432396 ], [ 24.403075, 46.432739 ], [ 24.402251, 46.432576 ], [ 24.401814, 46.432998 ], [ 24.401662, 46.434002 ], [ 24.400786, 46.434923 ], [ 24.399701, 46.435834 ], [ 24.3994, 46.435611 ], [ 24.398304, 46.434578 ], [ 24.397791, 46.434279 ], [ 24.39662, 46.434828 ], [ 24.396163, 46.435681 ], [ 24.397078, 46.436134 ], [ 24.397786, 46.436582 ], [ 24.396819, 46.437207 ], [ 24.395349, 46.437461 ], [ 24.395325, 46.437965 ], [ 24.394368, 46.438379 ], [ 24.393426, 46.438502 ], [ 24.392483, 46.438625 ], [ 24.391929, 46.439331 ], [ 24.390972, 46.439597 ], [ 24.390658, 46.440053 ], [ 24.390536, 46.440019 ], [ 24.390103, 46.440369 ], [ 24.389157, 46.440563 ], [ 24.387791, 46.44082 ], [ 24.387541, 46.441678 ], [ 24.388245, 46.442202 ], [ 24.388214, 46.44285 ], [ 24.387019, 46.443902 ], [ 24.386789, 46.443815 ], [ 24.386679, 46.44447 ], [ 24.38686, 46.44505 ], [ 24.388534, 46.444872 ], [ 24.38998, 46.445121 ], [ 24.391557, 46.444941 ] ] ] } },
{ "type": "Feature", "properties": { "element_type": "way", "osmid": 87934415, "CLC:code": "324", "CLC:explanation": "See http://wiki.openstreetmap.org/wiki/Romania_CLC_Import.", "CLC:shapeId": "186221", "CLC:year": "2006", "leaf_cycle": null, "leaf_type": null, "name": null, "natural": "wood", "source": "European Environment Agency (EEA), CORINE Land Cover, 2006", "source:ro": "Agenţia Europeană de Mediu, CORINE Land Cover, 2006", "wood": "mixed", "building": null, "building:levels": null }, "geometry": { "type": "Polygon", "coordinates": [ [ [ 24.407103, 46.453293 ], [ 24.408905, 46.452758 ], [ 24.410493, 46.452218 ], [ 24.41157, 46.451451 ], [ 24.411941, 46.450231 ], [ 24.412009, 46.448793 ], [ 24.414989, 46.447565 ], [ 24.416566, 46.447241 ], [ 24.41858, 46.44649 ], [ 24.419865, 46.445727 ], [ 24.420583, 46.445973 ], [ 24.420929, 46.445392 ], [ 24.421215, 46.443743 ], [ 24.421665, 46.443452 ], [ 24.421159, 46.44273 ], [ 24.423165, 46.442127 ], [ 24.424662, 46.441297 ], [ 24.425819, 46.441036 ], [ 24.426672, 46.440623 ], [ 24.426914, 46.439908 ], [ 24.4283659, 46.4386382 ], [ 24.4266039, 46.439351 ], [ 24.4264174, 46.4383547 ], [ 24.426472, 46.438239 ], [ 24.4252, 46.438714 ], [ 24.423939, 46.438978 ], [ 24.422798, 46.43888 ], [ 24.423986, 46.437967 ], [ 24.425171, 46.43713 ], [ 24.4258969, 46.4367815 ], [ 24.425302, 46.4359342 ], [ 24.4250284, 46.4356007 ], [ 24.4248289, 46.4351728 ], [ 24.4243828, 46.4346438 ], [ 24.423646, 46.43414 ], [ 24.423103, 46.434631 ], [ 24.421918, 46.435473 ], [ 24.421055, 46.435957 ], [ 24.420619, 46.436379 ], [ 24.42014, 46.435505 ], [ 24.421137, 46.434227 ], [ 24.41991, 46.433768 ], [ 24.420276, 46.432625 ], [ 24.418709, 46.432733 ], [ 24.417884, 46.43257 ], [ 24.417825, 46.431634 ], [ 24.416913, 46.431109 ], [ 24.416413, 46.430666 ], [ 24.416239, 46.429938 ], [ 24.417397, 46.429676 ], [ 24.418786, 46.428916 ], [ 24.419236, 46.428206 ], [ 24.41927, 46.427487 ], [ 24.417468, 46.428166 ], [ 24.416713, 46.428725 ], [ 24.417069, 46.427798 ], [ 24.416389, 46.426775 ], [ 24.417691, 46.425648 ], [ 24.418799, 46.424234 ], [ 24.418829, 46.423586 ], [ 24.417796, 46.423419 ], [ 24.416643, 46.423609 ], [ 24.416189, 46.42439 ], [ 24.41583, 46.425246 ], [ 24.415072, 46.425877 ], [ 24.415346, 46.426679 ], [ 24.415215, 46.427252 ], [ 24.4150768, 46.4281005 ], [ 24.4149165, 46.4290204 ], [ 24.4147469, 46.4295913 ], [ 24.4147174, 46.4304213 ], [ 24.415333, 46.431361 ], [ 24.416636, 46.432542 ], [ 24.417213, 46.433563 ], [ 24.417817, 46.434009 ], [ 24.418285, 46.435103 ], [ 24.419056, 46.436416 ], [ 24.4193169, 46.4371017 ], [ 24.4195245, 46.4376174 ], [ 24.419723, 46.4379667 ], [ 24.420108, 46.438383 ], [ 24.419919, 46.440183 ], [ 24.419851, 46.44162 ], [ 24.418868, 46.442606 ], [ 24.417572, 46.443589 ], [ 24.416397, 46.44421 ], [ 24.415531, 46.44491 ], [ 24.415393, 46.445627 ], [ 24.414735, 46.446187 ], [ 24.413571, 46.446593 ], [ 24.412285, 46.44736 ], [ 24.411409, 46.448276 ], [ 24.410757, 46.448837 ], [ 24.410029, 46.448821 ], [ 24.409912, 46.449106 ], [ 24.409559, 46.449961 ], [ 24.409115, 46.450527 ], [ 24.408038, 46.451155 ], [ 24.406967, 46.451778 ], [ 24.406595, 46.451806 ], [ 24.406405, 46.452629 ], [ 24.40514, 46.45296 ], [ 24.405296, 46.45407 ], [ 24.407103, 46.453293 ] ] ] } },
{ "type": "Feature", "properties": { "element_type": "way", "osmid": 488430123, "CLC:code": null, "CLC:explanation": null, "CLC:shapeId": null, "CLC:year": null, "leaf_cycle": null, "leaf_type": null, "name": null, "natural": null, "source": null, "source:ro": null, "wood": null, "building": "yes", "building:levels": "2" }, "geometry": { "type": "Polygon", "coordinates": [ [ [ 24.4263784, 46.4350944 ], [ 24.4265905, 46.4349953 ], [ 24.4271034, 46.4355167 ], [ 24.427085, 46.4355252 ], [ 24.4272062, 46.4356484 ], [ 24.4270504, 46.4357212 ], [ 24.4264655, 46.4351267 ], [ 24.4264276, 46.4351444 ], [ 24.4263784, 46.4350944 ] ] ] } },
{ "type": "Feature", "properties": { "element_type": "way", "osmid": 488430124, "CLC:code": null, "CLC:explanation": null, "CLC:shapeId": null, "CLC:year": null, "leaf_cycle": null, "leaf_type": null, "name": null, "natural": null, "source": null, "source:ro": null, "wood": null, "building": "yes", "building:levels": "1" }, "geometry": { "type": "Polygon", "coordinates": [ [ [ 24.4275187, 46.4362015 ], [ 24.4275994, 46.436163 ], [ 24.427572, 46.4361358 ], [ 24.4276603, 46.4360935 ], [ 24.4278004, 46.4362327 ], [ 24.4276314, 46.4363135 ], [ 24.4275187, 46.4362015 ] ] ] } },
{ "type": "Feature", "properties": { "element_type": "way", "osmid": 488431214, "CLC:code": null, "CLC:explanation": null, "CLC:shapeId": null, "CLC:year": null, "leaf_cycle": null, "leaf_type": null, "name": null, "natural": null, "source": null, "source:ro": null, "wood": null, "building": "yes", "building:levels": "1" }, "geometry": { "type": "Polygon", "coordinates": [ [ [ 24.423635, 46.4329751 ], [ 24.4237467, 46.4330913 ], [ 24.4238909, 46.4330255 ], [ 24.4237792, 46.4329093 ], [ 24.423635, 46.4329751 ] ] ] } },
{ "type": "Feature", "properties": { "element_type": "way", "osmid": 488431215, "CLC:code": null, "CLC:explanation": null, "CLC:shapeId": null, "CLC:year": null, "leaf_cycle": null, "leaf_type": null, "name": null, "natural": null, "source": null, "source:ro": null, "wood": null, "building": "yes", "building:levels": "1" }, "geometry": { "type": "Polygon", "coordinates": [ [ [ 24.4219802, 46.4285179 ], [ 24.422132, 46.4284698 ], [ 24.4221806, 46.4285426 ], [ 24.4222087, 46.4285337 ], [ 24.4222585, 46.4286084 ], [ 24.4221975, 46.4286278 ], [ 24.4222067, 46.4286416 ], [ 24.4221625, 46.4286556 ], [ 24.4221691, 46.4286654 ], [ 24.4220996, 46.4286875 ], [ 24.4220707, 46.4286442 ], [ 24.4220925, 46.4286373 ], [ 24.4220715, 46.4286058 ], [ 24.4220877, 46.4286007 ], [ 24.422046, 46.4285383 ], [ 24.4220029, 46.4285519 ], [ 24.4219802, 46.4285179 ] ] ] } },
{ "type": "Feature", "properties": { "element_type": "way", "osmid": 488431216, "CLC:code": null, "CLC:explanation": null, "CLC:shapeId": null, "CLC:year": null, "leaf_cycle": null, "leaf_type": null, "name": null, "natural": null, "source": null, "source:ro": null, "wood": null, "building": "yes", "building:levels": "1" }, "geometry": { "type": "Polygon", "coordinates": [ [ [ 24.4225226, 46.4291739 ], [ 24.4225707, 46.4292279 ], [ 24.4226452, 46.4291963 ], [ 24.4225972, 46.4291423 ], [ 24.4225226, 46.4291739 ] ] ] } },
{ "type": "Feature", "properties": { "element_type": "way", "osmid": 1158278448, "CLC:code": null, "CLC:explanation": null, "CLC:shapeId": null, "CLC:year": null, "leaf_cycle": null, "leaf_type": null, "name": null, "natural": null, "source": null, "source:ro": null, "wood": null, "building": "grandstand", "building:levels": null }, "geometry": { "type": "Polygon", "coordinates": [ [ [ 24.4276591, 46.4354271 ], [ 24.4278167, 46.4353573 ], [ 24.4274412, 46.434955 ], [ 24.4272836, 46.4350249 ], [ 24.4276591, 46.4354271 ] ] ] } },
{ "type": "Feature", "properties": { "element_type": "way", "osmid": 1286790646, "CLC:code": null, "CLC:explanation": null, "CLC:shapeId": null, "CLC:year": null, "leaf_cycle": null, "leaf_type": null, "name": null, "natural": null, "source": null, "source:ro": null, "wood": null, "building": "yes", "building:levels": null }, "geometry": { "type": "Polygon", "coordinates": [ [ [ 24.4449435, 46.4246992 ], [ 24.4449291, 46.4247929 ], [ 24.4451018, 46.4248055 ], [ 24.4451162, 46.4247118 ], [ 24.4449435, 46.4246992 ] ] ] } },
{ "type": "Feature", "properties": { "element_type": "way", "osmid": 1286790647, "CLC:code": null, "CLC:explanation": null, "CLC:shapeId": null, "CLC:year": null, "leaf_cycle": null, "leaf_type": null, "name": null, "natural": null, "source": null, "source:ro": null, "wood": null, "building": "yes", "building:levels": null }, "geometry": { "type": "Polygon", "coordinates": [ [ [ 24.4448966, 46.4246114 ], [ 24.4452761, 46.4246391 ], [ 24.4452879, 46.4245621 ], [ 24.4449084, 46.4245344 ], [ 24.4448966, 46.4246114 ] ] ] } }
]
}
