{"type":"FeatureCollection","features":[{"type":"Feature","properties":{},"geometry":{"type":"LineString","coordinates":[[5.252569,50.988539],[5.252755,50.988621],[5.252943,50.988702],[5.253513,50.98895],[5.253988,50.989157],[5.254302,50.989295],[5.254948,50.989575],[5.255255,50.989701],[5.25557,50.989831],[5.2563,50.990129],[5.25642,50.990176],[5.256473,50.990197],[5.256521,50.990223],[5.25659,50.990264],[5.256613,50.990287],[5.256625,50.990303],[5.256614,50.990339],[5.25656,50.990409],[5.256511,50.990479],[5.25651,50.990523],[5.256519,50.990555],[5.256558,50.990604],[5.256713,50.990749],[5.256981,50.99102],[5.257143,50.991173],[5.257388,50.991419],[5.257554,50.991604],[5.257776,50.991871],[5.257944,50.992074],[5.258172,50.992353],[5.258357,50.992583],[5.258442,50.992711],[5.258488,50.992786],[5.258543,50.992908],[5.258585,50.993036],[5.258612,50.993193],[5.258621,50.993355],[5.258625,50.993433],[5.258591,50.993582],[5.258554,50.993687],[5.25843,50.993959],[5.25829,50.994232],[5.258186,50.994423],[5.258136,50.994515],[5.258079,50.994605],[5.258006,50.994725],[5.257958,50.994784],[5.25795,50.994862],[5.257959,50.994888],[5.257971,50.994919],[5.258017,50.994947],[5.258081,50.994976],[5.258237,50.995036],[5.258281,50.995064],[5.258304,50.995092],[5.25831,50.995136],[5.258289,50.995187],[5.258217,50.995269],[5.25811,50.995409],[5.258076,50.995485],[5.258071,50.99558],[5.258098,50.995664],[5.258161,50.995743],[5.258228,50.995796],[5.258858,50.996089],[5.259246,50.996266],[5.25936,50.996302],[5.25949,50.996326],[5.259687,50.996348],[5.2599,50.996352],[5.260033,50.996338],[5.260128,50.996325],[5.260281,50.996294],[5.260441,50.996246],[5.260578,50.996179],[5.260786,50.996068],[5.260964,50.995968],[5.261416,50.995718],[5.261749,50.995533],[5.26211,50.995344],[5.262328,50.995251],[5.262594,50.995156],[5.262749,50.995109],[5.263322,50.994961],[5.263795,50.994841],[5.264774,50.994602],[5.265477,50.994425],[5.265559,50.994394],[5.26561,50.994351],[5.265672,50.994279],[5.265692,50.994219],[5.26568,50.994183],[5.265626,50.994111],[5.265504,50.994042],[5.26526,50.993939],[5.264936,50.99381],[5.264809,50.993743],[5.264692,50.993671],[5.264419,50.993427],[5.264311,50.993334],[5.264178,50.993261],[5.263935,50.993163],[5.263091,50.992797],[5.262309,50.992467],[5.261712,50.992212],[5.261073,50.991936],[5.260792,50.99182],[5.260034,50.991493],[5.259895,50.991435],[5.259452,50.990627],[5.259385,50.99054],[5.259276,50.990458],[5.258302,50.990066],[5.257612,50.989787],[5.255962,50.989118],[5.254274,50.988431],[5.254274,50.988431],[5.25338,50.988059],[5.253031,50.987915],[5.252866,50.98785],[5.252689,50.987755],[5.252497,50.987627],[5.252376,50.987532],[5.252328,50.987486],[5.252307,50.987374],[5.25235,50.98722],[5.252439,50.987059],[5.252613,50.986875],[5.252926,50.986598],[5.253926,50.985728],[5.254112,50.985548],[5.254181,50.985462],[5.254228,50.985375],[5.25431,50.985202],[5.254328,50.985075],[5.254319,50.985004],[5.254263,50.984866],[5.254136,50.984759],[5.25401,50.984694],[5.253842,50.984632],[5.253693,50.984593],[5.253444,50.984547],[5.25319,50.984518],[5.252744,50.984466],[5.252499,50.984453],[5.252331,50.984448],[5.252141,50.984454],[5.25197,50.984472],[5.251641,50.984547],[5.251325,50.984662],[5.251092,50.984788],[5.250955,50.984889],[5.250833,50.984987],[5.250738,50.98508],[5.250667,50.985171],[5.249994,50.985951],[5.249549,50.986472],[5.249483,50.986609],[5.249444,50.986739],[5.249447,50.986838],[5.24946,50.986927],[5.249519,50.987051],[5.24959,50.987157],[5.249729,50.987282],[5.249838,50.987353],[5.249971,50.98742],[5.251098,50.987909],[5.252225,50.988391],[5.25257,50.988539]]}},{"type":"Feature","properties":{},"geometry":{"type":"LineString","coordinates":[[5.250032,50.987406],[5.250124,50.987448],[5.250595,50.987651],[5.251299,50.987956],[5.251299,50.987956],[5.252028,50.988265],[5.2529,50.988639],[5.253569,50.988928],[5.254239,50.989222],[5.254757,50.989444],[5.255087,50.989591],[5.255487,50.989753],[5.255677,50.98983],[5.255774,50.989867],[5.255944,50.989936],[5.256065,50.989989],[5.256322,50.990092],[5.256525,50.990179],[5.256616,50.990225],[5.256666,50.990266],[5.256683,50.990301],[5.256674,50.990337],[5.256585,50.990461],[5.256566,50.990488],[5.256566,50.990522],[5.256578,50.990547],[5.256624,50.990597],[5.256839,50.99081],[5.257159,50.991122],[5.257287,50.991247],[5.257587,50.991564],[5.257849,50.991886],[5.257918,50.991966],[5.258147,50.992244],[5.258397,50.992552],[5.25846,50.992641],[5.258535,50.992758],[5.258623,50.992968],[5.258647,50.993043],[5.258666,50.993182],[5.258678,50.993378],[5.258678,50.99344],[5.258658,50.99354],[5.258594,50.993741],[5.2585,50.993938],[5.258474,50.993997],[5.258354,50.994219],[5.25831,50.99431],[5.258206,50.994501],[5.258114,50.994647],[5.258046,50.994754],[5.258017,50.994794],[5.258009,50.994839],[5.258011,50.994876],[5.258033,50.994905],[5.258122,50.994949],[5.258241,50.994993],[5.258291,50.995017],[5.258344,50.995055],[5.258367,50.995118],[5.258344,50.995196],[5.25819,50.99538],[5.258152,50.995447],[5.258129,50.995494],[5.258132,50.995553],[5.258133,50.995593],[5.258153,50.995643],[5.258175,50.995684],[5.258232,50.995745],[5.25832,50.995793],[5.258746,50.995991],[5.259123,50.996167],[5.259282,50.996237],[5.259409,50.996274],[5.259542,50.996299],[5.259685,50.996313],[5.259851,50.996318],[5.259983,50.996307],[5.260099,50.996294],[5.260167,50.99628],[5.260241,50.996265],[5.260302,50.99625],[5.260387,50.996222],[5.260436,50.996201],[5.260535,50.996154],[5.260644,50.996098],[5.260886,50.995963],[5.261459,50.995648],[5.262008,50.995348],[5.262267,50.995232],[5.262529,50.995133],[5.262767,50.995065],[5.262894,50.995032],[5.263194,50.994955],[5.263755,50.994811],[5.264298,50.994679],[5.264898,50.994533],[5.265357,50.99442],[5.265462,50.994391],[5.265516,50.994367],[5.265558,50.994336],[5.265602,50.994288],[5.265618,50.994261],[5.265629,50.994234],[5.265629,50.994206],[5.265612,50.994175],[5.265584,50.994139],[5.265546,50.994109],[5.265467,50.994071],[5.265061,50.993901],[5.265061,50.993901],[5.26489,50.993834],[5.26472,50.993742],[5.26456,50.99362],[5.264322,50.993405],[5.2643,50.993383],[5.264257,50.993352],[5.264165,50.993299],[5.264039,50.993246],[5.263456,50.993002],[5.26328,50.992926],[5.262473,50.992581],[5.262126,50.992432],[5.261656,50.99223],[5.261657,50.99223],[5.26101,50.991952],[5.260454,50.991717],[5.260222,50.991616],[5.259813,50.991443],[5.259803,50.991392],[5.25978,50.991348],[5.25956,50.990941],[5.259399,50.99065],[5.259351,50.990589],[5.259304,50.990539],[5.25926,50.990505],[5.259221,50.990476],[5.258894,50.990344],[5.258627,50.990235],[5.257969,50.989973],[5.257037,50.9896],[5.256358,50.989329],[5.255995,50.989177],[5.255769,50.989085],[5.255246,50.988869],[5.25508,50.988797],[5.254505,50.988565],[5.25397,50.988345],[5.253506,50.988155],[5.253105,50.987995],[5.252915,50.98791],[5.252811,50.987868],[5.252731,50.987826],[5.252659,50.987783],[5.252543,50.987711],[5.252398,50.987615],[5.252291,50.987519],[5.252247,50.987459],[5.252252,50.987338],[5.252282,50.987232],[5.25238,50.987051],[5.252472,50.986936],[5.252656,50.986766],[5.252759,50.986676],[5.253081,50.986404],[5.253293,50.986213],[5.25356,50.985981],[5.253796,50.985778],[5.253916,50.985667],[5.25403,50.985565],[5.25408,50.98551],[5.254124,50.985451],[5.254159,50.985391],[5.254237,50.985245],[5.254254,50.985171],[5.254271,50.985112],[5.254268,50.985062],[5.254258,50.985006],[5.254242,50.984944],[5.254219,50.984905],[5.254184,50.984862],[5.25412,50.984808],[5.254063,50.984767],[5.253968,50.984716],[5.253843,50.984674],[5.253755,50.984648],[5.253672,50.984626],[5.253483,50.984589],[5.253169,50.984551],[5.252783,50.984511],[5.252606,50.984495],[5.252415,50.984488],[5.252271,50.984486],[5.252066,50.984498],[5.251921,50.984522],[5.251786,50.984551],[5.251655,50.984584],[5.251504,50.984639],[5.251392,50.984682],[5.25128,50.984736],[5.251195,50.984779],[5.251109,50.98483],[5.251016,50.984897],[5.250934,50.984962],[5.250806,50.985078],[5.250758,50.985135],[5.250591,50.985334],[5.250301,50.985672],[5.249964,50.986061],[5.249631,50.986441],[5.249584,50.986512],[5.249532,50.986616],[5.249513,50.986694],[5.249503,50.986738],[5.249498,50.986836],[5.249509,50.986896],[5.249529,50.98695],[5.249562,50.987019],[5.249591,50.987066],[5.249614,50.987101],[5.249644,50.98714],[5.249674,50.987175],[5.249741,50.987237],[5.249887,50.987335],[5.250033,50.987405]]}}]}