{
"type": "FeatureCollection",
"name": "zolder_track_osm",
"crs": { "type": "name", "properties": { "name": "urn:ogc:def:crs:OGC:1.3:CRS84" } },
"features": [
{ "type": "Feature", "properties": { "name": "Circuit Zolder Track" }, "geometry": { "type": "LineString", "coordinates": [ [ 5.2539156, 50.9856995 ], [ 5.2540553, 50.9855726 ], [ 5.2540797, 50.9855516 ], [ 5.2541278, 50.9854904 ], [ 5.2541687, 50.985431 ], [ 5.254258, 50.9852563 ], [ 5.2542799, 50.9852067 ], [ 5.2542951, 50.9851352 ], [ 5.2542984, 50.9850948 ], [ 5.2542942, 50.9850308 ], [ 5.2542791, 50.9849677 ], [ 5.2542648, 50.984929 ], [ 5.2542294, 50.984871 ], [ 5.2541571, 50.9848054 ], [ 5.2540906, 50.9847574 ], [ 5.2540149, 50.984717 ], [ 5.2539173, 50.9846775 ], [ 5.2538012, 50.9846422 ], [ 5.2536935, 50.984611 ], [ 5.2535867, 50.9845892 ], [ 5.2534353, 50.9845648 ], [ 5.2531846, 50.9845345 ], [ 5.2528708, 50.9845008 ], [ 5.2526882, 50.9844823 ], [ 5.2524922, 50.9844697 ], [ 5.2523181, 50.9844663 ], [ 5.252191, 50.9844722 ], [ 5.2520606, 50.9844815 ], [ 5.251921, 50.9845025 ], [ 5.251788, 50.9845294 ], [ 5.251645, 50.9845698 ], [ 5.2515205, 50.9846127 ], [ 5.2513952, 50.9846582 ], [ 5.2512976, 50.9847036 ], [ 5.2511933, 50.9847574 ], [ 5.2510923, 50.9848163 ], [ 5.2509888, 50.9848895 ], [ 5.2509055, 50.9849568 ], [ 5.2508214, 50.9850334 ], [ 5.2507861, 50.9850653 ], [ 5.2504151, 50.9855011 ], [ 5.2498799, 50.9861208 ], [ 5.2497801, 50.9862364 ], [ 5.2496567, 50.9863768 ], [ 5.2495898, 50.986453 ], [ 5.2495446, 50.9865287 ], [ 5.2495141, 50.9865876 ], [ 5.2494899, 50.9866602 ], [ 5.2494731, 50.9867349 ], [ 5.2494688, 50.9868148 ], [ 5.2494773, 50.9868852 ], [ 5.2494993, 50.9869441 ], [ 5.2495256, 50.9870146 ], [ 5.2496003, 50.9871292 ], [ 5.249655, 50.9871891 ], [ 5.2497223, 50.9872501 ], [ 5.2498526, 50.9873397 ], [ 5.2500422, 50.9874328 ], [ 5.2515238, 50.9880752 ], [ 5.2525628, 50.988516 ], [ 5.2549763, 50.9895641 ], [ 5.2564878, 50.9901821 ], [ 5.2565909, 50.9902376 ], [ 5.2566349, 50.990273 ], [ 5.2566528, 50.9903032 ], [ 5.2566428, 50.9903363 ], [ 5.2566233, 50.9903664 ], [ 5.2566, 50.9903962 ], [ 5.2565533, 50.9904582 ], [ 5.2565371, 50.9904841 ], [ 5.256535, 50.9905178 ], [ 5.2565465, 50.9905493 ], [ 5.2565718, 50.9905788 ], [ 5.2568441, 50.990848 ], [ 5.2572677, 50.9912648 ], [ 5.2574835, 50.9914878 ], [ 5.2575891, 50.9916068 ], [ 5.257926, 50.9920172 ], [ 5.2583322, 50.9925077 ], [ 5.258437, 50.9926562 ], [ 5.2585077, 50.9927684 ], [ 5.2585707, 50.9929082 ], [ 5.2586151, 50.993039 ], [ 5.2586365, 50.9931821 ], [ 5.2586444, 50.9932921 ], [ 5.2586487, 50.9934347 ], [ 5.2586208, 50.9935778 ], [ 5.2585732, 50.9937172 ], [ 5.2585057, 50.9938661 ], [ 5.258451, 50.9939828 ], [ 5.2581881, 50.9944813 ], [ 5.2580398, 50.9947189 ], [ 5.2579893, 50.9947894 ], [ 5.2579799, 50.9948283 ], [ 5.2579799, 50.9948725 ], [ 5.2579935, 50.994904 ], [ 5.2580156, 50.9949208 ], [ 5.2580482, 50.9949377 ], [ 5.2581345, 50.9949745 ], [ 5.2598589, 50.9914386 ], [ 5.2606078, 50.99176 ], [ 5.2620209, 50.9923646 ], [ 5.2632947, 50.9929102 ], [ 5.2641806, 50.9932848 ], [ 5.264249, 50.9933216 ], [ 5.2643239, 50.9933729 ], [ 5.2645487, 50.993574 ], [ 5.2646249, 50.9936437 ], [ 5.2646749, 50.9936844 ], [ 5.2647354, 50.9937252 ], [ 5.2648274, 50.9937777 ], [ 5.2649155, 50.9938211 ], [ 5.2651166, 50.9939013 ], [ 5.2653834, 50.9940117 ], [ 5.2655477, 50.9940853 ], [ 5.2656069, 50.9941274 ], [ 5.2656319, 50.9941576 ], [ 5.2656534, 50.9941924 ], [ 5.2656577, 50.9942166 ], [ 5.265655, 50.9942457 ], [ 5.2656491, 50.9942607 ], [ 5.2656367, 50.9942887 ], [ 5.2656125, 50.9943167 ], [ 5.2655753, 50.9943533 ], [ 5.265529, 50.994384 ], [ 5.2654682, 50.9944088 ], [ 5.2653508, 50.9944406 ], [ 5.2647397, 50.9945908 ], [ 5.2598589, 50.9914386 ], [ 5.2597774, 50.9912882 ], [ 5.2594419, 50.9906689 ], [ 5.2594064, 50.990615 ], [ 5.2593538, 50.9905506 ], [ 5.2593157, 50.9905191 ], [ 5.2592462, 50.9904673 ], [ 5.2591503, 50.9904237 ], [ 5.2565237, 50.9893728 ], [ 5.2551881, 50.9888208 ], [ 5.2541484, 50.9883988 ], [ 5.2530846, 50.9879613 ], [ 5.2528407, 50.9878595 ], [ 5.2527417, 50.9878051 ], [ 5.252641, 50.9877507 ], [ 5.2525602, 50.9876974 ], [ 5.2524531, 50.9876258 ], [ 5.2523987, 50.9875822 ], [ 5.2523502, 50.9875424 ], [ 5.2523291, 50.9875245 ], [ 5.2523115, 50.9874977 ], [ 5.252298, 50.9874686 ], [ 5.2522862, 50.9874347 ], [ 5.252281, 50.9874007 ], [ 5.2522802, 50.9873603 ], [ 5.2522895, 50.9872998 ], [ 5.2523113, 50.9872316 ], [ 5.252345, 50.9871694 ], [ 5.2523761, 50.9871113 ], [ 5.2524241, 50.9870339 ], [ 5.2524872, 50.9869548 ], [ 5.252599, 50.9868505 ], [ 5.2526941, 50.9867622 ], [ 5.2527967, 50.9866764 ], [ 5.2530853, 50.9864316 ], [ 5.2532628, 50.9862709 ], [ 5.2537979, 50.9858065 ], [ 5.2539156, 50.9856995 ], [ 5.2536935, 50.9858029 ], [ 5.253562, 50.9858514 ], [ 5.2519132, 50.9864104 ], [ 5.251497, 50.9865758 ], [ 5.25131, 50.9866826 ], [ 5.2512104, 50.9867649 ], [ 5.2511569, 50.9868425 ], [ 5.2511062, 50.9869504 ], [ 5.251087, 50.9870534 ], [ 5.2511004, 50.9871299 ], [ 5.2511272, 50.9872193 ], [ 5.2511704, 50.9872883 ], [ 5.2512713, 50.9873724 ], [ 5.2513833, 50.9874339 ], [ 5.2522601, 50.9877919 ], [ 5.2525232, 50.9878656 ], [ 5.2530673, 50.9880804 ], [ 5.2545216, 50.9886703 ], [ 5.2553938, 50.9890262 ], [ 5.2554643, 50.9890659 ], [ 5.2559344, 50.9892551 ], [ 5.255967, 50.9892686 ], [ 5.2560562, 50.9892701 ], [ 5.2567457, 50.9895543 ], [ 5.2567963, 50.9895852 ], [ 5.2568324, 50.9896177 ], [ 5.2568657, 50.9896434 ], [ 5.2574258, 50.9898666 ], [ 5.2578416, 50.9900358 ], [ 5.2579968, 50.990106 ], [ 5.2581547, 50.9901881 ], [ 5.2582191, 50.9902254 ], [ 5.2582563, 50.9902584 ], [ 5.2582809, 50.990294 ], [ 5.2582953, 50.9903397 ], [ 5.2582978, 50.9903795 ], [ 5.258291, 50.9904194 ], [ 5.2582405, 50.9906162 ], [ 5.2582216, 50.9906755 ], [ 5.2582218, 50.9907185 ], [ 5.2582641, 50.9907579 ], [ 5.2583449, 50.9907968 ], [ 5.2590756, 50.9911093 ], [ 5.2592939, 50.9912005 ], [ 5.259231, 50.9911391 ], [ 5.2592148, 50.9910924 ], [ 5.2592355, 50.991037 ], [ 5.2592644, 50.990987 ], [ 5.2593551, 50.990899 ], [ 5.2594208, 50.9908319 ], [ 5.2594419, 50.9907767 ], [ 5.2594484, 50.9907202 ], [ 5.2594419, 50.9906689 ], [ 5.2592939, 50.9912005 ], [ 5.2595659, 50.9913129 ], [ 5.2598589, 50.9914386 ], [ 5.2522601, 50.9877919 ], [ 5.2522802, 50.9873603 ] ] } }
]
}
