{
"type": "FeatureCollection",
"name": "bucharest_ideal_racing_line_live",
"crs": { "type": "name", "properties": { "name": "urn:ogc:def:crs:OGC:1.3:CRS84" } },
"features": [
{ "type": "Feature", "properties": { "track": "Bucharest", "updated_at": "2026-07-27 20:58:46.565800+03:00", "boundary_file": "C:\\LIDIA\\Poli\\solis\\zolder_heatmap\\data\\processed\\bucharest_track_boundaries.geojson" }, "geometry": { "type": "LineString", "coordinates": [ [ 25.89728798, 44.635475630001096 ], [ 25.897304704511878, 44.635476015293754 ], [ 25.897321429023755, 44.635476400586406 ], [ 25.897338153535642, 44.635476785879042 ], [ 25.897354878047519, 44.635477171171694 ], [ 25.897371602559392, 44.635477556464345 ], [ 25.89738788615902, 44.635477931599425 ], [ 25.897404610670907, 44.635478316892062 ], [ 25.897421335182788, 44.635478702184692 ], [ 25.897438059694665, 44.635479087477322 ], [ 25.897454784206545, 44.635479472769958 ], [ 25.897471508718429, 44.635479858062581 ], [ 25.897488030372564, 44.635480238681858 ], [ 25.897504754884444, 44.635480623974473 ], [ 25.897521479396325, 44.635481009267096 ], [ 25.897538203908205, 44.635481394559704 ], [ 25.897554928420085, 44.635481779852327 ], [ 25.897571652931966, 44.63548216514495 ], [ 25.897588156843153, 44.635482545355437 ], [ 25.897604881355029, 44.635482930648045 ], [ 25.897621605866906, 44.635483315940654 ], [ 25.89763833037879, 44.635483701233262 ], [ 25.89765505489067, 44.635484086525857 ], [ 25.89767177940255, 44.635484471818458 ], [ 25.897688121848159, 44.635484848309162 ], [ 25.897704846360043, 44.635485233601756 ], [ 25.897721570871923, 44.63548561889435 ], [ 25.897738223662014, 44.635486002534634 ], [ 25.897754948173894, 44.635486387827214 ], [ 25.897771672685778, 44.635486773119794 ], [ 25.897788397197655, 44.635487158412374 ], [ 25.897805121709535, 44.635487543704961 ], [ 25.897821810306755, 44.63548792817015 ], [ 25.897838534818632, 44.635488313462723 ], [ 25.897855259330516, 44.635488698755282 ], [ 25.897871983842396, 44.635489084047855 ], [ 25.897888708354273, 44.635489469340428 ], [ 25.897905432866157, 44.635489854632979 ], [ 25.897922157378034, 44.635490239925545 ], [ 25.897938881889917, 44.635490625218097 ], [ 25.897955606401794, 44.635491010510641 ], [ 25.897972330913671, 44.635491395803193 ], [ 25.897988962892377, 44.635491778964003 ], [ 25.898005687404254, 44.635492164256547 ], [ 25.898022411916138, 44.635492549549092 ], [ 25.898039136428014, 44.635492934841629 ], [ 25.898055860939895, 44.635493320134181 ], [ 25.898072585451775, 44.635493705426718 ], [ 25.89808879570343, 44.635494078871929 ], [ 25.89810552021531, 44.635494464164459 ], [ 25.89812224472719, 44.635494849456997 ], [ 25.898138969239071, 44.635495234749513 ], [ 25.898155693750947, 44.635495620042036 ], [ 25.898172418262824, 44.635496005334552 ], [ 25.898189142774712, 44.635496390627068 ], [ 25.898205867286595, 44.635496775919592 ], [ 25.898222591798472, 44.635497161212101 ], [ 25.898239175343296, 44.635497543257067 ], [ 25.898255899855183, 44.635497928549576 ], [ 25.89827262436706, 44.635498313842078 ], [ 25.89828934887894, 44.635498699134587 ], [ 25.89830607339082, 44.635499084427089 ], [ 25.898322797902701, 44.635499469719591 ], [ 25.898338955573685, 44.63549984195344 ], [ 25.898355680085572, 44.635500227245927 ], [ 25.898372404597449, 44.635500612538415 ], [ 25.898389129109329, 44.63550099783091 ], [ 25.898404758477113, 44.635501357893901 ], [ 25.898421482988994, 44.635501743186389 ], [ 25.898438207500874, 44.635502128478869 ], [ 25.898454932012751, 44.63550251377135 ], [ 25.898471656524638, 44.635502899063809 ], [ 25.898488381036518, 44.63550328435629 ], [ 25.898505105548399, 44.63550366964877 ], [ 25.898521830060275, 44.635504054941222 ], [ 25.898538554572159, 44.635504440233696 ], [ 25.898555279084032, 44.635504825526155 ], [ 25.898572003595916, 44.635505210818607 ], [ 25.898588728107796, 44.635505596111074 ], [ 25.89860545261968, 44.63550598140354 ], [ 25.898622177131557, 44.635506366695992 ], [ 25.898638901643441, 44.635506751988437 ], [ 25.898655626155318, 44.635507137280875 ], [ 25.898672350667198, 44.63550752257332 ], [ 25.898689075179078, 44.635507907865765 ], [ 25.898705799690966, 44.635508293158203 ], [ 25.898722524202839, 44.635508678450641 ], [ 25.898739248714719, 44.635509063743072 ], [ 25.898755973226596, 44.63550944903551 ], [ 25.89877269773848, 44.635509834327941 ], [ 25.898789422250356, 44.635510219620365 ], [ 25.89880614676224, 44.635510604912788 ], [ 25.898822871274117, 44.635510990205212 ], [ 25.898839595786004, 44.635511375497629 ], [ 25.898856320297881, 44.635511760790045 ], [ 25.898873044809761, 44.635512146082455 ], [ 25.898889769321638, 44.635512531374872 ], [ 25.898906493833518, 44.635512916667281 ], [ 25.898923218345399, 44.635513301959669 ], [ 25.898939942857279, 44.635513687252079 ], [ 25.898956667369156, 44.635514072544474 ], [ 25.898973391881043, 44.635514457836884 ], [ 25.898990116392923, 44.635514843129279 ], [ 25.899006840904804, 44.635515228421674 ], [ 25.89902356541668, 44.635515613714063 ], [ 25.899040289778601, 44.635516002271771 ], [ 25.899056991304935, 44.635516395402362 ], [ 25.899073715266955, 44.635516791822873 ], [ 25.899090439228971, 44.635517188243384 ], [ 25.899107163190987, 44.635517584663901 ], [ 25.89912302069451, 44.635517960546089 ], [ 25.899139744656523, 44.635518356966593 ], [ 25.899156468618539, 44.635518753387089 ], [ 25.899173014368998, 44.635519145583302 ], [ 25.899189738331017, 44.635519542003784 ], [ 25.899206462293037, 44.635519938424274 ], [ 25.89922318625505, 44.635520334844763 ], [ 25.899239864958197, 44.635520730192439 ], [ 25.89925658892022, 44.635521126612915 ], [ 25.899273312882237, 44.635521523033404 ], [ 25.89929003684426, 44.635521919453886 ], [ 25.899306760191113, 44.635522328394373 ], [ 25.899323481504215, 44.635522778473131 ], [ 25.899340202038033, 44.635523243090944 ], [ 25.899356922571858, 44.635523707708778 ], [ 25.89937364310568, 44.635524172326583 ], [ 25.899390363639501, 44.635524636944382 ], [ 25.899407084173323, 44.635525101562187 ], [ 25.899423804707144, 44.635525566179993 ], [ 25.899440525240969, 44.635526030797784 ], [ 25.89945724577478, 44.635526495415576 ], [ 25.899473966308605, 44.635526960033367 ], [ 25.89949068684243, 44.635527424651151 ], [ 25.899507407376252, 44.635527889268928 ], [ 25.899524127910077, 44.635528353886713 ], [ 25.899540848443895, 44.635528818504483 ], [ 25.89955756897772, 44.635529283122253 ], [ 25.899574289511541, 44.63552974774003 ], [ 25.899591010045359, 44.635530212357786 ], [ 25.899607730579181, 44.635530676975549 ], [ 25.899623584326918, 44.635531117507696 ], [ 25.899640304860732, 44.635531582125445 ], [ 25.899657025394557, 44.635532046743187 ], [ 25.899673745928386, 44.635532511360935 ], [ 25.899690466462197, 44.635532975978684 ], [ 25.899698230811438, 44.635533191728619 ], [ 25.89971495150148, 44.635533653453216 ], [ 25.899731672366482, 44.635534111705766 ], [ 25.899748393285858, 44.63553456885866 ], [ 25.899765114205227, 44.635535026011546 ], [ 25.899781835124596, 44.635535483164418 ], [ 25.899798556043965, 44.635535940317297 ], [ 25.899815276963334, 44.635536397470169 ], [ 25.899831997882707, 44.635536854623034 ], [ 25.899848718802076, 44.635537311775899 ], [ 25.899865439721445, 44.635537768928764 ], [ 25.899882160640814, 44.635538226081628 ], [ 25.899898881560183, 44.635538683234472 ], [ 25.89991560247956, 44.635539140387316 ], [ 25.899932323398929, 44.635539597540166 ], [ 25.899949044318298, 44.63554005469301 ], [ 25.899965700180516, 44.63554051006718 ], [ 25.899982421099885, 44.635540967220017 ], [ 25.899999142019258, 44.635541424372846 ], [ 25.900015862938623, 44.635541881525668 ], [ 25.900032583857996, 44.635542338678491 ], [ 25.900049281288638, 44.635542795189131 ], [ 25.90006600220801, 44.635543252341954 ], [ 25.900082723127376, 44.635543709494762 ], [ 25.900099444046749, 44.635544166647584 ], [ 25.900116164966121, 44.635544623800378 ], [ 25.900132885885487, 44.635545080953186 ], [ 25.90014960680486, 44.635545538105987 ], [ 25.900166327724229, 44.635545995258788 ], [ 25.900183048643598, 44.635546452411582 ], [ 25.90019976956297, 44.635546909564368 ], [ 25.90021649048234, 44.635547366717141 ], [ 25.900233211401709, 44.635547823869928 ], [ 25.900249932321081, 44.635548281022707 ], [ 25.90026665324045, 44.635548738175487 ], [ 25.90028337415982, 44.635549195328252 ], [ 25.900300095079189, 44.635549652481018 ], [ 25.90031679550982, 44.63555010907362 ], [ 25.900333516429189, 44.635550566226385 ], [ 25.900350237348562, 44.635551023379136 ], [ 25.900366958267927, 44.635551480531895 ], [ 25.900383679187303, 44.635551937684639 ], [ 25.900400400106676, 44.635552394837383 ], [ 25.900417121026042, 44.635552851990127 ], [ 25.900433841945414, 44.635553309142864 ], [ 25.90045056286478, 44.635553766295594 ], [ 25.900467283784153, 44.635554223448345 ], [ 25.900484004703518, 44.635554680601061 ], [ 25.900500725622894, 44.635555137753776 ], [ 25.90051744654226, 44.635555594906499 ], [ 25.900534167461633, 44.635556052059222 ], [ 25.900550888381002, 44.635556509211945 ], [ 25.900567609300371, 44.635556966364646 ], [ 25.900584330219743, 44.635557423517348 ], [ 25.900601051139112, 44.635557880670056 ], [ 25.900617772058485, 44.635558337822751 ], [ 25.900634492977854, 44.635558794975445 ], [ 25.900651213897227, 44.635559252128139 ], [ 25.900667934816592, 44.635559709280834 ], [ 25.900684655798116, 44.635560164972119 ], [ 25.900701377058802, 44.6355606139633 ], [ 25.900718098509884, 44.635561057379249 ], [ 25.900734819960967, 44.635561500795205 ], [ 25.900751541412042, 44.635561944211176 ], [ 25.900768262863124, 44.635562387627132 ], [ 25.9007849843142, 44.63556283104306 ], [ 25.900801705765275, 44.635563274459003 ], [ 25.900818427216358, 44.635563717874945 ], [ 25.900835148667436, 44.63556416129088 ], [ 25.900851872909762, 44.635564542109876 ], [ 25.900868601795139, 44.635564813238439 ], [ 25.90088533186881, 44.635565046004025 ], [ 25.900902061942489, 44.635565278769626 ], [ 25.900918792016167, 44.635565511535226 ], [ 25.900935522089842, 44.63556574430082 ], [ 25.90095225216352, 44.635565977066406 ], [ 25.900968982237199, 44.635566209832007 ], [ 25.900985712310874, 44.635566442597593 ], [ 25.901002442384549, 44.635566675363194 ], [ 25.901019170512015, 44.635566847535401 ], [ 25.901035847977003, 44.635566811126616 ], [ 25.901052490660341, 44.635566443013303 ], [ 25.901068473417244, 44.635563990388384 ], [ 25.901083427126526, 44.635558665917401 ], [ 25.901098290963397, 44.635553218162748 ], [ 25.901112971054594, 44.635547554510275 ], [ 25.901127651145806, 44.635541890857262 ], [ 25.901142330208955, 44.635536226479317 ], [ 25.901155970076164, 44.635529416005497 ], [ 25.901167611020615, 44.635520985037964 ], [ 25.9011790369503, 44.635512374012698 ], [ 25.901190462879985, 44.635503762986154 ], [ 25.901200782855902, 44.635494568619109 ], [ 25.901209681892674, 44.635484644258177 ], [ 25.901217934449182, 44.635474400613447 ], [ 25.901225610824298, 44.635463929694417 ], [ 25.90123153737947, 44.635452892869189 ], [ 25.90123562542755, 44.635441401615978 ], [ 25.901239647014293, 44.635429912952681 ], [ 25.901243662427412, 44.635418424734453 ], [ 25.901247609017293, 44.63540694395072 ], [ 25.901249196552229, 44.635395314783487 ], [ 25.901248650261653, 44.63538356341914 ], [ 25.901248446905694, 44.635380502128235 ], [ 25.901247665425405, 44.635368737836707 ], [ 25.901246883945117, 44.635356973542791 ], [ 25.901244326639453, 44.635345376986017 ], [ 25.901238990635903, 44.635334290195452 ], [ 25.90123313463787, 44.635323296923595 ], [ 25.901226799143199, 44.635312423242169 ], [ 25.901218536502931, 44.635302253836151 ], [ 25.901208972794354, 44.635292669416955 ], [ 25.901199333112299, 44.635283188662768 ], [ 25.901189693430247, 44.635273707907047 ], [ 25.901180053748195, 44.635264227149776 ], [ 25.901170352098479, 44.635254775519677 ], [ 25.901160091665719, 44.635245623613329 ], [ 25.901147072326836, 44.635238237885936 ], [ 25.901134052987945, 44.635230852157605 ], [ 25.901121033649058, 44.635223466428329 ], [ 25.901106478028083, 44.635217699397217 ], [ 25.901091071503988, 44.635213085162306 ], [ 25.901075491444033, 44.635208741337017 ], [ 25.901059911384081, 44.635204397511409 ], [ 25.901044331324119, 44.635200053685459 ], [ 25.901028751264164, 44.63519570985919 ], [ 25.901013171204209, 44.635191366032601 ], [ 25.90099759114425, 44.635187022205677 ], [ 25.900982011084295, 44.635182678378435 ], [ 25.90096643102434, 44.635178334550851 ], [ 25.900950914628485, 44.635174008472951 ], [ 25.90093533456853, 44.635169664644728 ], [ 25.900919754508571, 44.635165320816185 ], [ 25.90090417444862, 44.635160976987315 ], [ 25.900888594388665, 44.635156633158118 ], [ 25.900874789190024, 44.635152784172355 ], [ 25.900859209130065, 44.635148440342533 ], [ 25.900843629070113, 44.635144096512398 ], [ 25.900828049010151, 44.635139752681951 ], [ 25.900812674877145, 44.635135466265055 ], [ 25.900797094817193, 44.635131122433947 ], [ 25.900781514757238, 44.635126778602512 ], [ 25.900765934697283, 44.635122434770757 ], [ 25.900750354637324, 44.635118090938683 ], [ 25.900734774577369, 44.635113747106274 ], [ 25.900719194517418, 44.635109403273539 ], [ 25.900703614457459, 44.635105059440491 ], [ 25.900688034397501, 44.635100715607109 ], [ 25.900672454337546, 44.635096371773407 ], [ 25.900656874277587, 44.635092027939379 ], [ 25.900641294217635, 44.635087684105024 ], [ 25.90062571415768, 44.635083340270342 ], [ 25.900610134097722, 44.635078996435325 ], [ 25.90059560673663, 44.635074946100197 ], [ 25.900580026676675, 44.635070602264562 ], [ 25.900564446616716, 44.635066258428594 ], [ 25.900548866556758, 44.635061914592313 ], [ 25.900533286496803, 44.635057570755706 ], [ 25.900517706436851, 44.635053226918764 ], [ 25.90050207125639, 44.635048985723337 ], [ 25.900486380188703, 44.635044849478916 ], [ 25.900470674813128, 44.635040740841418 ], [ 25.900454969437554, 44.635036632203629 ], [ 25.90043926406198, 44.635032523565556 ], [ 25.900423558686402, 44.635028414927184 ], [ 25.900407853310828, 44.635024306288535 ], [ 25.900392147935253, 44.635020197649574 ], [ 25.900376442559676, 44.635016089010335 ], [ 25.900360737184101, 44.635011980370805 ], [ 25.900345031808527, 44.635007871730977 ], [ 25.900329326432949, 44.635003763090864 ], [ 25.900313621057375, 44.634999654450461 ], [ 25.900297915681801, 44.634995545809765 ], [ 25.900282210306223, 44.634991437168772 ], [ 25.900266504930656, 44.634987328527501 ], [ 25.900250799555071, 44.634983219885925 ], [ 25.900235094179497, 44.634979111244078 ], [ 25.900219388803926, 44.634975002601919 ], [ 25.900203683428352, 44.634970893959469 ], [ 25.900187978052777, 44.634966785316742 ], [ 25.900172272677203, 44.634962676673723 ], [ 25.900156567301625, 44.634958568030406 ], [ 25.900140861926051, 44.634954459386798 ], [ 25.900125156284304, 44.634950351235801 ], [ 25.900109444986832, 44.634946253803491 ], [ 25.900093730696348, 44.634942162045611 ], [ 25.900078016405864, 44.634938070287433 ], [ 25.900062302115387, 44.634933978528977 ], [ 25.9000465878249, 44.634929886770216 ], [ 25.900030873534423, 44.634925795011178 ], [ 25.900015159243932, 44.634921703251855 ], [ 25.899999444953451, 44.634917611492234 ], [ 25.899983730662964, 44.634913519732336 ], [ 25.899968016372487, 44.634909427972147 ], [ 25.899952302082003, 44.634905336211659 ], [ 25.899936587791519, 44.634901244450894 ], [ 25.899920873501038, 44.634897152689831 ], [ 25.899905159210554, 44.634893060928484 ], [ 25.899889444920074, 44.634888969166845 ], [ 25.899873730629587, 44.634884877404922 ], [ 25.899858016339103, 44.634880785642707 ], [ 25.899842302048622, 44.634876693880209 ], [ 25.899826587758142, 44.634872602117419 ], [ 25.899810873467658, 44.634868510354337 ], [ 25.899795159177174, 44.634864418590972 ], [ 25.899779444886693, 44.634860326827315 ], [ 25.899763730596206, 44.634856235063381 ], [ 25.899748016305722, 44.634852143299142 ], [ 25.899732302015238, 44.634848051534625 ], [ 25.899716587724761, 44.63484395976981 ], [ 25.899700873434277, 44.634839868004711 ], [ 25.899685159143793, 44.634835776239335 ], [ 25.899669444853309, 44.634831684473653 ], [ 25.899653730562829, 44.634827592707687 ], [ 25.899638016272345, 44.63482350094143 ], [ 25.899622301981854, 44.634819409174909 ], [ 25.899606587691377, 44.634815317408076 ], [ 25.899590873400893, 44.634811225640952 ], [ 25.899575159110412, 44.634807133873544 ], [ 25.899559444819928, 44.634803042105858 ], [ 25.899543730529444, 44.634798950337867 ], [ 25.899528016238961, 44.634794858569599 ], [ 25.899512301948477, 44.634790766801032 ], [ 25.899496587657993, 44.634786675032188 ], [ 25.899480873367512, 44.634782583263053 ], [ 25.899465159077028, 44.63477849149362 ], [ 25.899449610330549, 44.634774442829119 ], [ 25.899433896040065, 44.634770351059139 ], [ 25.899418181749581, 44.634766259288845 ], [ 25.899402467459094, 44.634762167518275 ], [ 25.899386753168613, 44.634758075747399 ], [ 25.899371038878133, 44.634753983976253 ], [ 25.899355324587649, 44.634749892204802 ], [ 25.899339610297165, 44.634745800433073 ], [ 25.899325063722085, 44.634742012717119 ], [ 25.899309349431601, 44.634737920944836 ], [ 25.89929363514112, 44.634733829172269 ], [ 25.89927792085064, 44.634729737399397 ], [ 25.899262206560152, 44.634725645626247 ], [ 25.899246492269672, 44.634721553852813 ], [ 25.899230777979191, 44.634717462079081 ], [ 25.899216549227912, 44.634713757118 ], [ 25.899200834937428, 44.634709665343728 ], [ 25.899185120646948, 44.634705573569164 ], [ 25.899169406356464, 44.634701481794309 ], [ 25.89915373693395, 44.634697304479801 ], [ 25.899138102304079, 44.634693061330218 ], [ 25.899122475826054, 44.634688803022925 ], [ 25.899106849348023, 44.634684544715284 ], [ 25.899091222869995, 44.63468028640736 ], [ 25.899076597781576, 44.634676300983742 ], [ 25.899060971303545, 44.634672042675199 ], [ 25.899045344999237, 44.634667784032956 ], [ 25.899029722506622, 44.634663518075186 ], [ 25.899014103487708, 44.634659245585105 ], [ 25.898998484619245, 44.634654972811802 ], [ 25.898982865750781, 44.634650700038165 ], [ 25.898967246882329, 44.634646427264222 ], [ 25.898951628013869, 44.634642154489967 ], [ 25.898936009145405, 44.634637881715406 ], [ 25.898920390276945, 44.634633608940518 ], [ 25.898904771408485, 44.634629336165311 ], [ 25.898889152540029, 44.634625063389805 ], [ 25.898873533671569, 44.634620790613972 ], [ 25.898857914803109, 44.634616517837827 ], [ 25.898842295934646, 44.634612245061362 ], [ 25.898826677066182, 44.634607972284606 ], [ 25.898811058197726, 44.634603699507522 ], [ 25.89879543932927, 44.634599426730105 ], [ 25.898779820460806, 44.634595153952404 ], [ 25.898764201592343, 44.634590881174361 ], [ 25.898748582723886, 44.634586608396027 ], [ 25.898732963855426, 44.634582335617367 ], [ 25.898717344986967, 44.634578062838386 ], [ 25.898701726118503, 44.6345737900591 ], [ 25.898686107250047, 44.634569517279488 ], [ 25.898670488381587, 44.634565244499569 ], [ 25.898654869513123, 44.634560971719345 ], [ 25.898639250644671, 44.634556698938795 ], [ 25.898623631776211, 44.634552426157931 ], [ 25.898608012907751, 44.634548153376741 ], [ 25.898592394039287, 44.63454388059526 ], [ 25.898576775170831, 44.634539607813458 ], [ 25.898561156302371, 44.63453533503133 ], [ 25.898545537433911, 44.634531062248904 ], [ 25.898529918565448, 44.63452678946615 ], [ 25.898514299696984, 44.634522516683091 ], [ 25.898498680828531, 44.634518243899706 ], [ 25.898483061960068, 44.634513971116014 ], [ 25.898467443091608, 44.63450969833201 ], [ 25.898451824223145, 44.634505425547687 ], [ 25.898436205354688, 44.634501152763043 ], [ 25.898420586486232, 44.634496879978087 ], [ 25.898404967617765, 44.634492607192826 ], [ 25.898389348749312, 44.634488334407244 ], [ 25.898373729880852, 44.634484061621357 ], [ 25.898358111012385, 44.634479788835137 ], [ 25.898342511042095, 44.634475481452462 ], [ 25.898327129469532, 44.634470816534765 ], [ 25.898312036227363, 44.634465685042137 ], [ 25.898296942985201, 44.634460553549054 ], [ 25.898281849743036, 44.634455422055517 ], [ 25.898266671017947, 44.634450464979963 ], [ 25.898250358931378, 44.634447816462206 ], [ 25.898233831140764, 44.63444601784866 ], [ 25.898217301540296, 44.634444225795527 ], [ 25.89820077193982, 44.634442433742336 ], [ 25.898184242339351, 44.634440641689089 ], [ 25.898167712738879, 44.634438849635785 ], [ 25.898151183138406, 44.634437057582431 ], [ 25.898134653537934, 44.634435265529014 ], [ 25.898118123937461, 44.634433473475546 ], [ 25.898101533039899, 44.634432149226107 ], [ 25.898084803490274, 44.634431909033992 ], [ 25.898068071598697, 44.634431776774605 ], [ 25.898051339707116, 44.634431644515232 ], [ 25.898034607815536, 44.634431512255858 ], [ 25.898017875923959, 44.634431379996478 ], [ 25.898001144032378, 44.634431247737098 ], [ 25.897984412140797, 44.634431115477724 ], [ 25.89796768024922, 44.634430983218337 ], [ 25.897950948357639, 44.634430850958964 ], [ 25.897934216466062, 44.634430718699583 ], [ 25.897917484574478, 44.63443058644021 ], [ 25.897900752682897, 44.634430454180823 ], [ 25.897884020597694, 44.634430327678864 ], [ 25.897867288097352, 44.634430216705653 ], [ 25.897850555428697, 44.63443011938724 ], [ 25.897833822760042, 44.634430022068827 ], [ 25.89781709009138, 44.634429924750428 ], [ 25.897800357422717, 44.634429827432001 ], [ 25.897783624754062, 44.634429730113588 ], [ 25.897766892085411, 44.634429632795182 ], [ 25.897750159416745, 44.634429535476755 ], [ 25.897733426748086, 44.63442943815835 ], [ 25.897716694079431, 44.634429340839937 ], [ 25.897699961410769, 44.634429243521524 ], [ 25.897683228742114, 44.634429146203097 ], [ 25.897666496073459, 44.634429048884691 ], [ 25.897649763404797, 44.634428951566278 ], [ 25.897633030736134, 44.634428854247872 ], [ 25.897616298067483, 44.634428756929459 ], [ 25.897599565398828, 44.634428659611039 ], [ 25.897582832730166, 44.634428562292612 ], [ 25.897566100061503, 44.634428464974199 ], [ 25.897549367392848, 44.634428367655786 ], [ 25.897532634724186, 44.634428270337374 ], [ 25.897515902055531, 44.634428173018954 ], [ 25.897499169386879, 44.634428075700541 ], [ 25.897482436718217, 44.634427978382121 ], [ 25.897465704049552, 44.634427881063708 ], [ 25.8974489713809, 44.634427783745281 ], [ 25.897432238712245, 44.634427686426875 ], [ 25.897415506043583, 44.634427589108455 ], [ 25.897398773374924, 44.634427491790035 ], [ 25.897382040706265, 44.634427394471622 ], [ 25.897365308037603, 44.634427297153202 ], [ 25.897348575368952, 44.634427199834789 ], [ 25.897331842700297, 44.634427102516369 ], [ 25.897315109656798, 44.634427054431477 ], [ 25.897298389681989, 44.634427381618003 ], [ 25.897281680224197, 44.63442798441887 ], [ 25.897264970766404, 44.634428587219745 ], [ 25.897248261308604, 44.634429190020597 ], [ 25.89723155940635, 44.634429852729667 ], [ 25.897214885566061, 44.634430690359089 ], [ 25.89719824635884, 44.634431629744995 ], [ 25.897181607151623, 44.634432569130858 ], [ 25.897164967944395, 44.634433508516722 ], [ 25.897148467168169, 44.634435376237803 ], [ 25.897132293653758, 44.634438377301606 ], [ 25.897116198402635, 44.634441633238254 ], [ 25.897100103151509, 44.634444889174702 ], [ 25.897084007900389, 44.634448145110973 ], [ 25.897067912649259, 44.634451401047066 ], [ 25.897051857887103, 44.634454730815193 ], [ 25.897035879602175, 44.634458186385224 ], [ 25.897019946713275, 44.634461701720831 ], [ 25.89700408233611, 44.634465357165709 ], [ 25.896988783279262, 44.634470143672331 ], [ 25.896974440878015, 44.634476277432633 ], [ 25.896960098476754, 44.634482411192288 ], [ 25.896945756075507, 44.634488544951289 ], [ 25.896931413674245, 44.63449467870965 ], [ 25.896917071272991, 44.634500812467358 ], [ 25.896902728871737, 44.634506946224427 ], [ 25.896888386470483, 44.634513079980842 ], [ 25.896874044069229, 44.63451921373661 ], [ 25.896859755105709, 44.634525402051189 ], [ 25.896845703764285, 44.634531839501655 ], [ 25.896832102062241, 44.634538757792029 ], [ 25.896818596974452, 44.634545774141799 ], [ 25.896805091886662, 44.634552790490709 ], [ 25.896791586798884, 44.634559806838773 ], [ 25.896778081711094, 44.634566823185999 ], [ 25.896764676568647, 44.634573909674373 ], [ 25.896751293589826, 44.634581010664057 ], [ 25.896738832315616, 44.634588907151567 ], [ 25.896727054530363, 44.634597359185243 ], [ 25.896715443051775, 44.634605931042081 ], [ 25.896703851138835, 44.634614500441209 ], [ 25.896692323438671, 44.634623118316156 ], [ 25.896681128594448, 44.634631938569058 ], [ 25.896670977983941, 44.634641378418074 ], [ 25.89666238174684, 44.634651593153293 ], [ 25.89665411159443, 44.634661422346312 ], [ 25.89664554341838, 44.634671649918829 ], [ 25.896637103372104, 44.634681928942506 ], [ 25.896628668953873, 44.634692210224401 ], [ 25.896620234535646, 44.634702491504484 ], [ 25.896611800117412, 44.634712772782741 ], [ 25.896603365699185, 44.63472305405918 ], [ 25.896594918942718, 44.634733330825256 ], [ 25.89658646112672, 44.634743603546603 ], [ 25.896578003041004, 44.634753876165583 ], [ 25.896569652431698, 44.634764091699651 ], [ 25.896561415886971, 44.634774430449283 ], [ 25.89655336259149, 44.634784808020733 ], [ 25.896545308923208, 44.634795185530741 ], [ 25.896537601784825, 44.634805708081913 ], [ 25.896532412684802, 44.634816994150256 ], [ 25.896527659401702, 44.634828410945318 ], [ 25.896522906118598, 44.634839827738119 ], [ 25.896518152835487, 44.634851244528676 ], [ 25.896513490779061, 44.634862442202007 ], [ 25.896508737495957, 44.634873858988115 ], [ 25.89650403778597, 44.634885284922916 ], [ 25.89649967668435, 44.634896763468952 ], [ 25.89649629020316, 44.634908393424766 ], [ 25.896494259525866, 44.634920205843279 ], [ 25.896492228848572, 44.634932018259391 ], [ 25.896490198171271, 44.634943830673095 ], [ 25.896488167493978, 44.634955643084396 ], [ 25.896486136816677, 44.634967455493289 ], [ 25.896484150609719, 44.634979009216799 ], [ 25.896482165678481, 44.634990821555341 ], [ 25.896480340873953, 44.635002634528526 ], [ 25.896478731466292, 44.635014459153759 ], [ 25.896477265306647, 44.635026295824609 ], [ 25.896475799147005, 44.635038132493058 ], [ 25.896474354946431, 44.635049967067005 ], [ 25.896473528276022, 44.635061770632078 ], [ 25.896477044888393, 44.635073401178651 ], [ 25.896481693479505, 44.635084684514972 ], [ 25.896486400464799, 44.635096109586868 ], [ 25.896491107450085, 44.635107534656512 ], [ 25.896495821232417, 44.63511895804232 ], [ 25.896500731625501, 44.635130318532731 ], [ 25.896505699656416, 44.635141660559114 ], [ 25.896510667687327, 44.635153002583266 ], [ 25.896515644687589, 44.635164340994073 ], [ 25.896520639820029, 44.635175671971211 ], [ 25.896525647777242, 44.635186997610028 ], [ 25.896530655734455, 44.635198323246627 ], [ 25.896535689893973, 44.635209636331282 ], [ 25.896540854825194, 44.635220885926103 ], [ 25.896546038540254, 44.635231956845985 ], [ 25.896554865724919, 44.635242009243164 ], [ 25.896565141776485, 44.635251393956125 ], [ 25.89657562686698, 44.635260672391148 ], [ 25.896586111957479, 44.635269950824707 ], [ 25.896596597047967, 44.635279229256774 ], [ 25.896607082138456, 44.635288507687349 ], [ 25.896617607467469, 44.635297759253163 ], [ 25.896628229659616, 44.635306938259816 ], [ 25.896638931267407, 44.635316052776446 ], [ 25.896649632875199, 44.635325167291633 ], [ 25.896660334482988, 44.635334281805392 ], [ 25.896671043644389, 44.635343388370579 ], [ 25.896681620722624, 44.63535218712412 ], [ 25.896692507829513, 44.635361084120845 ], [ 25.896703397441573, 44.635369977712301 ], [ 25.896715754644816, 44.635377861937684 ], [ 25.896729290730352, 44.635384801752039 ], [ 25.896743162362565, 44.635391430688266 ], [ 25.896757048985886, 44.635398034995021 ], [ 25.896770946839613, 44.635404620723321 ], [ 25.89678484469334, 44.63541120645089 ], [ 25.89679874254707, 44.635417792177705 ], [ 25.896812654270075, 44.63542434803302 ], [ 25.89682668735302, 44.635430686702243 ], [ 25.896842410088784, 44.635434687279457 ], [ 25.896858218840148, 44.63543852330541 ], [ 25.896874031833182, 44.635442351216646 ], [ 25.896889844826219, 44.635446179127626 ], [ 25.896905657819254, 44.635450007038351 ], [ 25.896921470812288, 44.635453834948841 ], [ 25.896937285992017, 44.635457651447098 ], [ 25.896953375670904, 44.635460720686872 ], [ 25.896969836083443, 44.635462738866103 ], [ 25.896986367982027, 44.635464511183415 ], [ 25.897002899880608, 44.635466283500683 ], [ 25.897019431779196, 44.635468055817888 ], [ 25.89703596367778, 44.635469828135051 ], [ 25.897052495576361, 44.635471600452149 ], [ 25.897069027474945, 44.635473372769198 ], [ 25.897085703485864, 44.635474246554217 ], [ 25.897102428776677, 44.635474497643777 ], [ 25.897119161223529, 44.635474607229455 ], [ 25.897135893670384, 44.635474716815132 ], [ 25.89715262611724, 44.635474826400802 ], [ 25.897169358564096, 44.635474935986466 ], [ 25.897186091010948, 44.635475045572136 ], [ 25.8972028234578, 44.635475155157813 ], [ 25.897219555904655, 44.635475264743491 ], [ 25.897236288351511, 44.63547537432914 ], [ 25.897253020798363, 44.635475483914817 ], [ 25.897269753245219, 44.635475593500495 ], [ 25.897286486127513, 44.635475627602268 ], [ 25.89728798, 44.635475630001096 ] ] } }
]
}
