{
"type": "FeatureCollection",
"name": "targu_mures_ideal_racing_line_live",
"crs": { "type": "name", "properties": { "name": "urn:ogc:def:crs:OGC:1.3:CRS84" } },
"features": [
{ "type": "Feature", "properties": { "track": "Transilvania Motor Ring", "updated_at": "2026-08-05 22:29:30.487889+03:00", "boundary_file": "C:\\LIDIA\\Poli\\solis\\zolder_heatmap\\data\\processed\\targu_mures_track_boundaries.geojson" }, "geometry": { "type": "LineString", "coordinates": [ [ 24.42792276, 46.438346650000128 ], [ 24.427939056242884, 46.438335838603386 ], [ 24.427955352485771, 46.438325027204499 ], [ 24.427971648728651, 46.438314215803473 ], [ 24.427987944971537, 46.438303404400294 ], [ 24.42800424121442, 46.438292592994976 ], [ 24.428020537457304, 46.43828178158752 ], [ 24.428036833700187, 46.438270970177896 ], [ 24.42805312994307, 46.438260158766141 ], [ 24.428069426185953, 46.438249347352254 ], [ 24.428085722428843, 46.4382385359362 ], [ 24.428102018671723, 46.438227724518008 ], [ 24.428118314914613, 46.438216913097676 ], [ 24.428134611157489, 46.438206101675192 ], [ 24.428150907400369, 46.438195290250569 ], [ 24.428167203643259, 46.438184478823793 ], [ 24.428183499886138, 46.438173667394878 ], [ 24.428199796129029, 46.438162855963824 ], [ 24.428216092371905, 46.438152044530618 ], [ 24.428232388614791, 46.438141233095266 ], [ 24.428248684857678, 46.438130421657767 ], [ 24.428264953023458, 46.438119590141447 ], [ 24.428281172840354, 46.438108724050863 ], [ 24.428297392657242, 46.438097857958098 ], [ 24.428313612474135, 46.438086991863166 ], [ 24.428329832291027, 46.438076125766074 ], [ 24.428346052107923, 46.4380652596668 ], [ 24.428362271924811, 46.43805439356538 ], [ 24.428378491741704, 46.43804352746178 ], [ 24.428394711558596, 46.438032661356019 ], [ 24.428410634860953, 46.43802158862691 ], [ 24.428426545075048, 46.438010506775207 ], [ 24.428442455289137, 46.437999424921252 ], [ 24.428458365503236, 46.437988343065058 ], [ 24.428474275717328, 46.437977261206598 ], [ 24.428490185931416, 46.437966179345878 ], [ 24.428506092397914, 46.43795510009322 ], [ 24.428522002612006, 46.437944018227995 ], [ 24.428537912826105, 46.437932936360532 ], [ 24.428553823040193, 46.437921854490796 ], [ 24.428569733254289, 46.437910772618814 ], [ 24.428585635419626, 46.43789969635074 ], [ 24.428601545633718, 46.437888614474247 ], [ 24.42861745584781, 46.437877532595515 ], [ 24.428633366061909, 46.437866450714516 ], [ 24.428649136826351, 46.437855465961633 ], [ 24.428665047040443, 46.437844384076151 ], [ 24.428680957254539, 46.437833302188409 ], [ 24.428696829653461, 46.437822195408337 ], [ 24.4287125509743, 46.437811170809198 ], [ 24.428728405895235, 46.437800052520515 ], [ 24.428744260816167, 46.43778893422958 ], [ 24.428760115737102, 46.437777815936379 ], [ 24.428775888650403, 46.437766755148914 ], [ 24.428791743571345, 46.437755636851179 ], [ 24.428807598492277, 46.437744518551185 ], [ 24.428823453413212, 46.437733400248909 ], [ 24.428839274615679, 46.437722305589531 ], [ 24.428855129536618, 46.437711187282723 ], [ 24.428869634796378, 46.437699231967137 ], [ 24.428884055531, 46.437687224229741 ], [ 24.428898476265612, 46.437675216489716 ], [ 24.428912882034226, 46.437663221208808 ], [ 24.428927302768844, 46.437651213463482 ], [ 24.42894172350346, 46.437639205715506 ], [ 24.428955448787995, 46.437626850411014 ], [ 24.428967856485535, 46.437613830383313 ], [ 24.428980148171075, 46.437600745329789 ], [ 24.428992439856625, 46.437587660273124 ], [ 24.429004731542172, 46.437574575213326 ], [ 24.429016834889229, 46.437561414141626 ], [ 24.429027572183532, 46.437547798134666 ], [ 24.42903462527028, 46.437532993999874 ], [ 24.429041542432461, 46.437518151769289 ], [ 24.429048459594647, 46.437503309534648 ], [ 24.429055376756828, 46.437488467295971 ], [ 24.429061895751204, 46.437473578598684 ], [ 24.429068371293926, 46.437458664401632 ], [ 24.4290748329569, 46.437443749228883 ], [ 24.429075966141884, 46.437428267059111 ], [ 24.429076935577392, 46.437412692664083 ], [ 24.429077905012903, 46.437397118264613 ], [ 24.429078874448415, 46.437381543860681 ], [ 24.429079841577014, 46.437366006513876 ], [ 24.429080811012529, 46.437350432101056 ], [ 24.42908178044804, 46.437334857683787 ], [ 24.429082697136192, 46.437319472732675 ], [ 24.429083618269065, 46.43730389629178 ], [ 24.429084539401945, 46.437288319846438 ], [ 24.429085460534825, 46.437272743396647 ], [ 24.429085362547827, 46.437257193715013 ], [ 24.429083004873917, 46.437241689160281 ], [ 24.429080647200006, 46.437226184601137 ], [ 24.429078307974976, 46.437210801361324 ], [ 24.429075950301069, 46.437195296793377 ], [ 24.429073300946921, 46.437179833667187 ], [ 24.42906829357079, 46.437164987614878 ], [ 24.429058269300317, 46.43715103654754 ], [ 24.429047975038589, 46.437137172904421 ], [ 24.429037498908208, 46.437123547763449 ], [ 24.429026912206069, 46.437109778810601 ], [ 24.42901632550393, 46.437096009854272 ], [ 24.429005766121588, 46.437082276426324 ], [ 24.428995179419445, 46.437068507463039 ], [ 24.428984592717306, 46.437054738496286 ], [ 24.428972104119232, 46.437041749989717 ], [ 24.42895942584115, 46.437028839317314 ], [ 24.428946747563074, 46.43701592864187 ], [ 24.428934093313458, 46.437003042432274 ], [ 24.428921415035376, 46.436990131750726 ], [ 24.42890873675729, 46.436977221066073 ], [ 24.428896058479211, 46.4369643103784 ], [ 24.428883380201128, 46.436951399687658 ], [ 24.428870701923053, 46.43693848899386 ], [ 24.428858023644967, 46.436925578297007 ], [ 24.428845345366888, 46.436912667597078 ], [ 24.428832667088809, 46.436899756894107 ], [ 24.428819986385779, 46.436886847306127 ], [ 24.428807263057784, 46.4368739573681 ], [ 24.428794539729783, 46.436861067427017 ], [ 24.428781816401788, 46.436848177482894 ], [ 24.428769093073797, 46.436835287535715 ], [ 24.428756369745802, 46.436822397585487 ], [ 24.4287436464178, 46.436809507632212 ], [ 24.428730923089805, 46.436796617675881 ], [ 24.428718199761807, 46.436783727716509 ], [ 24.428705476433809, 46.436770837754089 ], [ 24.428692753127841, 46.436757947810932 ], [ 24.428680029799843, 46.436745057842408 ], [ 24.428667306471844, 46.436732167870836 ], [ 24.428654587990678, 46.436719275616973 ], [ 24.428641875374161, 46.436706380602175 ], [ 24.428629162757641, 46.436693485584328 ], [ 24.428616450141117, 46.436680590563427 ], [ 24.4286037375246, 46.436667695539484 ], [ 24.42859102490808, 46.436654800512471 ], [ 24.42857831229156, 46.436641905482425 ], [ 24.4285655969509, 46.436629011727256 ], [ 24.428552857363293, 46.436616129343804 ], [ 24.428540117775682, 46.436603246957311 ], [ 24.428527378188065, 46.436590364567763 ], [ 24.428514638600454, 46.436577482175174 ], [ 24.428501899012844, 46.436564599779544 ], [ 24.428489159425236, 46.436551717380851 ], [ 24.428476419837622, 46.436538834979125 ], [ 24.428463680250005, 46.43652595257435 ], [ 24.42845094066239, 46.436513070166534 ], [ 24.42843820107478, 46.436500187755669 ], [ 24.428425461487173, 46.436487305341771 ], [ 24.428412721899559, 46.43647442292481 ], [ 24.428399982311944, 46.436461540504808 ], [ 24.428387242724337, 46.436448658081773 ], [ 24.42837450313672, 46.436435775655674 ], [ 24.428361763549109, 46.436422893226535 ], [ 24.428349023961495, 46.436410010794361 ], [ 24.428336284373884, 46.436397128359125 ], [ 24.428323544786277, 46.436384245920848 ], [ 24.428310805198663, 46.43637136347953 ], [ 24.428298065611049, 46.436358481035171 ], [ 24.428285326023438, 46.436345598587764 ], [ 24.428272592297464, 46.43633272206467 ], [ 24.42825985270985, 46.436319839611173 ], [ 24.428247113122239, 46.436306957154621 ], [ 24.428234373534625, 46.436294074695034 ], [ 24.428221633947011, 46.4362811922324 ], [ 24.4282088943594, 46.436268309766717 ], [ 24.42819615477179, 46.436255427297993 ], [ 24.428183415184176, 46.436242544826214 ], [ 24.428170675596562, 46.436229662351401 ], [ 24.428157936008951, 46.43621677987354 ], [ 24.428145199696605, 46.436203900704633 ], [ 24.428132459872344, 46.436191018331307 ], [ 24.428119719822813, 46.436178136060256 ], [ 24.428106979773275, 46.43616525378615 ], [ 24.428094239723741, 46.436152371508996 ], [ 24.4280814996742, 46.436139489228808 ], [ 24.428068759624669, 46.436126606945571 ], [ 24.428056019575134, 46.436113724659286 ], [ 24.428043279525596, 46.436100842369953 ], [ 24.428030539476055, 46.436087960077593 ], [ 24.428017799426524, 46.436075077782164 ], [ 24.428005084957299, 46.436062221349637 ], [ 24.427992344907764, 46.436049339048125 ], [ 24.42797960485823, 46.436036456743579 ], [ 24.427966960315956, 46.436023529915225 ], [ 24.427954347046423, 46.436010588506001 ], [ 24.427941733776887, 46.435997647093707 ], [ 24.427929120507351, 46.435984705678344 ], [ 24.427916507237814, 46.435971764259889 ], [ 24.427903893968278, 46.43595882283838 ], [ 24.427891294982711, 46.435945896069391 ], [ 24.427878681713178, 46.435932954641729 ], [ 24.427866068443645, 46.435920013210989 ], [ 24.427853455174112, 46.435907071777194 ], [ 24.427840841904576, 46.435894130340309 ], [ 24.42782822863504, 46.435881188900353 ], [ 24.427815615365503, 46.435868247457329 ], [ 24.427803002095967, 46.435855306011227 ], [ 24.427790388826434, 46.435842364562049 ], [ 24.427777775556894, 46.435829423109809 ], [ 24.427765178632818, 46.435816498425233 ], [ 24.427752565363278, 46.435803556966853 ], [ 24.427739952093745, 46.435790615505383 ], [ 24.427727338824212, 46.43577767404085 ], [ 24.427714725554676, 46.43576473257324 ], [ 24.427702112285136, 46.435751791102561 ], [ 24.427689499015603, 46.435738849628805 ], [ 24.427676885746067, 46.435725908151966 ], [ 24.42766427247653, 46.435712966672057 ], [ 24.427651659206994, 46.435700025189092 ], [ 24.427639045937461, 46.435687083703037 ], [ 24.427626434589659, 46.435674144185661 ], [ 24.427613821320122, 46.435661202693453 ], [ 24.427601208050589, 46.435648261198189 ], [ 24.427588594781049, 46.435635319699841 ], [ 24.427575981511517, 46.435622378198431 ], [ 24.427563368241984, 46.435609436693937 ], [ 24.427550754972444, 46.435596495186374 ], [ 24.427538141702911, 46.435583553675741 ], [ 24.427525528433378, 46.435570612162039 ], [ 24.427512915163838, 46.435557670645245 ], [ 24.427500253100181, 46.435544751869003 ], [ 24.427487514417514, 46.43553186880289 ], [ 24.427474775734847, 46.435518985733708 ], [ 24.427462030321472, 46.435506105828587 ], [ 24.42744928083242, 46.43549322783818 ], [ 24.427436531343371, 46.435480349844738 ], [ 24.427423781854319, 46.435467471848256 ], [ 24.427411032365274, 46.435454593848725 ], [ 24.427398282876222, 46.43544171584616 ], [ 24.427385533387174, 46.43542883784054 ], [ 24.427372783898125, 46.435415959831872 ], [ 24.427360034409077, 46.435403081820169 ], [ 24.427347284920025, 46.435390203805433 ], [ 24.427334535430976, 46.435377325787641 ], [ 24.427321785941928, 46.435364447766808 ], [ 24.427309036452876, 46.435351569742942 ], [ 24.427296286963827, 46.435338691716005 ], [ 24.427283537474782, 46.435325813686049 ], [ 24.42727078798573, 46.435312935653045 ], [ 24.427258038496678, 46.435300057616999 ], [ 24.427245289007633, 46.435287179577912 ], [ 24.427232539518577, 46.435274301535763 ], [ 24.427219790029536, 46.435261423490594 ], [ 24.427207040540484, 46.43524854544237 ], [ 24.427194291051432, 46.435235667391098 ], [ 24.427181541562387, 46.435222789336805 ], [ 24.427168792073335, 46.435209911279436 ], [ 24.427156042584283, 46.435197033219055 ], [ 24.427143293095241, 46.435184155155611 ], [ 24.427130543606186, 46.435171277089133 ], [ 24.427117794141864, 46.435158399044582 ], [ 24.427105044652816, 46.435145520972014 ], [ 24.427092295163764, 46.435132642896399 ], [ 24.427079545674715, 46.435119764817742 ], [ 24.427066796185667, 46.435106886736044 ], [ 24.427054046696622, 46.435094008651305 ], [ 24.427041297207563, 46.435081130563518 ], [ 24.427028547718521, 46.435068252472689 ], [ 24.427015798229469, 46.43505537437882 ], [ 24.427003048740424, 46.435042496281916 ], [ 24.426990299251369, 46.435029618181943 ], [ 24.42697754976232, 46.43501674007895 ], [ 24.426964800273275, 46.435003861972902 ], [ 24.426952050784227, 46.434990983863813 ], [ 24.426939301295171, 46.434978105751689 ], [ 24.426926551806126, 46.434965227636496 ], [ 24.426913802317078, 46.434952349518284 ], [ 24.426901052828029, 46.43493947139703 ], [ 24.426888303338977, 46.434926593272735 ], [ 24.426875553849928, 46.43491371514537 ], [ 24.42686280436088, 46.434900837014993 ], [ 24.426850054871835, 46.434887958881546 ], [ 24.426837305382776, 46.434875080745066 ], [ 24.426824555893734, 46.434862202605551 ], [ 24.426811806404682, 46.434849324462981 ], [ 24.426799056915637, 46.434836446317384 ], [ 24.426786307426582, 46.434823568168731 ], [ 24.426773557937533, 46.434810690017045 ], [ 24.426760808448485, 46.434797811862296 ], [ 24.42674805895944, 46.43478493370452 ], [ 24.426735309470384, 46.434772055543704 ], [ 24.426722567354336, 46.434759173906571 ], [ 24.426709826721897, 46.434746291567514 ], [ 24.426697086089451, 46.434733409225416 ], [ 24.426684341598047, 46.434720528697625 ], [ 24.426671564937092, 46.4347076633169 ], [ 24.426658788276143, 46.434694797933126 ], [ 24.426646011615194, 46.434681932546333 ], [ 24.426633234954238, 46.434669067156506 ], [ 24.426620458293286, 46.43465620176363 ], [ 24.426607681632341, 46.434643336367721 ], [ 24.426594904971392, 46.434630470968777 ], [ 24.426582129663132, 46.434617606928875 ], [ 24.426569353002183, 46.434604741523849 ], [ 24.42655657634123, 46.434591876115796 ], [ 24.426543799680275, 46.434579010704695 ], [ 24.426531023019326, 46.434566145290567 ], [ 24.426518246358377, 46.434553279873391 ], [ 24.426505469697428, 46.434540414453195 ], [ 24.426492693036479, 46.434527549029937 ], [ 24.426479916375527, 46.434514683603659 ], [ 24.426467139714578, 46.434501818174333 ], [ 24.426454363053626, 46.434488952741987 ], [ 24.426441586392677, 46.434476087306592 ], [ 24.426428809731725, 46.434463221868157 ], [ 24.426416033070772, 46.434450356426687 ], [ 24.426403256409824, 46.434437490982184 ], [ 24.426390479748875, 46.434424625534646 ], [ 24.426377703087923, 46.43441176008406 ], [ 24.42636492642697, 46.434398894630434 ], [ 24.426352149766025, 46.43438602917378 ], [ 24.426339373105076, 46.434373163714085 ], [ 24.426326596444124, 46.434360298251363 ], [ 24.426313819783168, 46.434347432785593 ], [ 24.426301043122216, 46.434334567316782 ], [ 24.42628826646127, 46.434321701844951 ], [ 24.426275489800318, 46.434308836370072 ], [ 24.426262713139366, 46.434295970892151 ], [ 24.426249936478413, 46.434283105411204 ], [ 24.426237159817465, 46.434270239927216 ], [ 24.426224383156516, 46.434257374440186 ], [ 24.426211606495567, 46.43424450895013 ], [ 24.426198829834618, 46.434231643457018 ], [ 24.426186053173662, 46.434218777960879 ], [ 24.426173279157226, 46.4342059151246 ], [ 24.42616050249627, 46.434193049622387 ], [ 24.426147725835325, 46.434180184117139 ], [ 24.426134949174369, 46.434167318608843 ], [ 24.426122173085364, 46.434154452829816 ], [ 24.426109398678076, 46.43414158626058 ], [ 24.426096683010293, 46.434128722732225 ], [ 24.426083948342903, 46.434115837445802 ], [ 24.426071213675517, 46.43410295215633 ], [ 24.42605847900813, 46.434090066863824 ], [ 24.426045744340737, 46.434077181568263 ], [ 24.426033009673354, 46.434064296269668 ], [ 24.426020275005961, 46.434051410968017 ], [ 24.426007591889572, 46.434038577824118 ], [ 24.425994857222186, 46.434025692516386 ], [ 24.425982122554796, 46.434012807205605 ], [ 24.42596938788741, 46.43399992189179 ], [ 24.425956658413, 46.433987041829326 ], [ 24.425943923745606, 46.433974156509407 ], [ 24.425931189078216, 46.433961271186455 ], [ 24.42591845441083, 46.43394838586044 ], [ 24.42590571974344, 46.433935500531383 ], [ 24.425892985595858, 46.43392261572523 ], [ 24.425880250928465, 46.433909730390077 ], [ 24.425867516261075, 46.433896845051883 ], [ 24.425854793831249, 46.433883972093 ], [ 24.425842059163863, 46.433871086748709 ], [ 24.425829324496473, 46.433858201401378 ], [ 24.425816589829083, 46.433845316050991 ], [ 24.425803891786, 46.433832467755252 ], [ 24.42579115711861, 46.433819582398783 ], [ 24.42577842245122, 46.433806697039273 ], [ 24.42576568778383, 46.433793811676715 ], [ 24.425752953116444, 46.433780926311108 ], [ 24.425740236905199, 46.433768059617009 ], [ 24.425727502237805, 46.433755174245327 ], [ 24.425714767570412, 46.433742288870576 ], [ 24.425702032903018, 46.433729403492791 ], [ 24.425689298235636, 46.433716518111957 ], [ 24.425676563568246, 46.43370363272809 ], [ 24.425663828900859, 46.433690747341167 ], [ 24.425651094233469, 46.433677861951189 ], [ 24.425638359566079, 46.433664976558163 ], [ 24.425625624898686, 46.433652091162102 ], [ 24.425612890231299, 46.433639205762994 ], [ 24.425600155563906, 46.43362632036083 ], [ 24.42558742089652, 46.433613434955632 ], [ 24.42557468622913, 46.433600549547371 ], [ 24.425561954026687, 46.433587662987058 ], [ 24.425549224278804, 46.433574775279524 ], [ 24.42553649453092, 46.433561887568949 ], [ 24.425523764783033, 46.433548999855326 ], [ 24.425511035035147, 46.433536112138647 ], [ 24.42549830528727, 46.433523224418934 ], [ 24.425485575539383, 46.433510336696159 ], [ 24.4254728457915, 46.43349744897035 ], [ 24.425460116043617, 46.433484561241492 ], [ 24.425447386295733, 46.433471673509565 ], [ 24.42543465654785, 46.433458785774604 ], [ 24.425421926799963, 46.433445898036602 ], [ 24.425409197052087, 46.433433010295545 ], [ 24.425396467304196, 46.433420122551439 ], [ 24.425383737556313, 46.433407234804292 ], [ 24.425371007808433, 46.43339434705409 ], [ 24.425358278060546, 46.433381459300847 ], [ 24.425345548312663, 46.433368571544555 ], [ 24.425332856310593, 46.433355666281358 ], [ 24.425320325706991, 46.433342686169844 ], [ 24.425307795103386, 46.433329706055233 ], [ 24.425295264499781, 46.433316725937537 ], [ 24.425282733896175, 46.433303745816744 ], [ 24.425270203292566, 46.433290765692853 ], [ 24.425257672688961, 46.433277785565878 ], [ 24.425245142085359, 46.433264805435812 ], [ 24.425232611481754, 46.433251825302662 ], [ 24.425220080878145, 46.4332388451664 ], [ 24.425207550274543, 46.433225865027062 ], [ 24.425195019670934, 46.433212884884618 ], [ 24.425182489067328, 46.433199904739105 ], [ 24.425169958463723, 46.43318692459048 ], [ 24.425157427860118, 46.433173944438778 ], [ 24.425144897256519, 46.433160964283971 ], [ 24.425132366652914, 46.433147984126087 ], [ 24.425119836049305, 46.433135003965099 ], [ 24.425107305445696, 46.433122023801026 ], [ 24.425094774842091, 46.433109043633863 ], [ 24.425082244238485, 46.433096063463609 ], [ 24.425069713634876, 46.433083083290249 ], [ 24.425057183031274, 46.433070103113813 ], [ 24.425044652427669, 46.433057122934287 ], [ 24.425032121824067, 46.433044142751662 ], [ 24.425019591220462, 46.433031162565946 ], [ 24.425007060616856, 46.43301818237714 ], [ 24.424994530013247, 46.433005202185242 ], [ 24.424981999409646, 46.432992221990247 ], [ 24.424969468806037, 46.432979241792161 ], [ 24.424956938202431, 46.432966261590998 ], [ 24.424944407598826, 46.43295328138673 ], [ 24.424931876995217, 46.432940301179379 ], [ 24.424919346391615, 46.432927320968929 ], [ 24.424906815788006, 46.432914340755389 ], [ 24.424894285184404, 46.432901360538757 ], [ 24.424881755278168, 46.43288838104143 ], [ 24.424869224674563, 46.432875400818617 ], [ 24.424856694070961, 46.432862420592713 ], [ 24.424844163467355, 46.432849440363711 ], [ 24.424831632863754, 46.432836460131625 ], [ 24.424819102260145, 46.432823479896449 ], [ 24.424806571656536, 46.432810499658174 ], [ 24.424794041052934, 46.432797519416809 ], [ 24.424781510449328, 46.43278453917236 ], [ 24.424768979845723, 46.43277155892482 ], [ 24.424756454209199, 46.432758583819499 ], [ 24.4247439236056, 46.432745603565778 ], [ 24.424731393001991, 46.432732623308958 ], [ 24.424718862398382, 46.432719643049047 ], [ 24.424706331794773, 46.432706662786046 ], [ 24.424693801191172, 46.432693682519954 ], [ 24.42468127427373, 46.432680706069206 ], [ 24.424668743670122, 46.432667725796932 ], [ 24.424656114425073, 46.432654791930979 ], [ 24.424643159784843, 46.432642011155856 ], [ 24.424630205144613, 46.432629230377735 ], [ 24.424617250504383, 46.43261644959663 ], [ 24.424604296206105, 46.43260366914987 ], [ 24.424591341565876, 46.432590888362753 ], [ 24.424578386925642, 46.432578107572645 ], [ 24.424565432285412, 46.432565326779539 ], [ 24.424552477643513, 46.432552545984215 ], [ 24.424539522371905, 46.432539765478708 ], [ 24.424526567100301, 46.432526984970202 ], [ 24.424513611828694, 46.432514204458691 ], [ 24.424500656557086, 46.432501423944196 ], [ 24.424487701306422, 46.43248864344735 ], [ 24.424474746034818, 46.432475862926843 ], [ 24.424461790763214, 46.432463082403359 ], [ 24.424448835491607, 46.43245030187687 ], [ 24.424435880219999, 46.432437521347374 ], [ 24.424422924948395, 46.432424740814888 ], [ 24.424409969676788, 46.43241196027941 ], [ 24.42439701440518, 46.432399179740926 ], [ 24.424384072938125, 46.432386412817827 ], [ 24.424371117666524, 46.432373632273347 ], [ 24.424358162394917, 46.432360851725882 ], [ 24.424345207123313, 46.432348071175426 ], [ 24.424332251851705, 46.432335290621957 ], [ 24.424319296580098, 46.432322510065497 ], [ 24.424306341308494, 46.432309729506038 ], [ 24.424293386036883, 46.432296948943588 ], [ 24.424280430765279, 46.432284168378139 ], [ 24.424267505167297, 46.432271417083165 ], [ 24.424254549895693, 46.432258636511719 ], [ 24.424241594624082, 46.432245855937289 ], [ 24.424228639352481, 46.432233075359861 ], [ 24.424215684080874, 46.432220294779434 ], [ 24.42420272880927, 46.432207514196001 ], [ 24.424189773537663, 46.432194733609577 ], [ 24.424176818266059, 46.432181953020155 ], [ 24.424163862994448, 46.432169172427741 ], [ 24.424150907722844, 46.432156391832336 ], [ 24.42413795245124, 46.432143611233919 ], [ 24.424124997179636, 46.432130830632509 ], [ 24.42411181626693, 46.43211818040573 ], [ 24.424098502528434, 46.432105606924097 ], [ 24.424085188789942, 46.432093033439543 ], [ 24.424071289413991, 46.432080913702798 ], [ 24.424051745178172, 46.432073167589955 ], [ 24.424031896804504, 46.43206569596115 ], [ 24.424012033568271, 46.432058237744833 ], [ 24.423992171585546, 46.432050779998164 ], [ 24.423972305281506, 46.432043325573254 ], [ 24.423952383263895, 46.432035940039277 ], [ 24.423932461246295, 46.432028554504285 ], [ 24.423910424117153, 46.432026316986018 ], [ 24.423887844989139, 46.432025382233704 ], [ 24.423865265861124, 46.432024447481375 ], [ 24.423842686733114, 46.432023512729039 ], [ 24.423820107605099, 46.43202257797666 ], [ 24.423797528929644, 46.432021910868023 ], [ 24.423774950304235, 46.432021273356142 ], [ 24.423752490491854, 46.432022465723868 ], [ 24.42373009526942, 46.432024652863042 ], [ 24.423707883191767, 46.432027219412802 ], [ 24.423685804151262, 46.432030061567964 ], [ 24.423665112883576, 46.432035433933251 ], [ 24.423646118509904, 46.432043900102613 ], [ 24.423627124136239, 46.432052366270653 ], [ 24.423608129762567, 46.432060832437386 ], [ 24.423589135388898, 46.432069298602805 ], [ 24.423570185080322, 46.432077745126222 ], [ 24.423551198595895, 46.432086220053108 ], [ 24.423532227917356, 46.432094712537307 ], [ 24.423513257238813, 46.432103205020184 ], [ 24.423494533529279, 46.432111586942725 ], [ 24.423475562850744, 46.43212007942298 ], [ 24.423456592172201, 46.432128571901906 ], [ 24.423437621493665, 46.432137064379503 ], [ 24.423418753349615, 46.432145524612835 ], [ 24.423399839766692, 46.43215407610051 ], [ 24.423380926183768, 46.432162627586841 ], [ 24.423362012600844, 46.43217117907183 ], [ 24.423343264863465, 46.432179655570977 ], [ 24.423324351280545, 46.432188207053301 ], [ 24.423305437697618, 46.432196758534268 ], [ 24.423286651366389, 46.432205252479051 ], [ 24.423267465063102, 46.432213433685085 ], [ 24.423247160541013, 46.432220052330159 ], [ 24.423225830161066, 46.43222521731613 ], [ 24.423204487810985, 46.4322303852001 ], [ 24.423183145460907, 46.432235553083572 ], [ 24.423161861374304, 46.432240706858522 ], [ 24.423140474356927, 46.43224574107343 ], [ 24.423118082379421, 46.432247904396391 ], [ 24.423095895496395, 46.432250047904773 ], [ 24.423073503518893, 46.432252211227571 ], [ 24.423051111541387, 46.432254374550276 ], [ 24.423028576753101, 46.432253487108994 ], [ 24.423006033188106, 46.432252360564561 ], [ 24.422983676772077, 46.432250154797906 ], [ 24.422961444738444, 46.432247296286725 ], [ 24.422939422796237, 46.432244464788177 ], [ 24.422919078916095, 46.432238373887813 ], [ 24.4228999978254, 46.432230129515155 ], [ 24.422881199495755, 46.432221456965607 ], [ 24.422862179481861, 46.432213122837211 ], [ 24.422842961074171, 46.432204902576565 ], [ 24.422823742666488, 46.432196682314675 ], [ 24.422807764440979, 46.432186059004472 ], [ 24.422794257348546, 46.432173617129273 ], [ 24.422781121680849, 46.432160950584375 ], [ 24.422767968303845, 46.432148266959686 ], [ 24.422755442074038, 46.432135292206532 ], [ 24.422743328568675, 46.432122125861071 ], [ 24.422733591966782, 46.432108329794332 ], [ 24.422728845268082, 46.432093211738135 ], [ 24.422724431318077, 46.432078015720492 ], [ 24.422720806159774, 46.432062634898372 ], [ 24.42271718100147, 46.432047254071904 ], [ 24.422716194650356, 46.432031757890073 ], [ 24.422716978768122, 46.432016184933516 ], [ 24.422717762917319, 46.432000611348364 ], [ 24.422718547066509, 46.431985037758757 ], [ 24.42271933121571, 46.431969464164709 ], [ 24.4227201153649, 46.431953890566206 ], [ 24.422720899514101, 46.431938316963247 ], [ 24.422721683663291, 46.431922743355848 ], [ 24.422722467812488, 46.431907169743994 ], [ 24.422723353749117, 46.43189159645469 ], [ 24.422724436544691, 46.431876023793372 ], [ 24.422725519340265, 46.431860451127591 ], [ 24.422726602135842, 46.431844878457362 ], [ 24.422727684931424, 46.431829305782692 ], [ 24.422728767726994, 46.431813733103567 ], [ 24.422729850522572, 46.431798160419987 ], [ 24.422731229919449, 46.431782598503496 ], [ 24.422732610203894, 46.431767036614779 ], [ 24.422733990488336, 46.431751474721622 ], [ 24.42273537077277, 46.431735912824038 ], [ 24.422736751057212, 46.431720350921992 ], [ 24.422738131341653, 46.431704789015512 ], [ 24.422739511626094, 46.431689227104577 ], [ 24.422740891910536, 46.431673665189216 ], [ 24.422742272194974, 46.431658103269399 ], [ 24.422743652479411, 46.431642541345141 ], [ 24.422745032763853, 46.431626979416436 ], [ 24.422746413048294, 46.431611417483303 ], [ 24.422747793252164, 46.431595856454159 ], [ 24.422749173536602, 46.431580294512123 ], [ 24.422750553821039, 46.431564732565661 ], [ 24.422751934105481, 46.43154917061473 ], [ 24.422753314389922, 46.431533608659372 ], [ 24.422754694674364, 46.431518046699566 ], [ 24.422756074958798, 46.431502484735326 ], [ 24.422757455243243, 46.431486922766631 ], [ 24.422758835527681, 46.431471360793502 ], [ 24.422760215812122, 46.431455798815925 ], [ 24.422761596096564, 46.4314402368339 ], [ 24.422762976381005, 46.431424674847442 ], [ 24.422764332300591, 46.431409112245738 ], [ 24.422765688648379, 46.431393549165527 ], [ 24.422767044996167, 46.431377986080889 ], [ 24.422768401343948, 46.431362422991789 ], [ 24.422769757691739, 46.431346859898262 ], [ 24.42277111403952, 46.431331296800273 ], [ 24.422772470387308, 46.431315733697851 ], [ 24.422773826735096, 46.43130017059098 ], [ 24.422775183082877, 46.431284607479661 ], [ 24.422776539430668, 46.431269044363901 ], [ 24.422777895778452, 46.431253481243701 ], [ 24.422779252126237, 46.431237918119059 ], [ 24.422780608474024, 46.43122235498997 ], [ 24.422781964821805, 46.431206791856425 ], [ 24.422783320470447, 46.431191236740695 ], [ 24.422784676818232, 46.431175673598275 ], [ 24.422786033166016, 46.431160110451415 ], [ 24.422787389513804, 46.431144547300107 ], [ 24.422788745861588, 46.431128984144358 ], [ 24.422790102209376, 46.431113420984161 ], [ 24.42279145855716, 46.431097857819516 ], [ 24.422792814904948, 46.43108229465043 ], [ 24.422794171252733, 46.431066731476903 ], [ 24.422795527600517, 46.431051168298929 ], [ 24.422796883948301, 46.431035605116513 ], [ 24.422798240296089, 46.431020041929656 ], [ 24.422799596643877, 46.431004478738352 ], [ 24.422800952991658, 46.430988915542606 ], [ 24.422802309339442, 46.43097335234242 ], [ 24.42280366568723, 46.430957789137771 ], [ 24.422803429396982, 46.430942202735757 ], [ 24.4228030657309, 46.430926614138478 ], [ 24.422802702064818, 46.430911025536744 ], [ 24.422802338398736, 46.430895436930555 ], [ 24.42280197473265, 46.430879848319904 ], [ 24.422801611066571, 46.430864259704791 ], [ 24.422801247400486, 46.430848671085222 ], [ 24.422800883734407, 46.430833082461199 ], [ 24.422800520068321, 46.430817493832713 ], [ 24.422800156402243, 46.430801905199772 ], [ 24.422799792736161, 46.430786316562369 ], [ 24.422799429070075, 46.43077072792051 ], [ 24.422799065403993, 46.43075513927419 ], [ 24.422798516427022, 46.430739555386651 ], [ 24.422797933532088, 46.430723972420047 ], [ 24.42279735063515, 46.430708389395484 ], [ 24.422796767738216, 46.430692806366451 ], [ 24.422796184841282, 46.430677223332971 ], [ 24.422795601944348, 46.430661640295028 ], [ 24.42279501904741, 46.43064605725263 ], [ 24.422794436150475, 46.430630474205785 ], [ 24.422790884501691, 46.43061515273822 ], [ 24.422785944774542, 46.43059995357325 ], [ 24.422781005047394, 46.430584754404038 ], [ 24.422776065320242, 46.430569555230583 ], [ 24.422771125593091, 46.430554356052895 ], [ 24.422766158400083, 46.430539159721178 ], [ 24.422760936102552, 46.430523989858159 ], [ 24.422755713805014, 46.430508819990905 ], [ 24.422750491507482, 46.430493650119431 ], [ 24.422745269209948, 46.430478480243735 ], [ 24.422740046912413, 46.43046331036382 ], [ 24.422734824614878, 46.430448140479676 ], [ 24.42272960231735, 46.430432970591312 ], [ 24.422724380019815, 46.430417800698727 ], [ 24.42271915772228, 46.430402630801915 ], [ 24.422713935424749, 46.430387460900896 ], [ 24.422708713127211, 46.430372290995642 ], [ 24.42270336488086, 46.430357142646926 ], [ 24.422698009015406, 46.430341995598297 ], [ 24.422692653149955, 46.430326848545434 ], [ 24.422686804854305, 46.430311799255335 ], [ 24.422679677058117, 46.430297003992827 ], [ 24.422672549261932, 46.430282208726304 ], [ 24.422665421465744, 46.430267413455745 ], [ 24.42265829366956, 46.430252618181179 ], [ 24.422651165873376, 46.430237822902605 ], [ 24.422643990510124, 46.430223039549077 ], [ 24.422636545537902, 46.430208323805218 ], [ 24.422629100565668, 46.430193608057387 ], [ 24.422620835609528, 46.430179116831106 ], [ 24.422611407428704, 46.430164944111723 ], [ 24.422601979247879, 46.430150771388647 ], [ 24.422592551067059, 46.430136598661882 ], [ 24.422583122886234, 46.430122425931437 ], [ 24.422573694705413, 46.430108253197304 ], [ 24.422564266524592, 46.43009408045949 ], [ 24.422554838343764, 46.430079907717996 ], [ 24.42254541016294, 46.430065734972807 ], [ 24.422535981982115, 46.43005156222393 ], [ 24.422526553801298, 46.430037389471373 ], [ 24.422517125620473, 46.430023216715135 ], [ 24.422507697439652, 46.430009043955209 ], [ 24.422498269258828, 46.429994871191596 ], [ 24.422488841078003, 46.429980698424302 ], [ 24.422479412897182, 46.42996652565332 ], [ 24.422469984769883, 46.429952352959113 ], [ 24.422460556589055, 46.429938180180763 ], [ 24.422451128408238, 46.429924007398718 ], [ 24.422441700227409, 46.429909834612992 ], [ 24.422432272046592, 46.429895661823586 ], [ 24.422422843865764, 46.429881489030485 ], [ 24.422413431454256, 46.429867339938738 ], [ 24.422404003273435, 46.429853167138283 ], [ 24.422394575092611, 46.429838994334141 ], [ 24.422385146911786, 46.42982482152631 ], [ 24.422375718730965, 46.429810648714792 ], [ 24.422366290550141, 46.429796475899593 ], [ 24.422356864583833, 46.429782306409656 ], [ 24.422347436403012, 46.429768133587082 ], [ 24.422338008222184, 46.429753960760827 ], [ 24.422328580041366, 46.429739787930892 ], [ 24.422319151860538, 46.429725615097261 ], [ 24.422309723679717, 46.429711442259951 ], [ 24.422300295727485, 46.429697269762585 ], [ 24.422290867546661, 46.429683096917898 ], [ 24.422281439365836, 46.429668924069539 ], [ 24.422272011185012, 46.429654751217484 ], [ 24.422262583004194, 46.429640578361749 ], [ 24.422253154823366, 46.429626405502326 ], [ 24.422243726642549, 46.429612232639208 ], [ 24.42223430723427, 46.429598072959713 ], [ 24.422224879053445, 46.429583900089227 ], [ 24.422215702009293, 46.429569649169771 ], [ 24.422206532925983, 46.429555395772631 ], [ 24.422197363842681, 46.42954114237174 ], [ 24.422188197567156, 46.429526893331847 ], [ 24.422179028483853, 46.429512639923516 ], [ 24.422169859400544, 46.429498386511455 ], [ 24.422160690317241, 46.429484133095663 ], [ 24.422151521233932, 46.429469879676141 ], [ 24.422142352150622, 46.429455626252889 ], [ 24.422133196769419, 46.42944139412598 ], [ 24.422124027686117, 46.429427140695289 ], [ 24.422114858602807, 46.429412887260867 ], [ 24.422105689519505, 46.429398633822714 ], [ 24.422096520436195, 46.429384380380846 ], [ 24.422087351352886, 46.429370126935233 ], [ 24.422078182269583, 46.429355873485903 ], [ 24.422069027324515, 46.429341642010925 ], [ 24.42205985844236, 46.42932738849165 ], [ 24.422050691197878, 46.429313134459832 ], [ 24.422041523953396, 46.429298880424291 ], [ 24.422032356708907, 46.429284626385019 ], [ 24.422023189464426, 46.429270372342032 ], [ 24.422014043906639, 46.429256152015718 ], [ 24.422004876662157, 46.429241897965277 ], [ 24.421995709417672, 46.429227643911105 ], [ 24.421986542173187, 46.42921338985321 ], [ 24.421977374928701, 46.429199135791592 ], [ 24.42196820768422, 46.429184881726243 ], [ 24.42195904086455, 46.429170628317713 ], [ 24.421949873620065, 46.429156374244897 ], [ 24.421940706375583, 46.429142120168379 ], [ 24.421931539131098, 46.429127866088102 ], [ 24.421922371886609, 46.429113612004109 ], [ 24.421913204642127, 46.4290993579164 ], [ 24.421904037397645, 46.429085103824946 ], [ 24.421894886504809, 46.429070875154871 ], [ 24.421885719260327, 46.42905662105597 ], [ 24.421876552015842, 46.429042366953354 ], [ 24.421867384771357, 46.429028112847007 ], [ 24.421858217526875, 46.42901385873693 ], [ 24.421849050282386, 46.428999604623122 ], [ 24.421839883037904, 46.428985350505585 ], [ 24.421830715793423, 46.428971096384338 ], [ 24.421821548548934, 46.428956842259346 ], [ 24.421812381304449, 46.428942588130631 ], [ 24.421803214059963, 46.428928333998186 ], [ 24.421794046815478, 46.428914079862018 ], [ 24.421784880484701, 46.42889982714285 ], [ 24.421775713240216, 46.428885572999214 ], [ 24.42176654599573, 46.428871318851868 ], [ 24.421757378751249, 46.428857064700786 ], [ 24.42174821150676, 46.42884281054598 ], [ 24.421739044262274, 46.428828556387451 ], [ 24.421729877017796, 46.428814302225177 ], [ 24.421720709773307, 46.428800048059195 ], [ 24.421711542528826, 46.428785793889475 ], [ 24.421702326492174, 46.428771554909162 ], [ 24.421692872845579, 46.428757389913322 ], [ 24.421683419198985, 46.428743224913781 ], [ 24.42167396555239, 46.428729059910566 ], [ 24.421664511905792, 46.428714894903671 ], [ 24.421655058259194, 46.428700729893087 ], [ 24.421645604612596, 46.428686564878838 ], [ 24.421636150966002, 46.428672399860893 ], [ 24.421626697319407, 46.428658234839268 ], [ 24.421617243672806, 46.428644069813956 ], [ 24.421607790026211, 46.428629904784984 ], [ 24.42159833637961, 46.428615739752317 ], [ 24.421588882733015, 46.428601574715969 ], [ 24.421579429086417, 46.428587409675949 ], [ 24.421569975439823, 46.42857324463224 ], [ 24.421560521793229, 46.428559079584836 ], [ 24.421551068146631, 46.428544914533781 ], [ 24.421541614500033, 46.42853074947903 ], [ 24.421532160853431, 46.428516584420599 ], [ 24.421522707206837, 46.428502419358473 ], [ 24.421513253560246, 46.428488254292688 ], [ 24.421503799913648, 46.428474089223215 ], [ 24.42149434626705, 46.428459924150054 ], [ 24.421484892620452, 46.428445759073213 ], [ 24.421475438973854, 46.428431593992691 ], [ 24.421465985327263, 46.428417428908489 ], [ 24.421456531680665, 46.428403263820613 ], [ 24.421447078034067, 46.428389098729049 ], [ 24.421437624387469, 46.428374933633798 ], [ 24.421428170740871, 46.428360768534887 ], [ 24.421418717094273, 46.428346603432274 ], [ 24.421409263447682, 46.428332438325988 ], [ 24.421399809801084, 46.428318273216014 ], [ 24.42139035615449, 46.428304108102374 ], [ 24.421381000594614, 46.428290089955858 ], [ 24.42137154694802, 46.428275924834878 ], [ 24.421362093301422, 46.428261759710232 ], [ 24.421352639654824, 46.42824759458189 ], [ 24.421343309230235, 46.428233614082991 ], [ 24.421333853025342, 46.428219449747012 ], [ 24.421324388228253, 46.428205288093118 ], [ 24.421315053420489, 46.428191320931475 ], [ 24.421305588623401, 46.428177159270277 ], [ 24.421296139050522, 46.428163020384559 ], [ 24.421286854833117, 46.428148806512006 ], [ 24.421278723026088, 46.428134305143317 ], [ 24.421270569186774, 46.428119764480783 ], [ 24.421262415347453, 46.428105223814377 ], [ 24.421254261508135, 46.428090683144077 ], [ 24.421246107668818, 46.428076142469919 ], [ 24.421237953829497, 46.428061601791875 ], [ 24.421229799990183, 46.428047061109943 ], [ 24.42122167044888, 46.428032513995774 ], [ 24.421213778459805, 46.428017906680516 ], [ 24.421205885217873, 46.428003297042416 ], [ 24.421197991975944, 46.427988687400408 ], [ 24.42119111131343, 46.427973845557567 ], [ 24.421184804692167, 46.427958872075934 ], [ 24.421178592094634, 46.427944121825917 ], [ 24.421172285473371, 46.427929148336133 ], [ 24.421165978852105, 46.427914174842222 ], [ 24.421163895712986, 46.427898866794322 ], [ 24.421162483885968, 46.427883355278681 ], [ 24.421161237290537, 46.427867825043442 ], [ 24.42116045312477, 46.427852242426084 ], [ 24.421159671673522, 46.427836713746224 ], [ 24.421158887507744, 46.427821131119977 ], [ 24.421158103341977, 46.427805548489268 ], [ 24.421157319176203, 46.42778996585411 ], [ 24.421156535010425, 46.427774383214498 ], [ 24.421155750844658, 46.427758800570416 ], [ 24.42115496692297, 46.427743222772371 ], [ 24.421156280448088, 46.427727711619838 ], [ 24.421158973576773, 46.427712247487122 ], [ 24.421161666705451, 46.427696783350022 ], [ 24.421164359834137, 46.427681319208524 ], [ 24.421167052962815, 46.427665855062649 ], [ 24.421169839282008, 46.42765039473425 ], [ 24.421172894874655, 46.427634945444737 ], [ 24.421175950467298, 46.427619496150854 ], [ 24.421179768764599, 46.427604149608378 ], [ 24.421185143778519, 46.427589012791117 ], [ 24.421190518792439, 46.427573875969664 ], [ 24.421195893806363, 46.427558739144004 ], [ 24.42120126882028, 46.427543602314138 ], [ 24.421206643834203, 46.427528465480059 ], [ 24.421212018848127, 46.427513328641794 ], [ 24.421217393862044, 46.427498191799323 ], [ 24.42122410904966, 46.427483350264282 ], [ 24.421232138248644, 46.427468789121363 ], [ 24.421240373085716, 46.427454268481 ], [ 24.421248607922788, 46.427439747836772 ], [ 24.421256842759856, 46.427425227188678 ], [ 24.421265077596932, 46.427410706536712 ], [ 24.421273312434, 46.42739618588088 ], [ 24.421281547271072, 46.427381665221183 ], [ 24.421289781989373, 46.427367144767061 ], [ 24.421297986475508, 46.427352615494691 ], [ 24.421306111351889, 46.427338063647866 ], [ 24.42131423622827, 46.427323511797169 ], [ 24.421322361104647, 46.427308959942586 ], [ 24.42133048598102, 46.427294408084123 ], [ 24.421338610857401, 46.427279856221766 ], [ 24.421346735733781, 46.427265304355529 ], [ 24.421354860610158, 46.427250752485406 ], [ 24.421362985486532, 46.427236200611397 ], [ 24.421371110362912, 46.4272216487335 ], [ 24.421379235239289, 46.427207096851724 ], [ 24.42138736011567, 46.427192544966061 ], [ 24.421395484992047, 46.427177993076519 ], [ 24.421403609868431, 46.427163441183083 ], [ 24.421411734744805, 46.427148889285768 ], [ 24.421419859621182, 46.427134337384572 ], [ 24.421427984497559, 46.427119785479476 ], [ 24.421436109373939, 46.427105233570515 ], [ 24.42144423425032, 46.42709068165766 ], [ 24.42145235912669, 46.427076129740925 ], [ 24.42146048400307, 46.427061577820297 ], [ 24.421468608879451, 46.427047025895789 ], [ 24.421476733755831, 46.427032473967394 ], [ 24.421484858632201, 46.427017922035112 ], [ 24.421492983508582, 46.427003370098952 ], [ 24.421501108384959, 46.426988818158897 ], [ 24.421509233261339, 46.426974266214955 ], [ 24.42151734233008, 46.4269597425792 ], [ 24.421525467206457, 46.426945190627514 ], [ 24.421533592082838, 46.426930638671926 ], [ 24.421541716959215, 46.42691608671246 ], [ 24.421549841835592, 46.426901534749121 ], [ 24.421557966711973, 46.426886982781873 ], [ 24.421566091588346, 46.426872430810761 ], [ 24.421574216464727, 46.426857878835762 ], [ 24.4215823413411, 46.426843326856869 ], [ 24.421590466217481, 46.426828774874096 ], [ 24.421598465170899, 46.426814297647283 ], [ 24.421606379745928, 46.426799690722326 ], [ 24.421614294320943, 46.426785083793483 ], [ 24.421622208895968, 46.42677047686071 ], [ 24.42163012347099, 46.426755869924015 ], [ 24.421638038046012, 46.42674126298342 ], [ 24.421645952621038, 46.426726656038902 ], [ 24.421653867053845, 46.426712049352943 ], [ 24.42166178162887, 46.426697442400595 ], [ 24.421669696203889, 46.426682835444346 ], [ 24.421677610778911, 46.426668228484168 ], [ 24.421685525353933, 46.426653621520082 ], [ 24.421693434546402, 46.426639024486015 ], [ 24.421701349121427, 46.426624417514113 ], [ 24.421709263696446, 46.426609810538288 ], [ 24.421717178271475, 46.426595203558541 ], [ 24.42172509284649, 46.426580596574894 ], [ 24.421733007421516, 46.426565989587324 ], [ 24.421740921996538, 46.426551382595846 ], [ 24.42174883657156, 46.426536775600447 ], [ 24.421756751146585, 46.426522168601132 ], [ 24.421764665721607, 46.426507561597909 ], [ 24.421772580296626, 46.426492954590792 ], [ 24.421780494871648, 46.426478347579724 ], [ 24.421788409446673, 46.426463740564756 ], [ 24.421796324021692, 46.426449133545887 ], [ 24.421804227954333, 46.426434523791038 ], [ 24.421812111619708, 46.426419908829359 ], [ 24.421819995285084, 46.42640529386378 ], [ 24.421827878950456, 46.426390678894272 ], [ 24.421835762615828, 46.426376063920834 ], [ 24.421843646281204, 46.426361448943496 ], [ 24.421851529946572, 46.426346833962235 ], [ 24.421859413611948, 46.426332218977059 ], [ 24.421867297277323, 46.426317603987954 ], [ 24.421875180942692, 46.426302988994934 ], [ 24.421883064608064, 46.426288373998005 ], [ 24.421890948273436, 46.426273758997148 ], [ 24.421898831225619, 46.426259145314525 ], [ 24.421906714890991, 46.426244530305837 ], [ 24.421914598556363, 46.426229915293234 ], [ 24.421922482221738, 46.426215300276695 ], [ 24.421930365887111, 46.426200685256248 ], [ 24.421938249552486, 46.426186070231893 ], [ 24.421945291788713, 46.426171262475428 ], [ 24.421951787561692, 46.42615632954827 ], [ 24.421958283334678, 46.426141396617012 ], [ 24.421964779107661, 46.426126463681683 ], [ 24.42197121697297, 46.426111518359271 ], [ 24.421977504600143, 46.42609654090581 ], [ 24.421983792227309, 46.42608156344825 ], [ 24.421990079854481, 46.426066585986561 ], [ 24.421996367481658, 46.426051608520766 ], [ 24.422002655108823, 46.426036631050849 ], [ 24.422008942735985, 46.426021653576839 ], [ 24.422013035017081, 46.426006429168893 ], [ 24.422014383787193, 46.425990896169921 ], [ 24.422015732557306, 46.425975363166529 ], [ 24.422016826206505, 46.42595979743497 ], [ 24.422017871964623, 46.425944225556108 ], [ 24.42201885371497, 46.42592865235973 ], [ 24.422019537996096, 46.425913099509188 ], [ 24.422020223440011, 46.425897520225476 ], [ 24.42202090888393, 46.425881940937309 ], [ 24.422021594327852, 46.425866361644694 ], [ 24.422022279771767, 46.425850782347624 ], [ 24.422022965215685, 46.425835203046098 ], [ 24.422023650659604, 46.425819623740125 ], [ 24.422024193647836, 46.425804038280361 ], [ 24.422024640912898, 46.425788448684088 ], [ 24.422025087959149, 46.425772866710233 ], [ 24.422025535224208, 46.425757277105049 ], [ 24.42202598248927, 46.42574168749541 ], [ 24.422026429754336, 46.425726097881302 ], [ 24.422026877019395, 46.425710508262739 ], [ 24.422026640607875, 46.42569491867291 ], [ 24.422026233539288, 46.425679329086897 ], [ 24.422025827628548, 46.425663783838623 ], [ 24.422025420559965, 46.425648194243713 ], [ 24.422025013491371, 46.425632604644349 ], [ 24.422024606422784, 46.425617015040515 ], [ 24.422024199354208, 46.425601425432525 ], [ 24.422023792285625, 46.425585835819781 ], [ 24.422023321383989, 46.425570248104279 ], [ 24.422022676948281, 46.425554665554209 ], [ 24.422022032512562, 46.425539082999684 ], [ 24.422021390038097, 46.425523547863989 ], [ 24.422020745602385, 46.425507965300568 ], [ 24.422020101166677, 46.425492382732699 ], [ 24.422017328925786, 46.42547698200876 ], [ 24.42201255553514, 46.425461752304564 ], [ 24.422007782144505, 46.425446522596111 ], [ 24.422003008753858, 46.425431292883403 ], [ 24.421998242936503, 46.425416087329346 ], [ 24.421993469545864, 46.425400857608139 ], [ 24.421988696155218, 46.425385627882669 ], [ 24.421983694703599, 46.425370421565219 ], [ 24.421978690104496, 46.42535521556664 ], [ 24.421973685505396, 46.425340009563826 ], [ 24.421968680906289, 46.425324803556762 ], [ 24.421963694536718, 46.425309652934217 ], [ 24.421958689937611, 46.425294446918684 ], [ 24.421953685338512, 46.425279240898909 ], [ 24.421948680739405, 46.425264034874907 ], [ 24.421943676140302, 46.425248828846641 ], [ 24.421938671541195, 46.425233622814147 ], [ 24.421933666942095, 46.425218416777412 ], [ 24.421928656765459, 46.425203211563257 ], [ 24.421923598895486, 46.425188013415102 ], [ 24.421918541025509, 46.425172815262698 ], [ 24.421913483155532, 46.425157617106045 ], [ 24.421908425285562, 46.425142418945171 ], [ 24.421903367415581, 46.425127220780048 ], [ 24.421898309545607, 46.425112022610691 ], [ 24.42189325167563, 46.425096824437105 ], [ 24.421888193805653, 46.425081626259271 ], [ 24.421883135935676, 46.425066428077201 ], [ 24.421878078065703, 46.425051229890904 ], [ 24.421873020195722, 46.425036031700365 ], [ 24.421867962325749, 46.425020833505592 ], [ 24.421862904455772, 46.425005635306569 ], [ 24.421857846585795, 46.424990437103318 ], [ 24.421852788715821, 46.424975238895833 ], [ 24.421847730845847, 46.424960040684105 ], [ 24.421842672975874, 46.424944842468136 ], [ 24.421837615105897, 46.424929644247932 ], [ 24.42183255723592, 46.424914446023493 ], [ 24.421827499365943, 46.424899247794819 ], [ 24.421822441495969, 46.424884049561911 ], [ 24.421817383625989, 46.424868851324767 ], [ 24.421812325756015, 46.424853653083375 ], [ 24.421807267886038, 46.424838454837754 ], [ 24.421802210016061, 46.424823256587899 ], [ 24.421797152146095, 46.424808058333788 ], [ 24.421792094276114, 46.424792860075456 ], [ 24.42178703640614, 46.42477766181289 ], [ 24.42178197853616, 46.424762463546074 ], [ 24.421776115221395, 46.424747414961523 ], [ 24.42176957568681, 46.424732492043752 ], [ 24.421763036152221, 46.424717569121889 ], [ 24.421755323176232, 46.424703096068292 ], [ 24.421741348337044, 46.424691004368462 ], [ 24.421727038394174, 46.424678992925664 ], [ 24.421712728451311, 46.424666981480236 ], [ 24.421697995776153, 46.424655284545317 ], [ 24.421680125068931, 46.424645784216942 ], [ 24.421662168242282, 46.424636325837859 ], [ 24.421644211415636, 46.424626867457143 ], [ 24.4216262547741, 46.424617409172271 ], [ 24.421608297947454, 46.424607950788271 ], [ 24.421590114021509, 46.424598694602828 ], [ 24.421570682500221, 46.424591170470755 ], [ 24.421549027058258, 46.424586852645092 ], [ 24.421527371616296, 46.424582534819081 ], [ 24.421505716174334, 46.424578216992728 ], [ 24.421484060732379, 46.424573899166042 ], [ 24.421462077212094, 46.424570528087166 ], [ 24.421439462733868, 46.424570407056727 ], [ 24.421416848255646, 46.424570286026274 ], [ 24.42139423377742, 46.424570164995828 ], [ 24.421371619299201, 46.424570043965382 ], [ 24.421349014510476, 46.424570022891174 ], [ 24.421327114624145, 46.424572960862115 ], [ 24.421305782915205, 46.424578109726937 ], [ 24.421284451206272, 46.424583258591277 ], [ 24.421263119497336, 46.424588407455133 ], [ 24.421242055335224, 46.424593917304165 ], [ 24.421223077673719, 46.424602315066018 ], [ 24.421204158955412, 46.42461083326662 ], [ 24.421185240237097, 46.424619351465871 ], [ 24.421166507806198, 46.42462808732008 ], [ 24.421147803412822, 46.424636855931602 ], [ 24.421131975904615, 46.424647891161825 ], [ 24.421116754080305, 46.424659397634635 ], [ 24.421101619710893, 46.424670983735567 ], [ 24.421087398703278, 46.424682996184842 ], [ 24.421077248900346, 46.424696921846447 ], [ 24.421067164958693, 46.424710879793651 ], [ 24.42105708101705, 46.424724837737266 ], [ 24.421046997075393, 46.424738795677314 ], [ 24.421038556729474, 46.424753230711737 ], [ 24.421031219134207, 46.424767975646304 ], [ 24.421023951542573, 46.424782738659999 ], [ 24.421016683950935, 46.424797501669687 ], [ 24.421009416359304, 46.424812264675403 ], [ 24.42100214876767, 46.42482702767709 ], [ 24.420994883854657, 46.424841785233575 ], [ 24.420988245205219, 46.424856670726037 ], [ 24.420983269545953, 46.424871880114118 ], [ 24.420978293886684, 46.424887089497943 ], [ 24.420973318227414, 46.424902298877548 ], [ 24.420968342568145, 46.424917508252889 ], [ 24.420963374504328, 46.424932718890076 ], [ 24.420958525541643, 46.424947949375941 ], [ 24.420953676578957, 46.424963179857556 ], [ 24.420948827616265, 46.424978410334923 ], [ 24.420943978653579, 46.424993640808026 ], [ 24.420939130197073, 46.42500886968697 ], [ 24.420934281234388, 46.425024100151575 ], [ 24.420929432271702, 46.425039330611916 ], [ 24.420924583309016, 46.425054561068002 ], [ 24.420919734346327, 46.425069791519832 ], [ 24.420914885383642, 46.425085021967419 ], [ 24.420910036420949, 46.425100252410736 ], [ 24.420905187458267, 46.425115482849797 ], [ 24.420900338495581, 46.425130713284609 ], [ 24.420895489532892, 46.425145943715172 ], [ 24.420890640570207, 46.425161174141472 ], [ 24.420885791607514, 46.425176404563516 ], [ 24.420880942644832, 46.425191634981303 ], [ 24.420876093682143, 46.425206865394841 ], [ 24.420871244719454, 46.425222095804124 ], [ 24.420866395756764, 46.42523732620915 ], [ 24.420861546794082, 46.425252556609919 ], [ 24.42085669783139, 46.42526778700644 ], [ 24.420851848868704, 46.425283017398698 ], [ 24.420846999906022, 46.425298247786699 ], [ 24.420842150943329, 46.425313478170452 ], [ 24.420837303864069, 46.425328702634189 ], [ 24.420832423204132, 46.425343928157545 ], [ 24.420827529446893, 46.425359151671834 ], [ 24.420822635689646, 46.425374375181867 ], [ 24.42081774193241, 46.425389598687666 ], [ 24.420812739380136, 46.42540480536956 ], [ 24.420807696478235, 46.425420005809187 ], [ 24.420802653576331, 46.425435206244579 ], [ 24.42079761067443, 46.425450406675729 ], [ 24.420792567772526, 46.425465607102645 ], [ 24.420787524870626, 46.425480807525318 ], [ 24.420782481968722, 46.42549600794375 ], [ 24.420777441263919, 46.425511201735439 ], [ 24.420772398362011, 46.425526402145401 ], [ 24.420767355460111, 46.425541602551128 ], [ 24.420762312558207, 46.425556802952613 ], [ 24.420757269656306, 46.425572003349856 ], [ 24.420752226754399, 46.425587203742857 ], [ 24.420747183852502, 46.425602404131631 ], [ 24.420742140950601, 46.425617604516155 ], [ 24.420737098048694, 46.425632804896452 ], [ 24.420732055146793, 46.425648005272514 ], [ 24.420727012244896, 46.425663205644327 ], [ 24.420721969342988, 46.425678406011897 ], [ 24.420716929001696, 46.425693598657034 ], [ 24.420711855167362, 46.425708793918524 ], [ 24.420706404536382, 46.425723927080377 ], [ 24.420700953905406, 46.42573906023803 ], [ 24.42069550327443, 46.425754193391477 ], [ 24.420690052643447, 46.425769326540738 ], [ 24.420684602012475, 46.425784459685779 ], [ 24.420679151381496, 46.425799592826628 ], [ 24.420673700750516, 46.425814725963278 ], [ 24.420668250119537, 46.425829859095721 ], [ 24.420662799488564, 46.425844992223965 ], [ 24.420657348857581, 46.425860125348002 ], [ 24.420651898226602, 46.425875258467848 ], [ 24.42064644759563, 46.425890391583494 ], [ 24.420640996964647, 46.425905524694933 ], [ 24.420635546333678, 46.42592065780218 ], [ 24.420630095702695, 46.425935790905214 ], [ 24.420624645071719, 46.425950924004042 ], [ 24.420619194440739, 46.425966057098691 ], [ 24.42061321032573, 46.425981089141906 ], [ 24.420606848382391, 46.425996049616536 ], [ 24.420600486439049, 46.426011010087059 ], [ 24.420594124495718, 46.426025970553461 ], [ 24.420587623115914, 46.426040904525564 ], [ 24.420581086427482, 46.426055831785646 ], [ 24.420574549739058, 46.426070759041622 ], [ 24.420568013050634, 46.426085686293511 ], [ 24.420561476362206, 46.42610061354133 ], [ 24.420554939673778, 46.426115540785055 ], [ 24.420548402985354, 46.426130468024695 ], [ 24.420541866296929, 46.426145395260235 ], [ 24.420535329608501, 46.426160322491697 ], [ 24.420528792920077, 46.42617524971908 ], [ 24.420522256231646, 46.426190176942356 ], [ 24.420515719543225, 46.426205104161554 ], [ 24.420509182854801, 46.426220031376666 ], [ 24.420502646166369, 46.426234958587685 ], [ 24.420496048201272, 46.4262498725559 ], [ 24.420489030848199, 46.426264695911961 ], [ 24.420482013950103, 46.42627951830292 ], [ 24.420474996597029, 46.426294341650916 ], [ 24.420467979243963, 46.426309164994883 ], [ 24.420460961890893, 46.426323988334829 ], [ 24.420453944537822, 46.426338811670739 ], [ 24.420446927184749, 46.426353635002613 ], [ 24.420439909831678, 46.426368458330465 ], [ 24.420432892478608, 46.426383281654282 ], [ 24.420425875125542, 46.426398104974069 ], [ 24.420418857772471, 46.426412928289814 ], [ 24.420411840419401, 46.426427751601537 ], [ 24.420404823066331, 46.426442574909231 ], [ 24.420397805713261, 46.426457398212897 ], [ 24.420390788360191, 46.426472221512533 ], [ 24.420383771007121, 46.426487044808127 ], [ 24.420376753654054, 46.426501868099699 ], [ 24.420369736300984, 46.426516691387228 ], [ 24.420362718947914, 46.426531514670749 ], [ 24.42035570159484, 46.426546337950221 ], [ 24.420348684241773, 46.426561161225656 ], [ 24.420341666889829, 46.426575984494704 ], [ 24.420334649536759, 46.426590807762082 ], [ 24.420327632183692, 46.426605631025438 ], [ 24.420320614830619, 46.426620454284759 ], [ 24.420313597477552, 46.426635277540051 ], [ 24.420306580124485, 46.426650100791313 ], [ 24.420299562771412, 46.426664924038541 ], [ 24.420292544355348, 46.426679747045867 ], [ 24.420285517318142, 46.426694568136263 ], [ 24.420278490280936, 46.426709389222609 ], [ 24.420271463243733, 46.426724210304933 ], [ 24.420264436206523, 46.426739031383235 ], [ 24.42025740916932, 46.426753852457495 ], [ 24.420250382132114, 46.426768673527732 ], [ 24.420243355094904, 46.426783494593941 ], [ 24.420236328057694, 46.426798315656114 ], [ 24.420229301020495, 46.426813136714266 ], [ 24.420222273983285, 46.426827957768388 ], [ 24.420215246946096, 46.42684277881844 ], [ 24.42020821990889, 46.426857599864491 ], [ 24.420201192871684, 46.42687242090652 ], [ 24.420194165834477, 46.426887241944513 ], [ 24.420187138797267, 46.426902062978485 ], [ 24.420180111760065, 46.426916884008435 ], [ 24.420173084722858, 46.426931705034335 ], [ 24.420166057685648, 46.42694652605622 ], [ 24.420159030648442, 46.426961347074062 ], [ 24.420152003611236, 46.426976168087883 ], [ 24.420145068415103, 46.426991009546967 ], [ 24.420138182957242, 46.427005862076719 ], [ 24.420131297499378, 46.427020714602428 ], [ 24.420124412041517, 46.427035567124079 ], [ 24.420117526583653, 46.427050419641702 ], [ 24.420110641125792, 46.427065272155254 ], [ 24.420103755667927, 46.427080124664776 ], [ 24.420096870210067, 46.427094977170242 ], [ 24.420089984752202, 46.427109829671664 ], [ 24.420083099294342, 46.427124682169037 ], [ 24.420076213836481, 46.427139534662381 ], [ 24.420069328378617, 46.427154387151653 ], [ 24.420062442920756, 46.427169239636882 ], [ 24.420055557462895, 46.427184092118068 ], [ 24.420048672005027, 46.427198944595219 ], [ 24.420041786547166, 46.427213797068319 ], [ 24.420034901089302, 46.427228649537369 ], [ 24.420028015631441, 46.427243502002362 ], [ 24.420021134275718, 46.427258345614689 ], [ 24.420014248817857, 46.427273198071596 ], [ 24.420007363359996, 46.427288050524446 ], [ 24.420000477902132, 46.427302902973267 ], [ 24.419993592444271, 46.427317755418031 ], [ 24.419986717177515, 46.427332585875796 ], [ 24.419979831719651, 46.427347438312481 ], [ 24.419972946261787, 46.427362290745116 ], [ 24.419966101085727, 46.427377056282971 ], [ 24.419959215627863, 46.427391908707527 ], [ 24.419952330169998, 46.427406761128047 ], [ 24.419945470863247, 46.427421557134757 ], [ 24.419938585405383, 46.427436409547191 ], [ 24.419931699947522, 46.427451261955575 ], [ 24.419924901991106, 46.427465925613333 ], [ 24.419918016533245, 46.427480778013681 ], [ 24.419911131075381, 46.427495630409986 ], [ 24.419904246755365, 46.427510480347834 ], [ 24.419897361297501, 46.427525332736046 ], [ 24.4198905770103, 46.427540202282195 ], [ 24.419888256268266, 46.427555633046715 ], [ 24.419886944595142, 46.427571188437256 ], [ 24.419885632922021, 46.427586743823362 ], [ 24.419884321248897, 46.427602299205013 ], [ 24.419883009659483, 46.427617853589545 ], [ 24.419881697986366, 46.427633408962322 ], [ 24.41988052341511, 46.42764892685291 ], [ 24.419879664629839, 46.427664503482468 ], [ 24.419878815069509, 46.427679912785806 ], [ 24.419877956284239, 46.427695489406503 ], [ 24.419877097498969, 46.427711066022759 ], [ 24.419876802613562, 46.427726538059268 ], [ 24.419877761160507, 46.427742116157134 ], [ 24.419878719707452, 46.427757694250552 ], [ 24.419879678254397, 46.427773272339522 ], [ 24.419880636801341, 46.427788850424037 ], [ 24.419881594204888, 46.427804409921841 ], [ 24.41988255275183, 46.427819987997459 ], [ 24.419883511298774, 46.427835566068623 ], [ 24.419884469845716, 46.427851144135332 ], [ 24.419885428392668, 46.427866722197592 ], [ 24.419886386939613, 46.427882300255398 ], [ 24.419887345486554, 46.427897878308755 ], [ 24.419888684838135, 46.42791341855866 ], [ 24.41989367671254, 46.427928596445973 ], [ 24.419899084866671, 46.427943736315818 ], [ 24.419904493020812, 46.427958876181457 ], [ 24.419909901174947, 46.42797401604291 ], [ 24.419915309329085, 46.427989155900143 ], [ 24.419920717483219, 46.428004295753169 ], [ 24.41992612563736, 46.428019435601989 ], [ 24.419931533791498, 46.42803457544661 ], [ 24.419936941945629, 46.428049715287031 ], [ 24.419942350099763, 46.428064855123239 ], [ 24.419947758253908, 46.42807999495524 ], [ 24.419953166408042, 46.428095134783042 ], [ 24.41995857456218, 46.428110274606631 ], [ 24.419964323167658, 46.42812533386882 ], [ 24.419970157418732, 46.428140372861485 ], [ 24.419975991669801, 46.42815541185 ], [ 24.419982591971628, 46.428170244360949 ], [ 24.419993349808255, 46.428183956289068 ], [ 24.420004106062294, 46.428197666196574 ], [ 24.420014863898928, 46.428211378117808 ], [ 24.420025621735569, 46.428225090035589 ], [ 24.420036379572203, 46.428238801949924 ], [ 24.420047137408837, 46.428252513860805 ], [ 24.420057895245471, 46.428266225768247 ], [ 24.420068653082108, 46.428279937672229 ], [ 24.420079410918742, 46.428293649572765 ], [ 24.42009021268667, 46.428307343087255 ], [ 24.420101411669084, 46.428320870388042 ], [ 24.42011272860158, 46.428334345959634 ], [ 24.420126116959995, 46.428346913124976 ], [ 24.420139505318406, 46.428359480287412 ], [ 24.420152893676825, 46.428372047446956 ], [ 24.420166282035243, 46.428384614603594 ], [ 24.420179670393665, 46.428397181757347 ], [ 24.420192890410664, 46.428409590892436 ], [ 24.420206278769076, 46.428422158040426 ], [ 24.420219667127498, 46.428434725185525 ], [ 24.420233055485909, 46.428447292327718 ], [ 24.420246399756888, 46.428459818083823 ], [ 24.420259788115303, 46.428472385220232 ], [ 24.420273176473714, 46.428484952353742 ], [ 24.420286564832132, 46.42849751948436 ], [ 24.42030049939072, 46.428509765322794 ], [ 24.420316123388201, 46.428521028339617 ], [ 24.420331747385674, 46.428532291354102 ], [ 24.420347371383158, 46.428543554366279 ], [ 24.420363055941465, 46.428554637684215 ], [ 24.420378874830483, 46.428565783385807 ], [ 24.420394693719505, 46.428576929085125 ], [ 24.420410512608527, 46.428588074782155 ], [ 24.420426324708668, 46.428599215693595 ], [ 24.420442143597686, 46.42861036138607 ], [ 24.420457962486708, 46.428621507076279 ], [ 24.420473781375723, 46.428632652764186 ], [ 24.420489600264748, 46.428643798449833 ], [ 24.42050541915377, 46.428654944133186 ], [ 24.420521235845865, 46.428666088266361 ], [ 24.420537054734883, 46.428677233945173 ], [ 24.420552873623908, 46.42868837962169 ], [ 24.420568692512926, 46.428699525295933 ], [ 24.420584511401945, 46.428710670967902 ], [ 24.42060033029097, 46.428721816637584 ], [ 24.420616149179988, 46.428732962304998 ], [ 24.420631968069006, 46.428744107970125 ], [ 24.420647786958028, 46.428755253632978 ], [ 24.420663605847047, 46.428766399293544 ], [ 24.420679424736068, 46.428777544951842 ], [ 24.42069524362509, 46.428788690607853 ], [ 24.420711062514108, 46.428799836261582 ], [ 24.420726881403127, 46.428810981913031 ], [ 24.420742700292148, 46.428822127562213 ], [ 24.42075851918117, 46.428833273209108 ], [ 24.420774338070185, 46.428844418853721 ], [ 24.420790156959203, 46.428855564496061 ], [ 24.420805975635272, 46.428866709986082 ], [ 24.420821794524294, 46.42887785562386 ], [ 24.420837596369381, 46.428889012711899 ], [ 24.420853367841111, 46.428900190206789 ], [ 24.420869139312838, 46.428911367699392 ], [ 24.420884910784569, 46.428922545189714 ], [ 24.420900646814992, 46.428933697559934 ], [ 24.420916418286726, 46.428944875045659 ], [ 24.420932189758449, 46.428956052529109 ], [ 24.42094796123018, 46.428967230010251 ], [ 24.420963641904272, 46.42897834313947 ], [ 24.420979413375999, 46.428989520616049 ], [ 24.42099518484773, 46.429000698090334 ], [ 24.421010956319453, 46.429011875562324 ], [ 24.421026659234219, 46.42902300444473 ], [ 24.421042430705949, 46.429034181912144 ], [ 24.421058202177672, 46.429045359377277 ], [ 24.421073838469841, 46.429056441036465 ], [ 24.421089609941561, 46.429067618497029 ], [ 24.421105381413291, 46.429078795955306 ], [ 24.421121152885028, 46.42908997341128 ], [ 24.421136851698577, 46.429101099371145 ], [ 24.421152623170304, 46.429112276822551 ], [ 24.421168394642034, 46.429123454271668 ], [ 24.421184166113761, 46.42913463171849 ], [ 24.421199937458329, 46.429145809072899 ], [ 24.421215708930056, 46.429156986515139 ], [ 24.42123148040179, 46.429168163955076 ], [ 24.421246060241206, 46.429180000318361 ], [ 24.421259294858736, 46.429192621487601 ], [ 24.421272529476266, 46.429205242653907 ], [ 24.421285696685597, 46.429217799533632 ], [ 24.421298931303127, 46.429230420694111 ], [ 24.421312165920657, 46.42924304185167 ], [ 24.421324841855643, 46.429255854399983 ], [ 24.42133755405483, 46.429268738747616 ], [ 24.421350266254017, 46.429281623092201 ], [ 24.421360856631779, 46.429294967337292 ], [ 24.42136191117693, 46.429310378464699 ], [ 24.421362095526931, 46.429325855978135 ], [ 24.421362200556977, 46.429341446012401 ], [ 24.421362305587021, 46.429357036042198 ], [ 24.421356253477249, 46.429371940634866 ], [ 24.421349115754847, 46.429386735822298 ], [ 24.421341978032441, 46.429401531005716 ], [ 24.421334906809921, 46.429416188343168 ], [ 24.421323885416903, 46.429429238332872 ], [ 24.421308101918449, 46.429440148396282 ], [ 24.42129175084726, 46.429450838549236 ], [ 24.421275200770555, 46.429461451594655 ], [ 24.421258650693858, 46.429472064638006 ], [ 24.421242598650895, 46.429482995723681 ], [ 24.421228634050884, 46.429495259848139 ], [ 24.421214669450869, 46.429507523969846 ], [ 24.421200704850861, 46.42951978808879 ], [ 24.421186741208555, 46.429532051363886 ], [ 24.421172776608543, 46.429544315477315 ], [ 24.42115925773296, 46.429556776569243 ], [ 24.421148392029508, 46.429570410187857 ], [ 24.421137526326049, 46.429584043803075 ], [ 24.421126660622594, 46.429597677414876 ], [ 24.421115794919139, 46.429611311023272 ], [ 24.421106367303132, 46.429625204590728 ], [ 24.421104914610915, 46.429640655503221 ], [ 24.421103729870271, 46.429656199655838 ], [ 24.421102545129632, 46.429671743804022 ], [ 24.421101360388985, 46.429687287947765 ], [ 24.421100922157976, 46.429702839779118 ], [ 24.421107514798365, 46.429717606617679 ], [ 24.421115217663488, 46.42973224553625 ], [ 24.421122920528617, 46.429746884450878 ], [ 24.421130623393747, 46.42976152336157 ], [ 24.421138438164686, 46.42977613606314 ], [ 24.421146697719017, 46.429790644605042 ], [ 24.421154957273355, 46.429805153143086 ], [ 24.42116321682769, 46.429819661677264 ], [ 24.421171476382035, 46.429834170207577 ], [ 24.42117973593637, 46.429848678734039 ], [ 24.421188904740493, 46.42986290827902 ], [ 24.421199181571506, 46.429876797853638 ], [ 24.421209458402519, 46.429890687424724 ], [ 24.421219735233532, 46.429904576992271 ], [ 24.421230012064537, 46.429918466556281 ], [ 24.42124028889555, 46.429932356116744 ], [ 24.421250565726563, 46.429946245673676 ], [ 24.421260842557579, 46.429960135227056 ], [ 24.421271119388585, 46.429974024776911 ], [ 24.421281396219602, 46.429987914323213 ], [ 24.421291673050614, 46.430001803865984 ], [ 24.421301949881624, 46.43001569340521 ], [ 24.421312226712637, 46.430029582940904 ], [ 24.421322503543649, 46.430043472473059 ], [ 24.421332780374659, 46.430057362001669 ], [ 24.421343057205672, 46.430071251526748 ], [ 24.421353334036684, 46.430085141048266 ], [ 24.421363610867701, 46.430099030566261 ], [ 24.421373887698714, 46.430112920080724 ], [ 24.421384144493882, 46.430126782512467 ], [ 24.421394421324891, 46.430140672019853 ], [ 24.421404698155904, 46.430154561523686 ], [ 24.421414974986913, 46.430168451023995 ], [ 24.421425251817933, 46.430182340520759 ], [ 24.421435504387485, 46.430196197223793 ], [ 24.421445781218502, 46.43021008671348 ], [ 24.421456058049515, 46.430223976199628 ], [ 24.421466334880527, 46.430237865682258 ], [ 24.421476546651061, 46.430251667229932 ], [ 24.42148682348207, 46.430265556705493 ], [ 24.421497100313083, 46.430279446177508 ], [ 24.421507377144096, 46.430293335645985 ], [ 24.42151762737182, 46.430307189155734 ], [ 24.421527904202836, 46.430321078617155 ], [ 24.421538181033846, 46.430334968075016 ], [ 24.421548457864855, 46.430348857529346 ], [ 24.421558734695875, 46.430362746980137 ], [ 24.421569011526199, 46.430376636426459 ], [ 24.421579288357211, 46.430390525870173 ], [ 24.421589565188224, 46.430404415310342 ], [ 24.421599842019234, 46.430418304746972 ], [ 24.421610118850246, 46.430432194180071 ], [ 24.421620368867789, 46.430446047370459 ], [ 24.421630645698801, 46.430459936796481 ], [ 24.421640922529814, 46.430473826218964 ], [ 24.421651199360824, 46.430487715637902 ], [ 24.42166147619184, 46.430501605053315 ], [ 24.421671625810113, 46.430515322533779 ], [ 24.421681902641119, 46.430529211942144 ], [ 24.421692179472132, 46.43054310134697 ], [ 24.421702456303144, 46.430556990748258 ], [ 24.421711928241134, 46.430571145560279 ], [ 24.421721386485135, 46.430585307997895 ], [ 24.421730844729129, 46.430599470431844 ], [ 24.421740302973127, 46.430613632862105 ], [ 24.42174972263965, 46.430627807427825 ], [ 24.421759141400489, 46.430641982950611 ], [ 24.421768560161322, 46.430656158469688 ], [ 24.421777978922155, 46.430670333985091 ], [ 24.421787397682987, 46.430684509496814 ], [ 24.42179681644382, 46.430698685004849 ], [ 24.421806235204652, 46.430712860509182 ], [ 24.421815653965481, 46.430727036009849 ], [ 24.421825072726318, 46.430741211506813 ], [ 24.421834491487154, 46.43075538700009 ], [ 24.421843910247983, 46.430769562489687 ], [ 24.421853329008819, 46.430783737975588 ], [ 24.421862747769651, 46.430797913457816 ], [ 24.421872166530484, 46.430812088936356 ], [ 24.421881585291313, 46.430826264411202 ], [ 24.421891004052149, 46.43084043988236 ], [ 24.421900422812978, 46.43085461534983 ], [ 24.421909841573811, 46.430868790813612 ], [ 24.421915295079689, 46.430883524998123 ], [ 24.421915741740847, 46.430898964668103 ], [ 24.421916064279436, 46.430914426266895 ], [ 24.421915695416637, 46.430930010035411 ], [ 24.421915326553822, 46.430945593800061 ], [ 24.421914957691008, 46.430961177560249 ], [ 24.421914588828191, 46.430976761315975 ], [ 24.421914219965377, 46.430992345067246 ], [ 24.421913851102563, 46.431007928814068 ], [ 24.421913482239749, 46.431023512556429 ], [ 24.421913113376931, 46.431039096294342 ], [ 24.421912744514117, 46.431054680027792 ], [ 24.421912375651299, 46.431070263756794 ], [ 24.421912006788489, 46.43108584748132 ], [ 24.421911637925671, 46.431101431201405 ], [ 24.421911269062853, 46.431117014917042 ], [ 24.421910865713663, 46.4311325987345 ], [ 24.421910233114289, 46.431148183254031 ], [ 24.421909600514923, 46.431163767769114 ], [ 24.421908967915549, 46.431179352279734 ], [ 24.421908335316171, 46.431194936785893 ], [ 24.421907702716798, 46.431210521287603 ], [ 24.421907070117427, 46.431226105784852 ], [ 24.421906437518061, 46.431241690277652 ], [ 24.421905804918683, 46.431257274765997 ], [ 24.42190517231931, 46.43127285924988 ], [ 24.421904539719936, 46.431288443729301 ], [ 24.421903907120562, 46.431304028204273 ], [ 24.421903274521195, 46.431319612674791 ], [ 24.421902641921822, 46.431335197140847 ], [ 24.421902009322448, 46.431350781602454 ], [ 24.421901376723074, 46.431366366059599 ], [ 24.421900744123704, 46.431381950512289 ], [ 24.42190011152433, 46.431397534960517 ], [ 24.421899478924956, 46.431413119404297 ], [ 24.421898846325586, 46.431428703843615 ], [ 24.421898213726209, 46.431444288278477 ], [ 24.421897581126839, 46.431459872708892 ], [ 24.421896948527468, 46.431475457134837 ], [ 24.421896315928091, 46.431491041556328 ], [ 24.421895683328721, 46.431506625973377 ], [ 24.421895050729344, 46.431522210385957 ], [ 24.421894418129973, 46.431537794794082 ], [ 24.421893785530603, 46.431553379197759 ], [ 24.421893152931229, 46.431568963596966 ], [ 24.421892520331856, 46.431584547991733 ], [ 24.421891887732482, 46.431600132382037 ], [ 24.421891255133112, 46.431615716767872 ], [ 24.421890622533741, 46.431631301149274 ], [ 24.421889911963088, 46.431646883100974 ], [ 24.421888672644528, 46.431662450347197 ], [ 24.421887433325963, 46.431678017588986 ], [ 24.421886194007406, 46.43169358482632 ], [ 24.421884954688842, 46.431709152059213 ], [ 24.421883715370281, 46.431724719287651 ], [ 24.421882476051721, 46.431740286511648 ], [ 24.421881236733157, 46.43175585373119 ], [ 24.421879997414596, 46.431771420946291 ], [ 24.421878758096032, 46.431786988156944 ], [ 24.421877518777467, 46.431802555363156 ], [ 24.421876279458907, 46.431818122564927 ], [ 24.421875040140343, 46.431833689762243 ], [ 24.421873800821785, 46.431849256955104 ], [ 24.421872561503225, 46.431864824143524 ], [ 24.421871322184661, 46.431880391327503 ], [ 24.4218700828661, 46.431895958507035 ], [ 24.421868843547536, 46.431911525682118 ], [ 24.421867604228975, 46.43192709285276 ], [ 24.421866364910411, 46.431942660018947 ], [ 24.421865125591847, 46.431958227180694 ], [ 24.421863886273286, 46.431973794337999 ], [ 24.421862646954722, 46.431989361490842 ], [ 24.421861407636161, 46.432004928639245 ], [ 24.421860168317604, 46.432020495783206 ], [ 24.421858993379495, 46.432036063903183 ], [ 24.421857997936144, 46.432051634752327 ], [ 24.421857002492789, 46.432067205597008 ], [ 24.421856007049435, 46.432082776437241 ], [ 24.421855011606084, 46.432098347273033 ], [ 24.42185401616273, 46.432113918104356 ], [ 24.421854925116214, 46.432129466911398 ], [ 24.421856746723979, 46.432145005161296 ], [ 24.421858568331736, 46.432160543406766 ], [ 24.421860412514892, 46.432176080534028 ], [ 24.421862411134327, 46.432191610037528 ], [ 24.421864409753763, 46.432207139536608 ], [ 24.421866408373198, 46.432222669031255 ], [ 24.421868406992626, 46.432238198521482 ], [ 24.421870405612065, 46.432253728007289 ], [ 24.4218724042315, 46.432269257488663 ], [ 24.421876651203114, 46.432284418805857 ], [ 24.421884465461634, 46.432298995988283 ], [ 24.421892279720165, 46.432313573166802 ], [ 24.421900093978692, 46.432328150341434 ], [ 24.421908154828802, 46.432342686875756 ], [ 24.421916510439573, 46.432357174831914 ], [ 24.42192486605035, 46.432371662784227 ], [ 24.421933221661131, 46.432386150732675 ], [ 24.421941577271905, 46.432400638677287 ], [ 24.421949932882679, 46.432415126618032 ], [ 24.42195828849346, 46.432429614554941 ], [ 24.421966644104234, 46.432444102487992 ], [ 24.421978092674891, 46.43245751085238 ], [ 24.421989651434313, 46.43247088075325 ], [ 24.422001352765776, 46.432484203260429 ], [ 24.422013279706171, 46.432497450772786 ], [ 24.422025206646563, 46.432510698281916 ], [ 24.422037133586954, 46.432523945787814 ], [ 24.422049060527346, 46.432537193290514 ], [ 24.422060987467738, 46.432550440789981 ], [ 24.422072914408133, 46.43256368828623 ], [ 24.422084841348525, 46.432576935779259 ], [ 24.422096768288917, 46.432590183269077 ], [ 24.422108695229308, 46.432603430755663 ], [ 24.42212145574225, 46.432616236081479 ], [ 24.422136570627149, 46.432627792559082 ], [ 24.422151832746433, 46.43263927095358 ], [ 24.42216735962424, 46.432650608940236 ], [ 24.422182886502036, 46.432661946924533 ], [ 24.422198413379839, 46.432673284906457 ], [ 24.422213940197928, 46.432684622842437 ], [ 24.422229467075724, 46.432695960819657 ], [ 24.422244993953527, 46.432707298794519 ], [ 24.422260520831326, 46.432718636767014 ], [ 24.422276047709129, 46.432729974737157 ], [ 24.422291713900037, 46.432741214567223 ], [ 24.422308421799197, 46.432751720574274 ], [ 24.422325129698361, 46.4327622265793 ], [ 24.422341837597521, 46.432772732582301 ], [ 24.422358545496685, 46.432783238583276 ], [ 24.422375253395845, 46.432793744582227 ], [ 24.422392024439564, 46.43280420508944 ], [ 24.422408844669324, 46.432814630160735 ], [ 24.422425664899087, 46.432825055230047 ], [ 24.422442485128851, 46.432835480297356 ], [ 24.422459305358615, 46.432845905362676 ], [ 24.422476125588371, 46.432856330425999 ], [ 24.422492945818135, 46.432866755487325 ], [ 24.422509766047895, 46.432877180546669 ], [ 24.422526586277666, 46.432887605604009 ], [ 24.422543406507426, 46.432898030659359 ], [ 24.422560226737183, 46.432908455712706 ], [ 24.422577046966943, 46.43291888076407 ], [ 24.422593867196706, 46.432929305813431 ], [ 24.422610687426467, 46.432939730860802 ], [ 24.422627507656234, 46.432950155906177 ], [ 24.42264432788599, 46.432960580949562 ], [ 24.422661148115754, 46.43297100599095 ], [ 24.422677968345514, 46.432981431030342 ], [ 24.422694788575278, 46.432991856067744 ], [ 24.422711608805042, 46.43300228110315 ], [ 24.422728429034805, 46.433012706136559 ], [ 24.422745249264562, 46.433023131167978 ], [ 24.422762069494325, 46.433033556197394 ], [ 24.422778889724089, 46.433043981224827 ], [ 24.422795709953849, 46.433054406250264 ], [ 24.422812530183613, 46.433064831273697 ], [ 24.422829350413377, 46.433075256295147 ], [ 24.422846170643133, 46.433085681314601 ], [ 24.422862990872893, 46.433096106332052 ], [ 24.422879811102661, 46.433106531347526 ], [ 24.422896631332421, 46.43311695636099 ], [ 24.422913451562184, 46.433127381372472 ], [ 24.422930271791948, 46.43313780638195 ], [ 24.422947092021708, 46.433148231389431 ], [ 24.422963912251468, 46.433158656394923 ], [ 24.422980732481232, 46.433169081398418 ], [ 24.422997552710996, 46.433179506399931 ], [ 24.423014372940752, 46.43318993139944 ], [ 24.423031193170512, 46.433200356396952 ], [ 24.42304801340028, 46.433210781392482 ], [ 24.423064833630043, 46.433221206386001 ], [ 24.4230816538598, 46.433231631377538 ], [ 24.423098474089564, 46.433242056367085 ], [ 24.423115294319327, 46.433252481354621 ], [ 24.423132114549084, 46.433262906340175 ], [ 24.423148934778851, 46.433273331323733 ], [ 24.423165755008615, 46.433283756305293 ], [ 24.423182575238371, 46.433294181284865 ], [ 24.423199395468135, 46.433304606262432 ], [ 24.423216215697899, 46.43331503123801 ], [ 24.423233035927666, 46.433325456211605 ], [ 24.423249856157419, 46.43333588118319 ], [ 24.423266676387183, 46.433346306152785 ], [ 24.423283496616946, 46.433356731120391 ], [ 24.423300316822779, 46.433367156071171 ], [ 24.423317137052543, 46.43337758103479 ], [ 24.423333939257436, 46.433388019161463 ], [ 24.42335010548743, 46.43339892179101 ], [ 24.42336627171742, 46.433409824418398 ], [ 24.42338243794741, 46.433420727043597 ], [ 24.423398604177397, 46.433431629666622 ], [ 24.423414770407391, 46.433442532287458 ], [ 24.423430936637377, 46.43345343490612 ], [ 24.423447102867364, 46.433464337522587 ], [ 24.423463269097358, 46.433475240136886 ], [ 24.423479435327341, 46.43348614274899 ], [ 24.423495601557335, 46.433497045358926 ], [ 24.423511767787318, 46.433507947966675 ], [ 24.423527902404455, 46.433518874110568 ], [ 24.423544008672966, 46.433529821360089 ], [ 24.423560114941477, 46.433540768607422 ], [ 24.423576221209991, 46.433551715852545 ], [ 24.423592327478502, 46.433562663095472 ], [ 24.42360843374702, 46.433573610336197 ], [ 24.423624540015531, 46.433584557574733 ], [ 24.423640646284046, 46.433595504811066 ], [ 24.423656752552564, 46.43360645204519 ], [ 24.423672858821071, 46.433617399277132 ], [ 24.423688965089589, 46.433628346506865 ], [ 24.423705071358096, 46.433639293734402 ], [ 24.423721177626607, 46.433650240959729 ], [ 24.423737283895125, 46.433661188182874 ], [ 24.423753390163633, 46.43367213540381 ], [ 24.423769496432151, 46.433683082622551 ], [ 24.423785602700661, 46.433694029839089 ], [ 24.423801708969172, 46.433704977053431 ], [ 24.423817815237687, 46.43371592426557 ], [ 24.423833921506201, 46.433726871475514 ], [ 24.423850027774716, 46.433737818683262 ], [ 24.423866134043227, 46.433748765888801 ], [ 24.423882240311745, 46.433759713092151 ], [ 24.423898346580255, 46.433770660293298 ], [ 24.423914452848766, 46.433781607492243 ], [ 24.423930559117281, 46.433792554688992 ], [ 24.423946665385792, 46.433803501883538 ], [ 24.423962771654299, 46.433814449075889 ], [ 24.423978877922817, 46.433825396266045 ], [ 24.423994984191335, 46.433836343453997 ], [ 24.424011090459842, 46.433847290639754 ], [ 24.424027196728357, 46.433858237823308 ], [ 24.424043222854667, 46.433869236539813 ], [ 24.424058264243911, 46.433880870512368 ], [ 24.424073050337565, 46.433892669231831 ], [ 24.424087836431216, 46.433904467948729 ], [ 24.42410262252487, 46.433916266663083 ], [ 24.424117408618525, 46.433928065374879 ], [ 24.424132194712179, 46.433939864084124 ], [ 24.424146980736168, 46.433951662735225 ], [ 24.424161766829823, 46.433963461439347 ], [ 24.42417655292347, 46.433975260140933 ], [ 24.424191339017124, 46.433987058839961 ], [ 24.424206125110778, 46.433998857536423 ], [ 24.424220911204426, 46.434010656230342 ], [ 24.42423569729808, 46.434022454921703 ], [ 24.424250483391731, 46.434034253610506 ], [ 24.424265269485385, 46.434046052296758 ], [ 24.42428005557904, 46.434057850980459 ], [ 24.424294841672687, 46.434069649661595 ], [ 24.424309627766334, 46.434081448340187 ], [ 24.424324413859988, 46.434093247016214 ], [ 24.424339199953639, 46.434105045689705 ], [ 24.424353986047294, 46.434116844360616 ], [ 24.424368772140944, 46.434128643028991 ], [ 24.424383558234595, 46.434140441694808 ], [ 24.42439834432825, 46.434152240358067 ], [ 24.424413130421904, 46.434164039018782 ], [ 24.424427916515551, 46.434175837676932 ], [ 24.424442702609202, 46.434187636332531 ], [ 24.42445748870286, 46.434199434985572 ], [ 24.424470621906217, 46.434212085274318 ], [ 24.424483057404739, 46.43422509504677 ], [ 24.424495492903265, 46.434238104816124 ], [ 24.424498440628543, 46.434241188666789 ], [ 24.424510876127066, 46.434254198432299 ], [ 24.424523311625588, 46.434267208194704 ], [ 24.424535532815273, 46.434280325421376 ], [ 24.424547720322352, 46.434293459535382 ], [ 24.424559907829433, 46.434306593646227 ], [ 24.424572095336519, 46.434319727753895 ], [ 24.4245842828436, 46.434332861858408 ], [ 24.424596470350686, 46.434345995959752 ], [ 24.424608657857767, 46.434359130057928 ], [ 24.424620845364849, 46.434372264152934 ], [ 24.424633032871935, 46.434385398244778 ], [ 24.42464522037902, 46.434398532333461 ], [ 24.424657407886098, 46.434411666418981 ], [ 24.424669570707643, 46.434424773898535 ], [ 24.424681758214728, 46.434437907977731 ], [ 24.42469394572181, 46.434451042053752 ], [ 24.424706133228892, 46.43446417612661 ], [ 24.424718320735977, 46.434477310196307 ], [ 24.424730508243062, 46.434490444262849 ], [ 24.424742695750144, 46.434503578326208 ], [ 24.424754883257222, 46.434516712386404 ], [ 24.4247670707643, 46.434529846443432 ], [ 24.424779258271389, 46.434542980497305 ], [ 24.424791445778471, 46.434556114548009 ], [ 24.424803633285553, 46.434569248595544 ], [ 24.424815209689037, 46.434582603222921 ], [ 24.424826008764498, 46.434596298355018 ], [ 24.424836714405998, 46.43461003037163 ], [ 24.424847354460322, 46.434623788278756 ], [ 24.424857994514657, 46.434637546182422 ], [ 24.42486863456898, 46.4346513040826 ], [ 24.424879274623311, 46.434665061979302 ], [ 24.424889914677639, 46.434678819872538 ], [ 24.424900554731966, 46.434692577762291 ], [ 24.424911194786297, 46.434706335648585 ], [ 24.424921834840621, 46.434720093531389 ], [ 24.424932474894959, 46.434733851410734 ], [ 24.424943114949283, 46.43474760928661 ], [ 24.42495375500361, 46.434761367158991 ], [ 24.424964395057938, 46.434775125027926 ], [ 24.424975035112272, 46.434788882893372 ], [ 24.424985675166599, 46.434802640755336 ], [ 24.424996315220923, 46.434816398613847 ], [ 24.425006955275258, 46.43483015646887 ], [ 24.425017595329582, 46.434843914320425 ], [ 24.425028235383909, 46.434857672168512 ], [ 24.425038875438243, 46.434871430013118 ], [ 24.425049515492571, 46.434885187854249 ], [ 24.425060155546898, 46.434898945691906 ], [ 24.425070795601229, 46.434912703526095 ], [ 24.425081435655557, 46.434926461356824 ], [ 24.42509207570988, 46.434940219184057 ], [ 24.425102715764218, 46.434953977007815 ], [ 24.425113355818542, 46.434967734828128 ], [ 24.42512399587287, 46.434981492644937 ], [ 24.425134635927197, 46.434995250458286 ], [ 24.425145275973172, 46.435009008257353 ], [ 24.425155916027499, 46.435022766063753 ], [ 24.425166556081827, 46.435036523866685 ], [ 24.425177196136154, 46.435050281666136 ], [ 24.425187836190485, 46.435064039462127 ], [ 24.425198476244816, 46.435077797254628 ], [ 24.425209116299147, 46.435091555043677 ], [ 24.42521945586827, 46.435105419485517 ], [ 24.425229544767266, 46.43511937289842 ], [ 24.425239633666269, 46.435133326307742 ], [ 24.425249722565272, 46.435147279713483 ], [ 24.425259811464272, 46.435161233115657 ], [ 24.425269900363276, 46.435175186514257 ], [ 24.425279989262272, 46.435189139909284 ], [ 24.425290089605202, 46.435203089054255 ], [ 24.425300235531711, 46.435217021280948 ], [ 24.425310381458235, 46.435230953504103 ], [ 24.425320527384748, 46.435244885723691 ], [ 24.425330673311269, 46.435258817939712 ], [ 24.425340819237789, 46.435272750152173 ], [ 24.425350965164306, 46.435286682361074 ], [ 24.425361111090826, 46.435300614566394 ], [ 24.425371257017339, 46.435314546768183 ], [ 24.425381302848802, 46.435328514994417 ], [ 24.425391341029432, 46.435342485970907 ], [ 24.425401379210061, 46.435356456943808 ], [ 24.425411417390695, 46.435370427913128 ], [ 24.425421455571325, 46.435384398878867 ], [ 24.425431493751958, 46.435398369841025 ], [ 24.425441531932591, 46.435412340799608 ], [ 24.425451570113228, 46.435426311754604 ], [ 24.425461608293862, 46.435440282706018 ], [ 24.425471646474492, 46.435454253653845 ], [ 24.425481684655121, 46.43546822459809 ], [ 24.425491722835755, 46.435482195538754 ], [ 24.425501761016385, 46.435496166475851 ], [ 24.425511799197018, 46.435510137409352 ], [ 24.425521837377651, 46.435524108339273 ], [ 24.425531875558285, 46.435538079265605 ], [ 24.425541913738915, 46.435552050188377 ], [ 24.425551951919548, 46.43556602110754 ], [ 24.425561990100181, 46.435579992023143 ], [ 24.425572028280811, 46.435593962935158 ], [ 24.425582066461441, 46.435607933843585 ], [ 24.425592104642075, 46.435621904748437 ], [ 24.425602142822708, 46.435635875649702 ], [ 24.425612181003338, 46.435649846547392 ], [ 24.425622219183971, 46.435663817441487 ], [ 24.425632257364605, 46.435677788332008 ], [ 24.425642295545234, 46.435691759218955 ], [ 24.425652333725868, 46.435705730102306 ], [ 24.425662371906501, 46.435719700982091 ], [ 24.425672402745892, 46.435733674292415 ], [ 24.425682416952714, 46.435747653113985 ], [ 24.425692431159536, 46.435761631931975 ], [ 24.425702444594929, 46.435775610255 ], [ 24.425712257122825, 46.435789657042584 ], [ 24.425722069650721, 46.435803703826551 ], [ 24.425731882178617, 46.435817750606887 ], [ 24.425741694706506, 46.435831797383614 ], [ 24.425751507234402, 46.435845844156709 ], [ 24.425761319762298, 46.435859890926196 ], [ 24.425771132290194, 46.435873937692051 ], [ 24.42578094481809, 46.435887984454304 ], [ 24.425790757345986, 46.435902031212912 ], [ 24.425800569873882, 46.435916077967903 ], [ 24.425810382401771, 46.435930124719285 ], [ 24.42582019492967, 46.435944171467042 ], [ 24.425830007457563, 46.435958218211169 ], [ 24.425839819985459, 46.435972264951694 ], [ 24.425849632513351, 46.43598631168858 ], [ 24.425859445041247, 46.436000358421857 ], [ 24.425869252302448, 46.436014406861041 ], [ 24.425879055265536, 46.436028456691723 ], [ 24.425888858228628, 46.436042506518795 ], [ 24.425898661191713, 46.436056556342237 ], [ 24.425908464154809, 46.436070606162076 ], [ 24.425918267117897, 46.436084655978284 ], [ 24.425928070080985, 46.436098705790862 ], [ 24.425937873044074, 46.436112755599808 ], [ 24.425947676007162, 46.436126805405159 ], [ 24.42595747897025, 46.436140855206858 ], [ 24.425967281933339, 46.436154905004962 ], [ 24.425977084896427, 46.436168954799427 ], [ 24.425986887859516, 46.436183004590276 ], [ 24.425996690822608, 46.436197054377494 ], [ 24.426006493785696, 46.436211104161103 ], [ 24.426016296748784, 46.436225153941074 ], [ 24.426026099711873, 46.436239203717435 ], [ 24.426035902674961, 46.436253253490172 ], [ 24.42604570563805, 46.436267303259285 ], [ 24.426055508601141, 46.436281353024768 ], [ 24.426065311564226, 46.436295402786641 ], [ 24.426075114527325, 46.436309452544883 ], [ 24.42608491749041, 46.436323502299508 ], [ 24.426098475374761, 46.43633593428234 ], [ 24.426112385745231, 46.436348221453258 ], [ 24.426126296115708, 46.436360508621384 ], [ 24.426140206486178, 46.436372795786767 ], [ 24.426154116856644, 46.436385082949364 ], [ 24.426168027227117, 46.436397370109205 ], [ 24.42618193759759, 46.436409657266253 ], [ 24.426195847968064, 46.436421944420545 ], [ 24.426210365134125, 46.436433847294722 ], [ 24.426227576442052, 46.436443932441676 ], [ 24.42624478774998, 46.436454017586733 ], [ 24.426261999057903, 46.436464102729957 ], [ 24.426279210365831, 46.436474187871291 ], [ 24.426296421673765, 46.43648427301077 ], [ 24.426313632981692, 46.436494358148373 ], [ 24.426334599978219, 46.436498829912942 ], [ 24.426356851296866, 46.436501350217171 ], [ 24.42637910261551, 46.436503870521285 ], [ 24.42640135393415, 46.436506390825265 ], [ 24.426423663102284, 46.436508715799867 ], [ 24.42644618108789, 46.436509100799235 ], [ 24.426468767438624, 46.436508278495978 ], [ 24.42649135378937, 46.436507456192693 ], [ 24.426513940140101, 46.436506633889415 ], [ 24.426536526490846, 46.436505811586102 ], [ 24.426559112841577, 46.436504989282795 ], [ 24.426581458094525, 46.436506246286534 ], [ 24.426603596936989, 46.436509283442362 ], [ 24.426625735779453, 46.436512320598027 ], [ 24.426647874606509, 46.436515357982721 ], [ 24.42667000379598, 46.436518538714338 ], [ 24.426692132985458, 46.436521719445786 ], [ 24.426714262174933, 46.436524900177041 ], [ 24.426735474680541, 46.436530151836877 ], [ 24.426756595607422, 46.436535659926022 ], [ 24.426777647648191, 46.436541365158149 ], [ 24.426798699688955, 46.436547070389672 ], [ 24.426819751729731, 46.436552775620605 ], [ 24.426835766172037, 46.436562863415837 ], [ 24.426848910639677, 46.436575522732404 ], [ 24.426862055107311, 46.436588182046023 ], [ 24.426875199574955, 46.436600841356714 ], [ 24.426888344042595, 46.436613500664457 ], [ 24.426901488510232, 46.436626159969251 ], [ 24.426914400366794, 46.436638951401221 ], [ 24.426927212312425, 46.436651799582606 ], [ 24.426940024258052, 46.436664647760949 ], [ 24.426952831418589, 46.436677498152335 ], [ 24.426965259852928, 46.436690523935837 ], [ 24.42697768828727, 46.436703549716206 ], [ 24.426990116721612, 46.43671657549347 ], [ 24.427002542363521, 46.436729598340989 ], [ 24.42701497079786, 46.436742624112028 ], [ 24.427027399232198, 46.436755649879949 ], [ 24.427039827666537, 46.436768675644757 ], [ 24.427052256100879, 46.43678170140646 ], [ 24.427064684535218, 46.436794727165051 ], [ 24.427077112969556, 46.436807752920522 ], [ 24.427089541403902, 46.436820778672875 ], [ 24.427101969838237, 46.436833804422122 ], [ 24.427114398272579, 46.43684683016825 ], [ 24.427126826706921, 46.436859855911266 ], [ 24.42713925514126, 46.436872881651162 ], [ 24.427151683575595, 46.436885907387953 ], [ 24.427164112009944, 46.436898933121633 ], [ 24.427176540444279, 46.436911958852193 ], [ 24.427188968878621, 46.43692498457964 ], [ 24.42720139731296, 46.436938010303976 ], [ 24.427213825747298, 46.436951036025199 ], [ 24.427226254181637, 46.436964061743303 ], [ 24.427238682615975, 46.436977087458295 ], [ 24.427251111050321, 46.436990113170168 ], [ 24.42726353948466, 46.437003138878936 ], [ 24.427275967919002, 46.437016164584591 ], [ 24.427288396353337, 46.437029190287134 ], [ 24.427300824787679, 46.437042215986558 ], [ 24.427313253222017, 46.437055241682863 ], [ 24.427325681656356, 46.43706826737607 ], [ 24.427338110090702, 46.43708129306615 ], [ 24.427350538525037, 46.437094318753111 ], [ 24.427362966959375, 46.437107344436974 ], [ 24.427375395393721, 46.437120370117718 ], [ 24.427387823828063, 46.43713339579535 ], [ 24.427400252262398, 46.437146421469855 ], [ 24.427412680696737, 46.437159447141255 ], [ 24.427425109131079, 46.43717247280955 ], [ 24.427437537565414, 46.437185498474733 ], [ 24.427449965999759, 46.437198524136797 ], [ 24.427462394434102, 46.437211549795727 ], [ 24.42747482286844, 46.437224575451566 ], [ 24.427487251302779, 46.437237601104293 ], [ 24.427499679737117, 46.437250626753887 ], [ 24.427510235221483, 46.437264098724356 ], [ 24.427513234527481, 46.437279371328238 ], [ 24.427516233520517, 46.437294642334201 ], [ 24.427519232826516, 46.437309914929529 ], [ 24.427521785871988, 46.43732533035535 ], [ 24.427524139037562, 46.437340809752428 ], [ 24.427526492203139, 46.437356289145107 ], [ 24.427528845368716, 46.437371768533389 ], [ 24.42753119853429, 46.437387247917265 ], [ 24.427533551699867, 46.437402727296742 ], [ 24.427535760737886, 46.437418221706082 ], [ 24.427537554875407, 46.437433759390125 ], [ 24.427539349012928, 46.437449297069733 ], [ 24.427536523978382, 46.437464640464142 ], [ 24.427532384820662, 46.437479928582697 ], [ 24.427528245662941, 46.437495216696952 ], [ 24.427524106505224, 46.437510504806923 ], [ 24.427519967347507, 46.437525792912602 ], [ 24.427515828189783, 46.43754108101399 ], [ 24.427511094338762, 46.437556317756545 ], [ 24.427506291116742, 46.437571548504337 ], [ 24.427501487894713, 46.437586779247887 ], [ 24.427496684672693, 46.437602009987167 ], [ 24.427490287161902, 46.437616909343859 ], [ 24.427482152073246, 46.437631447535146 ], [ 24.427474016984583, 46.43764598572254 ], [ 24.42746588189592, 46.437660523906054 ], [ 24.42745774680726, 46.437675062085688 ], [ 24.42744952897738, 46.437689580843788 ], [ 24.427441161582863, 46.437704064498284 ], [ 24.427432794188334, 46.437718548148936 ], [ 24.427424426793813, 46.437733031795744 ], [ 24.427416059399288, 46.437747515438694 ], [ 24.427407692004763, 46.4377619990778 ], [ 24.427399324610242, 46.437776482713055 ], [ 24.427390957215714, 46.437790966344458 ], [ 24.427382589821189, 46.437805449972018 ], [ 24.427374222426668, 46.437819933595719 ], [ 24.427365855032143, 46.437834417215569 ], [ 24.427357528121188, 46.437848830756174 ], [ 24.427349160726664, 46.437863314368357 ], [ 24.427340793332142, 46.437877797976682 ], [ 24.427332425937617, 46.437892281581156 ], [ 24.427324058543096, 46.437906765181779 ], [ 24.427315704840581, 46.437921225078277 ], [ 24.427307337446059, 46.437935708671205 ], [ 24.427298970051535, 46.437950192260288 ], [ 24.42729060265701, 46.437964675845521 ], [ 24.427282235262489, 46.437979159426888 ], [ 24.427273867867964, 46.437993643004425 ], [ 24.427265503753318, 46.438008120900783 ], [ 24.427257136358797, 46.438022604470625 ], [ 24.427248768964276, 46.438037088036602 ], [ 24.427240401569751, 46.438051571598734 ], [ 24.427232034175226, 46.438066055157016 ], [ 24.427223666780698, 46.438080538711453 ], [ 24.427220399820296, 46.438095862640346 ], [ 24.427217427237185, 46.438111262479772 ], [ 24.427214454654063, 46.438126662314843 ], [ 24.427211482070945, 46.438142062145573 ], [ 24.427208636534882, 46.438157452410834 ], [ 24.42720624822817, 46.438172954416004 ], [ 24.427205271183759, 46.438188373502925 ], [ 24.427210543528279, 46.438203425424319 ], [ 24.42721581587281, 46.438218477341564 ], [ 24.427221051266613, 46.438233423764771 ], [ 24.427226323611141, 46.438248475673717 ], [ 24.427232223115269, 46.438263506644532 ], [ 24.427238224749345, 46.43827853420219 ], [ 24.427244355763783, 46.438293511696003 ], [ 24.427258685968461, 46.438305316764968 ], [ 24.427273016173135, 46.438317121831368 ], [ 24.427287346377803, 46.438328926895231 ], [ 24.427302388969579, 46.438340529054983 ], [ 24.427317467869262, 46.438352120871095 ], [ 24.427332546768948, 46.438363712684719 ], [ 24.427349019961611, 46.438373927220226 ], [ 24.427369647249503, 46.438380122351056 ], [ 24.427390274537387, 46.438386317481175 ], [ 24.427410901825269, 46.438392512610584 ], [ 24.427431529113154, 46.438398707739296 ], [ 24.42745235196228, 46.438404679007228 ], [ 24.427473396923542, 46.43841039602151 ], [ 24.427494441884811, 46.438416113035188 ], [ 24.427515486846072, 46.43842183004827 ], [ 24.427536717139198, 46.438426679770728 ], [ 24.427559120141286, 46.438426041614306 ], [ 24.427581611613707, 46.438425107193083 ], [ 24.427603998654082, 46.438423997603969 ], [ 24.4276265447897, 46.438422880129451 ], [ 24.427649090925318, 46.438421762654912 ], [ 24.427671637060943, 46.438420645180351 ], [ 24.427694183196557, 46.438419527705754 ], [ 24.427716729332172, 46.438418410231144 ], [ 24.427737173059956, 46.438412436637549 ], [ 24.427757044312422, 46.438405105543723 ], [ 24.427776915564884, 46.438397774448916 ], [ 24.427796786817346, 46.438390443353128 ], [ 24.427816658069805, 46.438383112256339 ], [ 24.427836415551475, 46.438375597233815 ], [ 24.427855991650691, 46.438367788982724 ], [ 24.427875567749908, 46.438359980730525 ], [ 24.427895143849128, 46.438352172477217 ], [ 24.427914719948348, 46.438344364222772 ], [ 24.42793429604756, 46.438336555967211 ], [ 24.42793925, 46.43833458 ] ] } }
]
}
