{
"type": "FeatureCollection",
"name": "zolder_ideal_racing_line_live",
"crs": { "type": "name", "properties": { "name": "urn:ogc:def:crs:OGC:1.3:CRS84" } },
"features": [
{ "type": "Feature", "properties": { "track": "Zolder", "updated_at": "2026-07-27 19:56:52.419273+02:00", "boundary_file": "C:\\LIDIA\\Poli\\solis\\zolder_heatmap\\data\\processed\\zolder_track_boundaries.geojson" }, "geometry": { "type": "LineString", "coordinates": [ [ 5.2502857, 50.987519301244511 ], [ 5.250358284229558, 50.987552322002315 ], [ 5.250431786209516, 50.987584523003036 ], [ 5.250505653617767, 50.987616397160693 ], [ 5.250579549761983, 50.987648245170824 ], [ 5.250653445906194, 50.987680093159085 ], [ 5.250727319923389, 50.987711961375872 ], [ 5.250801192741865, 50.987743830667831 ], [ 5.250875026650037, 50.98777573561884 ], [ 5.250948789052654, 50.987807706118836 ], [ 5.251022551455264, 50.987839676596806 ], [ 5.251096313857882, 50.987871647052756 ], [ 5.251170076260492, 50.98790361748668 ], [ 5.25124383767773, 50.987935588795274 ], [ 5.251317596205588, 50.98796756271112 ], [ 5.251391354733446, 50.987999536604939 ], [ 5.25146511326131, 50.988031510476738 ], [ 5.251538871789167, 50.98806348432651 ], [ 5.25161300074664, 50.988095115635119 ], [ 5.251687220202431, 50.988126663242618 ], [ 5.25176142255483, 50.98815822631412 ], [ 5.251835621625976, 50.988189792335021 ], [ 5.251909820697117, 50.988221358334471 ], [ 5.251984019768263, 50.988252924312441 ], [ 5.252058238379374, 50.988284472529656 ], [ 5.252132470767256, 50.988316008218277 ], [ 5.252206703155131, 50.98834754388546 ], [ 5.252280935543007, 50.988379079531235 ], [ 5.252354924248165, 50.988410841615128 ], [ 5.252428909002649, 50.988442607348723 ], [ 5.252502893757138, 50.988474373060562 ], [ 5.252576878511623, 50.988506138750687 ], [ 5.252650863266112, 50.988537904419047 ], [ 5.252724958912435, 50.988569565904044 ], [ 5.252799070121524, 50.988601212749202 ], [ 5.25287318133062, 50.988632859572803 ], [ 5.252947292539708, 50.988664506374803 ], [ 5.253021393671617, 50.988696162857032 ], [ 5.253095492397353, 50.9887278216342 ], [ 5.253169561519251, 50.988759507641177 ], [ 5.253243508063881, 50.988791306463263 ], [ 5.253317469942004, 50.988823090461629 ], [ 5.253391441036017, 50.988854865541839 ], [ 5.253465412130024, 50.988886640600306 ], [ 5.253539383224036, 50.988918415637002 ], [ 5.25361074349514, 50.988949069147537 ], [ 5.253684714589149, 50.988980844141508 ], [ 5.253758685683157, 50.989012619113723 ], [ 5.253832625352659, 50.989044422662559 ], [ 5.253906260613419, 50.989076503221483 ], [ 5.253979895874177, 50.989108583758245 ], [ 5.254053334607963, 50.989140459440861 ], [ 5.254127051511189, 50.989172459172586 ], [ 5.254200228283977, 50.989204921641416 ], [ 5.254272868691793, 50.989237800365693 ], [ 5.254342900977387, 50.989271692760283 ], [ 5.254406244050344, 50.989306038576949 ], [ 5.254468417585523, 50.989340141826325 ], [ 5.254531351905278, 50.98937388130755 ], [ 5.254596901487908, 50.98940796083577 ], [ 5.254665961619658, 50.989441879946789 ], [ 5.254737001127672, 50.989475328527391 ], [ 5.254808611776356, 50.989508567232356 ], [ 5.254880222425042, 50.989541805913525 ], [ 5.254951463276075, 50.989574951998861 ], [ 5.25502200850153, 50.989609022771091 ], [ 5.255092519441556, 50.989643124607369 ], [ 5.255163030381581, 50.989677226418593 ], [ 5.255233483776892, 50.989711300373934 ], [ 5.255304871699538, 50.989744584396007 ], [ 5.255377537487666, 50.989776764366795 ], [ 5.255450272486391, 50.989808916248315 ], [ 5.255520996060327, 50.989840178975435 ], [ 5.25559363933503, 50.989872368139309 ], [ 5.25566616195243, 50.98990460711223 ], [ 5.255738672911505, 50.989936857464549 ], [ 5.255811183870583, 50.989969107794472 ], [ 5.255884361637306, 50.990000686267756 ], [ 5.255957554497719, 50.990032174687059 ], [ 5.256029680555253, 50.990064587495631 ], [ 5.256101732754479, 50.990097069666419 ], [ 5.256172279492191, 50.990130966092046 ], [ 5.256235723635627, 50.990160780741043 ], [ 5.256307846495051, 50.990193034705015 ], [ 5.256379819543684, 50.990225221649972 ], [ 5.256451942403106, 50.990257475569159 ], [ 5.256522855404044, 50.990290885849078 ], [ 5.256593611964515, 50.990324444296832 ], [ 5.256663815405383, 50.990358466213358 ], [ 5.256730781350448, 50.990395241272132 ], [ 5.25678620616004, 50.990439123327278 ], [ 5.256806126826137, 50.990492326568486 ], [ 5.256784861234124, 50.990545035638682 ], [ 5.256755816338218, 50.990596282304558 ], [ 5.256726883989763, 50.990647560605822 ], [ 5.256722552552362, 50.990701756010466 ], [ 5.256760493901369, 50.990752459462286 ], [ 5.256806386363892, 50.990800506943174 ], [ 5.256853651080429, 50.990848359321589 ], [ 5.256900915796967, 50.990896211650657 ], [ 5.256948180513504, 50.990944063930385 ], [ 5.25699549118306, 50.990991896909968 ], [ 5.257042653011553, 50.991039723529866 ], [ 5.257089814672899, 50.991087549930974 ], [ 5.257136847127284, 50.991135409182043 ], [ 5.257183665502534, 50.991183317686286 ], [ 5.257229812719493, 50.991231367288101 ], [ 5.257275959936453, 50.991279416840158 ], [ 5.257321503657898, 50.991327565749792 ], [ 5.257366964504033, 50.991375733436875 ], [ 5.257411912476076, 50.991423951761846 ], [ 5.257454350901705, 50.991472961952262 ], [ 5.257496543170467, 50.991522156437149 ], [ 5.257538202508782, 50.991571374857479 ], [ 5.257579740363254, 50.991620598693672 ], [ 5.257621278217731, 50.991669822477654 ], [ 5.257662790684228, 50.991719043965034 ], [ 5.25770193964277, 50.991768744034161 ], [ 5.25773737786623, 50.991819482013078 ], [ 5.257772815767337, 50.991870219474983 ], [ 5.257807636587934, 50.991920886445598 ], [ 5.257842392078494, 50.991971545270445 ], [ 5.257876626807429, 50.992022120747443 ], [ 5.257910861536365, 50.99207269616933 ], [ 5.257946616319766, 50.992122724476317 ], [ 5.25798217795476, 50.992172860073737 ], [ 5.258016762446107, 50.992223317321681 ], [ 5.258051073364044, 50.992273722036536 ], [ 5.258084954479218, 50.992323495292652 ], [ 5.258119265397155, 50.992373899898702 ], [ 5.258153576315096, 50.992424304450026 ], [ 5.258187580439443, 50.992474808333604 ], [ 5.258221314735245, 50.992525321227561 ], [ 5.25825320601261, 50.992573082296154 ], [ 5.258286933809099, 50.992623593722101 ], [ 5.258320663284852, 50.992674105454974 ], [ 5.258354396005949, 50.992724617832245 ], [ 5.25838585679566, 50.992775673232245 ], [ 5.258415304661039, 50.992827250016006 ], [ 5.258442768707102, 50.992879410425026 ], [ 5.258469216458299, 50.992930804708784 ], [ 5.258490460812635, 50.992984028304697 ], [ 5.258508528243632, 50.993038379386405 ], [ 5.258528698840179, 50.993093049327577 ], [ 5.258551510843616, 50.993147512350816 ], [ 5.258575666945391, 50.993200722144898 ], [ 5.258596176432603, 50.993253829638412 ], [ 5.258610765377871, 50.993307298293644 ], [ 5.258624635566609, 50.993360690344431 ], [ 5.258632518046382, 50.993416196753223 ], [ 5.258635195716248, 50.993472442729818 ], [ 5.258635064021263, 50.993528347042322 ], [ 5.258632720140331, 50.99358398298385 ], [ 5.258626208565873, 50.993639662953868 ], [ 5.25861230689064, 50.993694824904544 ], [ 5.258595803145583, 50.993749987673255 ], [ 5.258577534098476, 50.993805154284594 ], [ 5.258560707516565, 50.99386046156333 ], [ 5.258544581049643, 50.99391583708222 ], [ 5.258524525298053, 50.993970159434532 ], [ 5.25850423308033, 50.994024034234741 ], [ 5.258485103623596, 50.994077656341858 ], [ 5.258467696496996, 50.994130745256221 ], [ 5.258452615664286, 50.994183188186909 ], [ 5.258433913909048, 50.994234553628395 ], [ 5.258415212153809, 50.994285919013052 ], [ 5.258396512017907, 50.994337279893259 ], [ 5.258377810262668, 50.994388645164207 ], [ 5.258361394025617, 50.994440473827595 ], [ 5.258344576981578, 50.994492220687576 ], [ 5.258325705130758, 50.994543549231089 ], [ 5.258306834796988, 50.994594876413188 ], [ 5.258288011874886, 50.994646162765264 ], [ 5.258266881740985, 50.994696912610394 ], [ 5.258244476716157, 50.994747365975229 ], [ 5.25822207169133, 50.994797819285196 ], [ 5.258199479645055, 50.994848225657215 ], [ 5.258177393789004, 50.994898067286051 ], [ 5.25815357087709, 50.99494675030909 ], [ 5.258155893137751, 50.994998793391936 ], [ 5.258185620062785, 50.995047784697888 ], [ 5.258257770816156, 50.995080122728737 ], [ 5.25833453829459, 50.995107830223915 ], [ 5.258411958944507, 50.995134647911478 ], [ 5.258479654482009, 50.995168934342352 ], [ 5.25984157831226, 50.996215442042264 ], [ 5.259921109685773, 50.996210853244762 ], [ 5.259997324007309, 50.996202562626102 ], [ 5.260070302543888, 50.996191914692254 ], [ 5.260139949904448, 50.996175989056042 ], [ 5.260208941209349, 50.996159024001741 ], [ 5.260270380393218, 50.996134059388012 ], [ 5.260330774252297, 50.996108335597526 ], [ 5.26039067501054, 50.996080894792193 ], [ 5.260452758259516, 50.996053535647775 ], [ 5.2605156074199, 50.996026104434044 ], [ 5.260578742295528, 50.995997628505044 ], [ 5.260643328767621, 50.995968634595343 ], [ 5.260709539070245, 50.995939017982664 ], [ 5.260777252533223, 50.995908974506541 ], [ 5.26084533307163, 50.995878647808098 ], [ 5.260913413610038, 50.995848321089838 ], [ 5.26098149414845, 50.995817994351761 ], [ 5.261049574686859, 50.995787667593866 ], [ 5.261117655225268, 50.995757340816141 ], [ 5.26118566548408, 50.995726968676237 ], [ 5.261253617078425, 50.995696567308471 ], [ 5.261321568672772, 50.995666165920795 ], [ 5.261389462577583, 50.995635790323384 ], [ 5.26145741417193, 50.995605388895882 ], [ 5.26152635613429, 50.995575707342951 ], [ 5.261595999455055, 50.995546314402773 ], [ 5.26166564277582, 50.995516921443965 ], [ 5.261735057938245, 50.995487173869876 ], [ 5.261805619844061, 50.995456701612227 ], [ 5.261878466395592, 50.995427333373797 ], [ 5.261952672589442, 50.995400380587682 ], [ 5.2620286155525, 50.99537256729397 ], [ 5.26210594728696, 50.995345901184542 ], [ 5.26218536217895, 50.99532075572963 ], [ 5.262264725818785, 50.995294841032361 ], [ 5.262342001222727, 50.995269558898045 ], [ 5.262423705740046, 50.995246120490727 ], [ 5.262505486094408, 50.995222595440936 ], [ 5.262588848510799, 50.995201259658216 ], [ 5.26267175896894, 50.99517928077546 ], [ 5.262754103637618, 50.995156719665097 ], [ 5.26283557940705, 50.995134140887899 ], [ 5.262917519290185, 50.995111232572462 ], [ 5.262999361248601, 50.995088250203764 ], [ 5.263081030076739, 50.995065233906807 ], [ 5.263162899818199, 50.995042426410194 ], [ 5.263244769559662, 50.995019618902383 ], [ 5.263326669072673, 50.994996832679028 ], [ 5.263408519363769, 50.99497407324148 ], [ 5.263490432074594, 50.994951296436206 ], [ 5.263572570920649, 50.994928879519563 ], [ 5.263654875700313, 50.994906726679638 ], [ 5.263737160508883, 50.994884579204488 ], [ 5.263819465288547, 50.994862426343403 ], [ 5.263901770068208, 50.994840273471759 ], [ 5.263984078195002, 50.994818123008635 ], [ 5.264066400468377, 50.994795982759186 ], [ 5.264148722741751, 50.994773842499185 ], [ 5.264231045015126, 50.994751702228619 ], [ 5.2643133672885, 50.994729561947487 ], [ 5.264395689561877, 50.994707421655797 ], [ 5.264478011835252, 50.994685281353533 ], [ 5.264560047724018, 50.994662683489999 ], [ 5.264642093702438, 50.994640072790453 ], [ 5.264724637355231, 50.994617860116804 ], [ 5.264807181008024, 50.99459564743254 ], [ 5.264889724660818, 50.994573434737632 ], [ 5.264972465087574, 50.994551411237239 ], [ 5.26505538993279, 50.994529565051351 ], [ 5.265138314778007, 50.994507718855189 ], [ 5.265218353402214, 50.994482209372094 ], [ 5.265286613643624, 50.994447094371644 ], [ 5.265338319862757, 50.994401904383089 ], [ 5.265383910552075, 50.994354482302811 ], [ 5.265408825117339, 50.99430240742759 ], [ 5.265395544277772, 50.994251576694921 ], [ 5.265369233571584, 50.994203318717091 ], [ 5.265319306789488, 50.994166125226009 ], [ 5.265266619853908, 50.994130459144934 ], [ 5.265207595388416, 50.994099917508663 ], [ 5.265148570922922, 50.994069375852291 ], [ 5.265089546457426, 50.994038834175818 ], [ 5.265029533183316, 50.994009247796455 ], [ 5.264969325375163, 50.993979849343432 ], [ 5.264909117567012, 50.993950450871786 ], [ 5.264848925594222, 50.993921077487272 ], [ 5.264792469429443, 50.993888596678111 ], [ 5.264738703252766, 50.993853797696225 ], [ 5.264688010301239, 50.993816862604923 ], [ 5.264638407012121, 50.993779170100204 ], [ 5.264599201089354, 50.993735908138 ], [ 5.264560884177482, 50.993692169929695 ], [ 5.264522566463768, 50.993648430374115 ], [ 5.264484248558301, 50.993604690430466 ], [ 5.264445930581969, 50.993560950364689 ], [ 5.264406850676138, 50.993517554339064 ], [ 5.264367371476522, 50.99347433859095 ], [ 5.264319621551498, 50.993435899141346 ], [ 5.26426688425525, 50.993400339865808 ], [ 5.264209385489679, 50.993368758729872 ], [ 5.264149478298202, 50.993339185149537 ], [ 5.26408957110672, 50.993309611550352 ], [ 5.264030353322568, 50.993279385016692 ], [ 5.263971946433515, 50.993248390489995 ], [ 5.263913531307451, 50.99321738344333 ], [ 5.263854984990975, 50.993186177300728 ], [ 5.263795691342006, 50.99315416349588 ], [ 5.263734334757493, 50.99312074705945 ], [ 5.263671618420438, 50.993086792545917 ], [ 5.263606536902128, 50.993052367646207 ], [ 5.263537123840345, 50.993018112746597 ], [ 5.263465566664051, 50.992984460968799 ], [ 5.263391936892347, 50.992951954109394 ], [ 5.263317785315442, 50.992919855934261 ], [ 5.263243014354338, 50.992888327474446 ], [ 5.263168243393229, 50.992856798993223 ], [ 5.263093472432126, 50.992825270490563 ], [ 5.263019826818002, 50.992794216489486 ], [ 5.262945014900086, 50.992762727993565 ], [ 5.262870097543781, 50.992731342578324 ], [ 5.262795203905529, 50.992699936816251 ], [ 5.262721098266587, 50.992667855742816 ], [ 5.262646992627641, 50.992635774647205 ], [ 5.262573457804512, 50.992603341396467 ], [ 5.262500595824392, 50.992570444104651 ], [ 5.262427840666441, 50.992537457247536 ], [ 5.262355494182047, 50.992504268296017 ], [ 5.262283312785938, 50.992471000442173 ], [ 5.262579449875818, 50.992613857326639 ], [ 5.262510771264922, 50.992578430661403 ], [ 5.26244214869599, 50.992542980598202 ], [ 5.262372656543718, 50.992507979727854 ], [ 5.262300628044239, 50.992474358546453 ], [ 5.262227428792659, 50.992441601738683 ], [ 5.262153135578638, 50.992409722721071 ], [ 5.262078819729123, 50.992377865054038 ], [ 5.262004497690993, 50.992346013208433 ], [ 5.261930175652862, 50.992314161340978 ], [ 5.261855853614738, 50.99228230945166 ], [ 5.26178484388358, 50.992251877083646 ], [ 5.261710521845456, 50.992220025151582 ], [ 5.261635454048439, 50.992188872827171 ], [ 5.261567323336529, 50.992160651121452 ], [ 5.261492363202769, 50.992129398695226 ], [ 5.261417528219716, 50.992098028983371 ], [ 5.261343339937604, 50.992066051741197 ], [ 5.261270015669492, 50.992034490966617 ], [ 5.261195794415435, 50.992002544082844 ], [ 5.261121573161375, 50.991970597177072 ], [ 5.261047351907316, 50.991938650249317 ], [ 5.260973130653255, 50.991906703299556 ], [ 5.260898909399196, 50.99187475632781 ], [ 5.260824688145136, 50.991842809334088 ], [ 5.260750466891079, 50.99181086231836 ], [ 5.260676245637019, 50.991778915280655 ], [ 5.260601496584904, 50.99174746105323 ], [ 5.260528545839602, 50.99171514902789 ], [ 5.260488028706453, 50.991667025286816 ], [ 5.260447511573302, 50.991618901495869 ], [ 5.261008700067628, 50.991870178968085 ], [ 5.2615476100749, 50.992132372268202 ], [ 5.261484827843216, 50.992095153809743 ], [ 5.261422048251246, 50.992057932887036 ], [ 5.261359268659276, 50.992020711934472 ], [ 5.261624107007856, 50.992179494802755 ], [ 5.261554647075418, 50.992145546146702 ], [ 5.261485187142982, 50.992111597465808 ], [ 5.261417367854683, 50.992077970611483 ], [ 5.261347902309898, 50.992044027055314 ], [ 5.261278436765116, 50.992010083474291 ], [ 5.261208971220332, 50.991976139868477 ], [ 5.261139505675548, 50.991942196237815 ], [ 5.261069075161185, 50.991908503555372 ], [ 5.260998121924487, 50.991875019886109 ], [ 5.260925815271218, 50.991842087101098 ], [ 5.26085281689962, 50.99180964923324 ], [ 5.260778456030976, 50.991778238910058 ], [ 5.260703995970364, 50.991746920780351 ], [ 5.260629535909752, 50.991715602629498 ], [ 5.26055507584914, 50.991684284457513 ], [ 5.260480615788529, 50.991652966264397 ], [ 5.260406155727917, 50.991621648050156 ], [ 5.260331695667307, 50.99159032981477 ], [ 5.260257378991954, 50.991558879132121 ], [ 5.260184383534376, 50.991527347576188 ], [ 5.260110547534954, 50.991495452912964 ], [ 5.260036671000266, 50.991463595651005 ], [ 5.259962226587882, 50.991432262646434 ], [ 5.259887787668024, 50.991400924226269 ], [ 5.259813353547797, 50.991369581071012 ], [ 5.259738919427568, 50.991338237894588 ], [ 5.25966448530734, 50.991306894696983 ], [ 5.25962201521806, 50.991263189773264 ], [ 5.259594640846629, 50.991211206069131 ], [ 5.259561251828952, 50.991160114564536 ], [ 5.259527729136024, 50.991109051159007 ], [ 5.259494206443096, 50.991057987697275 ], [ 5.259460686327542, 50.991006921657331 ], [ 5.259427169670776, 50.990955852176647 ], [ 5.259393653014012, 50.990904782639774 ], [ 5.259360136357247, 50.990853713046704 ], [ 5.259326513215003, 50.990802666470671 ], [ 5.259292451007422, 50.990751714975083 ], [ 5.259258388799842, 50.990700763423554 ], [ 5.259224326592262, 50.990649811816091 ], [ 5.259190264384682, 50.990598860152701 ], [ 5.259156202177103, 50.990547908433378 ], [ 5.259115421542949, 50.990498732157413 ], [ 5.259069375213373, 50.990451157710623 ], [ 5.259015997541134, 50.990406553380915 ], [ 5.258956899054001, 50.990365260882484 ], [ 5.258881522711272, 50.990334820246396 ], [ 5.258806146368542, 50.990304379590341 ], [ 5.258730770025815, 50.990273938914321 ], [ 5.258656080831985, 50.990243775723158 ], [ 5.258580855418284, 50.990213187699922 ], [ 5.258505702879119, 50.990182528530589 ], [ 5.258430550339953, 50.990151869341005 ], [ 5.258355339336371, 50.99012126758381 ], [ 5.258279699349186, 50.990091087404004 ], [ 5.258205069530277, 50.990061305878854 ], [ 5.258129432773659, 50.990031122509038 ], [ 5.258053796017043, 50.990000939119575 ], [ 5.257978502556806, 50.989970892705507 ], [ 5.257902865800189, 50.989940709276866 ], [ 5.257827229043572, 50.98991052582862 ], [ 5.257751592286957, 50.989880342360735 ], [ 5.257675995478833, 50.989850119222751 ], [ 5.257600458215951, 50.989819836964017 ], [ 5.257524920953074, 50.989789554685544 ], [ 5.257449383690198, 50.989759272387303 ], [ 5.257373846427321, 50.989728990069302 ], [ 5.257298309164441, 50.989698707731542 ], [ 5.257222771901565, 50.989668425374028 ], [ 5.257147234638689, 50.989638142996753 ], [ 5.257071697375812, 50.989607860599726 ], [ 5.256996160112935, 50.989577578182946 ], [ 5.256920622850055, 50.989547295746391 ], [ 5.256845085587178, 50.989517013290097 ], [ 5.256773825290249, 50.98948844580373 ], [ 5.256698234203872, 50.989458216668922 ], [ 5.256622654070151, 50.989427976968997 ], [ 5.256547112957035, 50.989397699679564 ], [ 5.256474968422626, 50.989368783738954 ], [ 5.256399427309513, 50.989338506410917 ], [ 5.256324707358556, 50.989308558190146 ], [ 5.256249166245446, 50.989278280822823 ], [ 5.256173625132329, 50.989248003435755 ], [ 5.256098180835933, 50.989217764833768 ], [ 5.256023567464778, 50.98918658831851 ], [ 5.255948987809358, 50.989155379107864 ], [ 5.255881043963428, 50.989126946753899 ], [ 5.255806464308008, 50.989095737503156 ], [ 5.255731878629788, 50.98906453400005 ], [ 5.255656707873457, 50.989033891904057 ], [ 5.25558587835929, 50.989005019423985 ], [ 5.255510707602956, 50.988974377288692 ], [ 5.255437234687149, 50.988944059898259 ], [ 5.255362307055057, 50.988913183555688 ], [ 5.255287335671819, 50.988882365747706 ], [ 5.255212588056386, 50.988851341610129 ], [ 5.25513838664815, 50.988819848460302 ], [ 5.255064185239908, 50.988788355289124 ], [ 5.254990464823814, 50.988756543572315 ], [ 5.254917883118518, 50.988723717682859 ], [ 5.254845371076391, 50.988690826559449 ], [ 5.254772185921897, 50.988658707034702 ], [ 5.254698737048643, 50.988626922184721 ], [ 5.254625608204883, 50.988594990894526 ], [ 5.254554767604888, 50.988562450648502 ], [ 5.254485896396687, 50.988529458794922 ], [ 5.254418343228254, 50.988496490364199 ], [ 5.254352108304249, 50.988463555779262 ], [ 5.254285869821509, 50.98843059268723 ], [ 5.254221036465565, 50.988397449525827 ], [ 5.254156559507785, 50.988364364685943 ], [ 5.254092082550003, 50.988331279822475 ], [ 5.254028821648124, 50.98829855149252 ], [ 5.253965991449286, 50.988265949425056 ], [ 5.253903161250448, 50.988233347334699 ], [ 5.253840331051614, 50.988200745221448 ], [ 5.253779254852185, 50.98816910260733 ], [ 5.253716953059008, 50.988136834241544 ], [ 5.253654651265834, 50.988104565853327 ], [ 5.253592349472658, 50.98807229744267 ], [ 5.253530047679482, 50.988040029009596 ], [ 5.253467745886301, 50.988007760554076 ], [ 5.253405139165446, 50.987975871113285 ], [ 5.253342416378361, 50.987944149015114 ], [ 5.253279660676374, 50.987912410248526 ], [ 5.253216904974383, 50.987880671460218 ], [ 5.253154149272395, 50.987848932650216 ], [ 5.25309233969077, 50.987816307016161 ], [ 5.253031960363598, 50.987782340775105 ], [ 5.252971581036427, 50.987748374509188 ], [ 5.252909503453705, 50.987715990638272 ], [ 5.252849437926891, 50.987681912123904 ], [ 5.252793939463361, 50.987644409089185 ], [ 5.252740929336484, 50.987604821566777 ], [ 5.252688850965627, 50.987564627597386 ], [ 5.252637358193274, 50.987524071608142 ], [ 5.252587133692386, 50.987482731606562 ], [ 5.252536909191502, 50.987441391568183 ], [ 5.252495597464081, 50.987395458594158 ], [ 5.252454612065717, 50.98734935741178 ], [ 5.252424669542226, 50.987299256244675 ], [ 5.252421285133238, 50.987245163561781 ], [ 5.252428289101901, 50.987189731459807 ], [ 5.252442052988256, 50.987134722154103 ], [ 5.252460913748015, 50.98707998530962 ], [ 5.252486816910867, 50.987026257254733 ], [ 5.252516271557614, 50.986973045264584 ], [ 5.252545157458401, 50.986919682788532 ], [ 5.252576382512312, 50.986866956781135 ], [ 5.252615187784231, 50.986816236427082 ], [ 5.252653993056146, 50.986765516017613 ], [ 5.252700410168638, 50.986717930503822 ], [ 5.252746566036977, 50.986670379263543 ], [ 5.25279203141218, 50.986622825940728 ], [ 5.252836923067048, 50.986575545706167 ], [ 5.252881778825929, 50.986528911003063 ], [ 5.252927002646569, 50.986482446028795 ], [ 5.252970716506462, 50.98643696850408 ], [ 5.253013458929115, 50.986391768388415 ], [ 5.253055681603517, 50.986346881076727 ], [ 5.253096848867338, 50.986302628997187 ], [ 5.253137597500925, 50.986258755247249 ], [ 5.253177302666373, 50.986214930021973 ], [ 5.253215473918823, 50.986170744511924 ], [ 5.253253294679595, 50.986127001910518 ], [ 5.25329093084702, 50.986083588043414 ], [ 5.253328643945901, 50.986040523173905 ], [ 5.253367261311388, 50.985997863293775 ], [ 5.253405728060277, 50.985955603935267 ], [ 5.253444125589756, 50.98591352862563 ], [ 5.253482523119238, 50.985871453277859 ], [ 5.253520959919506, 50.9858293766614 ], [ 5.253559677037789, 50.985787424238595 ], [ 5.253598269247015, 50.985745607124841 ], [ 5.2536369863653, 50.985703654626334 ], [ 5.253673900848544, 50.985663655364014 ], [ 5.253711191256914, 50.985621514639078 ], [ 5.25374753749307, 50.98557911749775 ], [ 5.253783971622668, 50.985536961926975 ], [ 5.253821327132813, 50.985495221928126 ], [ 5.253856898992475, 50.98545552108439 ], [ 5.253888250370795, 50.985411928772443 ], [ 5.253914465920916, 50.985366735008803 ], [ 5.25393552206079, 50.985320620665391 ], [ 5.25395331920757, 50.985273753608034 ], [ 5.253970529278667, 50.985227620805524 ], [ 5.253987739349763, 50.985181487957178 ], [ 5.253993698765996, 50.985133666602763 ], [ 5.253998199433383, 50.985085690272228 ], [ 5.25399774469344, 50.985038318834391 ], [ 5.253983834425246, 50.984990628657926 ], [ 5.253965018939056, 50.984943249321603 ], [ 5.253938346597834, 50.984897131596902 ], [ 5.253897717888416, 50.984854883328339 ], [ 5.253844947901118, 50.984817059407554 ], [ 5.25378697428145, 50.984781623894143 ], [ 5.253722483380401, 50.984750962158898 ], [ 5.253652929138648, 50.98472460097102 ], [ 5.253576121602589, 50.984705088219414 ], [ 5.253498271106612, 50.984687222419012 ], [ 5.253419141472, 50.984671266683407 ], [ 5.253338500359485, 50.984658998487745 ], [ 5.253256896165183, 50.98464877441959 ], [ 5.253175221332357, 50.984640780997026 ], [ 5.25309201208617, 50.984636252192267 ], [ 5.253008611267286, 50.98463166105023 ], [ 5.252925210448401, 50.984627069907752 ], [ 5.252841511313536, 50.984623531502294 ], [ 5.252757731761935, 50.984620276881984 ], [ 5.252673952210335, 50.984617022261439 ], [ 5.252590172658735, 50.984613767640667 ], [ 5.252506288136249, 50.984610941890246 ], [ 5.252422256751921, 50.984608716160622 ], [ 5.252337939818254, 50.984608275150649 ], [ 5.252253226789285, 50.984610309786717 ], [ 5.252168480978894, 50.984612858718698 ], [ 5.252083651391596, 50.984616721996765 ], [ 5.251999041114695, 50.984624491485178 ], [ 5.251914537914852, 50.984634168157108 ], [ 5.251830889956335, 50.984646891514259 ], [ 5.251748713920458, 50.984664776240926 ], [ 5.251667707959339, 50.984685088669167 ], [ 5.251587357279036, 50.984706710987091 ], [ 5.251508306921474, 50.984730543253477 ], [ 5.251431920993777, 50.984757825069991 ], [ 5.251357934607502, 50.984788213487171 ], [ 5.251284496952006, 50.984819183316198 ], [ 5.251211997840477, 50.984851072188626 ], [ 5.25114378317805, 50.984886898281722 ], [ 5.251076189354521, 50.984923222501607 ], [ 5.251010986756302, 50.984961071702237 ], [ 5.250949740629916, 50.985001267251484 ], [ 5.250894105222239, 50.985044865195277 ], [ 5.250840455502254, 50.985089227609201 ], [ 5.250788689174158, 50.985134507722357 ], [ 5.25074168928391, 50.98518166214371 ], [ 5.250695906115705, 50.985228976724393 ], [ 5.250654190221623, 50.985277655244069 ], [ 5.250617565832548, 50.985328082286735 ], [ 5.250582523298506, 50.985378349194022 ], [ 5.250547480764465, 50.985428616046867 ], [ 5.250513223675066, 50.985478705142292 ], [ 5.250478901340441, 50.985528699418921 ], [ 5.250445501048882, 50.985578058804286 ], [ 5.250412385172476, 50.985627319189021 ], [ 5.250379419877904, 50.985676501361596 ], [ 5.250347397838293, 50.985725193883546 ], [ 5.250315686289752, 50.985773667976353 ], [ 5.250284437313781, 50.985821826019674 ], [ 5.250253244212107, 50.98586977326179 ], [ 5.25022209202188, 50.985917508429637 ], [ 5.250190939831651, 50.985965243548385 ], [ 5.250159787641422, 50.986012978618049 ], [ 5.250128635451192, 50.986060713638636 ], [ 5.250097483260964, 50.986108448610125 ], [ 5.250066331070735, 50.986156183532543 ], [ 5.250035178880506, 50.986203918405856 ], [ 5.250003816730514, 50.986251580734255 ], [ 5.249972323298485, 50.986299197684097 ], [ 5.249940829866458, 50.986346814585112 ], [ 5.249909336434429, 50.986394431437269 ], [ 5.249877843002399, 50.98644204824059 ], [ 5.249846349570371, 50.986489664995069 ], [ 5.249814856138343, 50.986537281700691 ], [ 5.249783373111684, 50.986584888785934 ], [ 5.249759144685645, 50.986634669785097 ], [ 5.24973933124985, 50.986685516138024 ], [ 5.249722596245259, 50.986737069557101 ], [ 5.24971319143082, 50.986789696257908 ], [ 5.249708600704897, 50.986843018810497 ], [ 5.24970836986622, 50.986896605169619 ], [ 5.24971323297394, 50.986950471489052 ], [ 5.249726161332211, 50.987004127452664 ], [ 5.249748371096629, 50.987057081228329 ], [ 5.249777082604488, 50.987108936640688 ], [ 5.249809793551753, 50.987160234032437 ], [ 5.249847136145582, 50.987210501865434 ], [ 5.249888747205063, 50.987259590523614 ], [ 5.24993657128539, 50.98730658803882 ], [ 5.24998932531124, 50.987351700200932 ], [ 5.250051577522219, 50.987392025757195 ], [ 5.250114121152192, 50.987432204342625 ], [ 5.250181922508428, 50.987468715660214 ], [ 5.25025344481332, 50.987502631611207 ], [ 5.2502867, 50.98751840124671 ] ] } }
]
}
